{"type":"FeatureCollection","features":[{"type":"Feature","properties":{},"geometry":{"type":"LineString","coordinates":[[106.6233586,20.9134062],[106.6107169,20.9110125],[106.608495,20.909587],[106.6068707,20.9069689],[106.6059861,20.9016702],[106.6045578,20.8930096],[106.6037242,20.8900518],[106.6029306,20.8888538],[106.601715,20.8880568],[106.6003683,20.8875345],[106.5966616,20.885006],[106.5939953,20.8829587],[106.5856183,20.8797277],[106.5842498,20.8786141],[106.5831243,20.8769117],[106.5827104,20.8755346],[106.5821588,20.8709414],[106.58019,20.8686861],[106.5769592,20.8654509],[106.5758353,20.8619749],[106.5752095,20.8607636],[106.5670984,20.8521207],[106.5656212,20.8501788],[106.5636839,20.8471693]]}}]}