{"type":"FeatureCollection","features":[{"type":"Feature","properties":{},"geometry":{"type":"LineString","coordinates":[[106.5062229,20.9673049],[106.506267,20.9664743],[106.5059581,20.964881],[106.5051932,20.9629581],[106.5040607,20.960623],[106.5032473,20.9588913],[106.5009334,20.9537965],[106.5000105,20.9517614],[106.4998199,20.9505294],[106.5000948,20.9486909],[106.5003908,20.9478943],[106.5008723,20.947731],[106.5010693,20.947465],[106.5009117,20.9470227],[106.5003998,20.9469362],[106.4999799,20.9467803],[106.498558,20.9450047],[106.4964183,20.9425395],[106.4939717,20.9387604],[106.4927522,20.9382562],[106.4923685,20.9363748],[106.4924192,20.9348304],[106.4907269,20.9312255],[106.4905009,20.929433],[106.4894309,20.9282884],[106.4893792,20.9241441],[106.4889547,20.9227778],[106.4890409,20.9217756],[106.4924458,20.9180297],[106.4936679,20.9154374],[106.4953066,20.91481],[106.498297,20.9116114],[106.4992525,20.9108431],[106.500056,20.9099162],[106.5035703,20.9070998],[106.5039209,20.9053376],[106.5052855,20.9046477],[106.5075214,20.9033034],[106.5089709,20.9026757],[106.5124635,20.8999091],[106.5239331,20.8906762],[106.5318971,20.8896167],[106.532177,20.8893985],[106.5333522,20.8869345],[106.5352291,20.8858191],[106.5380532,20.8842616],[106.5409148,20.8828994],[106.5443857,20.8817615],[106.5496666,20.8815075],[106.5529387,20.8810218],[106.5554719,20.8807661],[106.5592289,20.8799525],[106.5619107,20.877759],[106.5670972,20.8752892],[106.5700641,20.8739529],[106.5706894,20.8734927],[106.5732782,20.873042],[106.5744398,20.871668],[106.5787349,20.8705981],[106.5786576,20.8688772],[106.5790275,20.8676255],[106.5818237,20.8637905],[106.5824043,20.8618352],[106.5830505,20.8617024],[106.5902832,20.8621156],[106.5924873,20.8621474],[106.5938787,20.8615438],[106.5943937,20.8613932],[106.5953029,20.8614421],[106.5958844,20.8616738],[106.596919,20.8623665],[106.5979213,20.8633409],[106.6036227,20.86458],[106.6084424,20.8653723],[106.6155746,20.86726],[106.6174372,20.8677997],[106.6201357,20.868028],[106.6229839,20.8675069],[106.6259937,20.8667677],[106.6312759,20.8648127],[106.6333526,20.8634645],[106.6341528,20.8632724],[106.6350646,20.8632131],[106.6372085,20.8631777],[106.6394949,20.8631098],[106.6408665,20.8636704],[106.6416367,20.8640063],[106.6420078,20.8640298],[106.6426316,20.8638821],[106.6435401,20.8636072],[106.6444263,20.8630847],[106.6464777,20.8612082],[106.647281,20.8602256],[106.6481283,20.8592213],[106.64894,20.8588609],[106.6512789,20.8572719]]}}]}