{"type":"FeatureCollection","features":[{"type":"Feature","properties":{"stroke":"#00ffff","stroke-width":7,"stroke-opacity":0.3},"geometry":{"type":"LineString","coordinates":[[106.6503911,20.8652574],[106.6317378,20.8710882],[106.6131106,20.877576],[106.6038303,20.8814435],[106.5997577,20.8828158],[106.5969228,20.8845402],[106.5955875,20.8869106],[106.5949866,20.8903413],[106.5944701,20.8919102],[106.5941036,20.8925907],[106.5906604,20.8939517],[106.5873993,20.8957766],[106.583923,20.8971066],[106.5812802,20.8986641],[106.5799219,20.8994952],[106.5787688,20.9004701],[106.577222,20.9024305],[106.5748343,20.9057237],[106.5736123,20.9074618],[106.5722105,20.9089265],[106.5634675,20.9170446],[106.5622754,20.9179817],[106.561705,20.9188637],[106.5596593,20.9218953],[106.558243,20.9240817],[106.5568858,20.9263599],[106.5542455,20.9307147],[106.5508162,20.9348597],[106.5442192,20.9433288],[106.5422694,20.9452426],[106.5388737,20.9467498],[106.5359151,20.9485081],[106.5300652,20.9537249],[106.5284514,20.9553575],[106.5239263,20.9587502],[106.5175048,20.9637106],[106.5150169,20.9654059],[106.5134704,20.9663478],[106.5117399,20.966686],[106.5087477,20.9667174],[106.5000689,20.9693946],[106.4923406,20.9720934],[106.4901567,20.972935],[106.4875222,20.9731615],[106.4823224,20.9736471],[106.4781973,20.9731292],[106.4691464,20.9714478],[106.4606379,20.9692758]]}}]}