{"type":"FeatureCollection","features":[{"type":"Feature","geometry":{"type":"LineString","coordinates":[[106.6254322,20.8033007],[106.624642,20.803782],[106.6243143,20.8042717],[106.6242343,20.8050676],[106.6240223,20.8088004],[106.6235725,20.8186161],[106.6237711,20.8191278],[106.6244216,20.820131],[106.6244855,20.8203003],[106.6245087,20.8213991],[106.6243783,20.8265401],[106.6243122,20.8317314],[106.6241565,20.8342284],[106.6239656,20.8348857],[106.6226811,20.8381729],[106.6218384,20.8408182],[106.6217593,20.8412448],[106.6215433,20.8418328],[106.6207543,20.8433051],[106.6201432,20.844886],[106.6195504,20.846232],[106.6192349,20.8469824],[106.6171226,20.8518679],[106.6158543,20.8557911],[106.6144626,20.8601181],[106.6135887,20.8659843],[106.6130431,20.8673475],[106.6127379,20.8677402],[106.6100972,20.8689902],[106.6073593,20.8709319],[106.6068207,20.8713],[106.6054878,20.8737259],[106.6028127,20.8788567],[106.6018724,20.8806982],[106.6004969,20.8837212],[106.6003428,20.884344],[106.6002974,20.8845588],[106.6002092,20.886183],[106.6002451,20.8865614],[106.6005149,20.8869525],[106.6009206,20.8871884],[106.6013884,20.8873255],[106.6042803,20.8883428],[106.6047145,20.8886984],[106.6050734,20.8892519],[106.6037625,20.8900236]]},"properties":{}}]}