{"type":"FeatureCollection","features":[{"type":"Feature","properties":{},"geometry":{"type":"LineString","coordinates":[[106.609474,20.8152076],[106.6133953,20.8145455],[106.6175201,20.8138658],[106.6196454,20.8134378],[106.6209301,20.8132586],[106.6226761,20.8136064],[106.623876,20.8138893],[106.623821,20.814137],[106.6238081,20.8159994],[106.6238178,20.8161474],[106.6241733,20.8163619],[106.6252073,20.816627],[106.6259183,20.8168506],[106.6262286,20.8169805],[106.6270219,20.8176312],[106.6276372,20.818212],[106.6287134,20.8189581],[106.6295987,20.8197526],[106.6302257,20.8204203],[106.6306753,20.8208771],[106.6317547,20.8213302],[106.6345016,20.8224162],[106.6370606,20.8223441],[106.6403443,20.8222142],[106.642943,20.8221104],[106.6457298,20.8220044],[106.6488687,20.8218743],[106.6489657,20.8218743],[106.6490271,20.8217958],[106.6491499,20.8217867],[106.6493632,20.8219771],[106.6499353,20.8223547],[106.6522305,20.8237181],[106.6543665,20.8249807],[106.6555705,20.8258048],[106.6560222,20.8264544],[106.660123,20.8330628],[106.6605187,20.8336764],[106.6616918,20.8351865],[106.6624781,20.8360693],[106.6632139,20.8368651],[106.6643618,20.8379768]]}}]}