{"type":"FeatureCollection","features":[{"type":"Feature","properties":{},"geometry":{"type":"LineString","coordinates":[[106.6255592,20.8028924],[106.624808,20.8011861],[106.6235102,20.7985699],[106.6231571,20.7978256],[106.6224661,20.7964703],[106.6214651,20.7943629],[106.6205261,20.7925301],[106.6193839,20.7902036],[106.6191135,20.7896418],[106.6187524,20.7888753],[106.6180875,20.7876141],[106.6171829,20.7857654],[106.6152309,20.7818598],[106.6143352,20.7802072],[106.6126835,20.7763471],[106.611755,20.774139],[106.6108114,20.7719069],[106.6096976,20.7701577],[106.6096967,20.770155]]}}]}