{
  "type": "FeatureCollection",
  "name": "gis.vn",
  "features": [
    {
      "type": "Feature",
      "properties": {
        "ma_xa": "11407",
        "ten_xa": "An Biên",
        "sap_nhap": "An Dương, An Biên (1 phần), Trần Nguyên Hãn (1 phần), Vĩnh Niệm (1 phần)",
        "tru_so": [20.82827097, 106.6851007],
        "loai": "Phường",
        "cap": 2,
        "stt": 13,
        "dtich_km2": 6.56,
        "dan_so": 116091,
        "matdo_km2": 17696.8,
        "ma_tinh": "31",
        "ten_tinh": "Hải Phòng",
        "mau_sac": "#FFFF00"
      },
      "geometry": {
        "type": "MultiPolygon",
        "coordinates": [
          [
            [
              [106.68127600000008, 20.855337000000077],
              [106.68130200000007, 20.855354000000034],
              [106.68152200000009, 20.855499000000066],
              [106.68156800000008, 20.855741000000023],
              [106.68162000000007, 20.85600900000003],
              [106.68146300000006, 20.855977000000053],
              [106.68018000000006, 20.855714000000035],
              [106.67991700000005, 20.855661000000055],
              [106.67930200000006, 20.85553600000003],
              [106.67897700000009, 20.855471000000023],
              [106.67834000000005, 20.855342000000064],
              [106.67824000000007, 20.855720000000076],
              [106.67810700000007, 20.855691000000036],
              [106.67799100000008, 20.855669000000034],
              [106.67629200000005, 20.85535200000004],
              [106.67526000000004, 20.85516000000007],
              [106.67470000000009, 20.85506300000003],
              [106.67456400000003, 20.85503300000005],
              [106.67345800000004, 20.854801000000066],
              [106.67243500000006, 20.85460500000005],
              [106.67203000000006, 20.854551000000072],
              [106.67188400000003, 20.85454500000003],
              [106.67140600000005, 20.85452300000003],
              [106.67067400000008, 20.85451800000004],
              [106.67039200000005, 20.854524000000026],
              [106.67037600000003, 20.854524000000026],
              [106.67020900000006, 20.854615000000024],
              [106.66985600000004, 20.854805000000056],
              [106.66940500000004, 20.855031000000054],
              [106.66930100000008, 20.85508500000003],
              [106.66903200000007, 20.855226000000073],
              [106.66882400000009, 20.85505900000004],
              [106.66850900000009, 20.854808000000048],
              [106.66808700000007, 20.85448400000007],
              [106.66769400000004, 20.85419100000007],
              [106.66737400000005, 20.85398200000003],
              [106.66691700000007, 20.85373100000004],
              [106.66652000000005, 20.853544000000056],
              [106.66651900000005, 20.85354300000006],
              [106.66646600000007, 20.853525000000047],
              [106.66553100000004, 20.853261000000032],
              [106.66450500000008, 20.85308200000003],
              [106.66392400000007, 20.85301000000004],
              [106.66367900000006, 20.85256000000004],
              [106.66320100000007, 20.852044000000035],
              [106.66268800000006, 20.851572000000033],
              [106.66207900000006, 20.85064600000004],
              [106.66202200000004, 20.85053700000003],
              [106.66118700000004, 20.84929500000004],
              [106.66062100000005, 20.848382000000072],
              [106.65968600000008, 20.846835000000056],
              [106.65908300000007, 20.84583800000007],
              [106.65827100000007, 20.844595000000027],
              [106.65791600000006, 20.843904000000066],
              [106.65765900000008, 20.843403000000023],
              [106.65833100000003, 20.84306600000008],
              [106.65874900000006, 20.842868000000067],
              [106.65918200000004, 20.842634000000032],
              [106.65921000000009, 20.84261900000007],
              [106.65984600000007, 20.842213000000072],
              [106.66083700000007, 20.841354000000024],
              [106.66127300000005, 20.84096900000003],
              [106.66194500000006, 20.840341000000024],
              [106.66308700000008, 20.839146000000028],
              [106.66421600000007, 20.837956000000077],
              [106.66427700000008, 20.83789900000005],
              [106.66441900000007, 20.837769000000037],
              [106.66570000000007, 20.836595000000045],
              [106.66606600000006, 20.836185000000057],
              [106.66641100000004, 20.835757000000058],
              [106.66647000000006, 20.835691000000054],
              [106.66679600000003, 20.83525000000003],
              [106.66711000000004, 20.834791000000052],
              [106.66743100000008, 20.83426600000007],
              [106.66767900000008, 20.83391000000006],
              [106.66776100000004, 20.833744000000024],
              [106.66850700000003, 20.832722000000047],
              [106.66892600000006, 20.831818000000055],
              [106.66943100000009, 20.830547000000024],
              [106.66953900000004, 20.830167000000074],
              [106.66987700000004, 20.829172000000028],
              [106.67008300000003, 20.82808700000004],
              [106.67011900000006, 20.827733000000023],
              [106.67011900000006, 20.826486000000045],
              [106.67002600000006, 20.825204000000042],
              [106.66956000000005, 20.822888000000034],
              [106.66952900000007, 20.822486000000026],
              [106.66950600000007, 20.821890000000053],
              [106.66950100000008, 20.821755000000053],
              [106.66949500000004, 20.821611000000075],
              [106.66949400000004, 20.821583000000032],
              [106.66957400000007, 20.820929000000035],
              [106.66982000000007, 20.82026200000007],
              [106.67019000000005, 20.819766000000072],
              [106.67097400000006, 20.819052000000056],
              [106.67184600000007, 20.818444000000056],
              [106.67273000000006, 20.81796600000007],
              [106.67378100000008, 20.817567000000054],
              [106.67426200000006, 20.817427000000066],
              [106.67589000000004, 20.816977000000065],
              [106.67624800000004, 20.816873000000044],
              [106.67693800000006, 20.816711000000055],
              [106.67969900000008, 20.81610100000006],
              [106.68084400000004, 20.81584900000007],
              [106.68206200000009, 20.815611000000047],
              [106.68326300000007, 20.81542600000006],
              [106.68438900000007, 20.815281000000027],
              [106.68461600000006, 20.81524500000006],
              [106.68612400000006, 20.815101000000027],
              [106.68632400000007, 20.815097000000037],
              [106.68640200000004, 20.81509600000004],
              [106.68814500000008, 20.815149000000076],
              [106.68933700000008, 20.815131000000065],
              [106.68964500000004, 20.815198000000066],
              [106.69029400000005, 20.815320000000042],
              [106.69098300000007, 20.81550100000004],
              [106.69140500000009, 20.815654000000052],
              [106.69176600000009, 20.815811000000053],
              [106.69209300000006, 20.815999000000033],
              [106.69242700000007, 20.816208000000074],
              [106.69260700000007, 20.81633000000005],
              [106.69298700000007, 20.81669900000003],
              [106.69321500000007, 20.816935000000058],
              [106.69347900000008, 20.817254000000048],
              [106.69363900000008, 20.81747100000007],
              [106.69393200000007, 20.818001000000038],
              [106.69409800000005, 20.81831100000005],
              [106.69419500000004, 20.81849100000005],
              [106.69446100000005, 20.81909600000006],
              [106.69452700000005, 20.819338000000073],
              [106.69454100000007, 20.819394000000045],
              [106.69461900000005, 20.819678000000067],
              [106.69483700000006, 20.820483000000024],
              [106.69498700000008, 20.82098300000007],
              [106.69529900000003, 20.822584000000063],
              [106.69542200000006, 20.82396300000005],
              [106.69548400000008, 20.824637000000052],
              [106.69571100000007, 20.826224000000025],
              [106.69600800000006, 20.826940000000036],
              [106.69617800000009, 20.827243000000067],
              [106.69630400000005, 20.82742200000007],
              [106.69615000000005, 20.827521000000047],
              [106.69590300000004, 20.827717000000064],
              [106.69585800000004, 20.827756000000022],
              [106.69575200000008, 20.82785000000007],
              [106.69561900000008, 20.828018000000043],
              [106.69528300000007, 20.828472000000033],
              [106.69514200000003, 20.828662000000065],
              [106.69473600000003, 20.82851000000005],
              [106.69367700000004, 20.827932000000033],
              [106.69263100000006, 20.82719700000007],
              [106.69059800000008, 20.825747000000035],
              [106.68985700000007, 20.825172000000066],
              [106.68929300000008, 20.824997000000053],
              [106.68902200000008, 20.82519300000007],
              [106.68872000000005, 20.82547500000004],
              [106.68858400000005, 20.82561000000004],
              [106.68766900000008, 20.826387000000068],
              [106.68682900000005, 20.827102000000025],
              [106.68623700000006, 20.827604000000065],
              [106.68525200000005, 20.828454000000022],
              [106.68514800000008, 20.828584000000035],
              [106.68507400000004, 20.828708000000063],
              [106.68475200000006, 20.82920400000006],
              [106.68431200000003, 20.829935000000035],
              [106.68415400000004, 20.830290000000048],
              [106.68390600000004, 20.830904000000032],
              [106.68375200000008, 20.831404000000077],
              [106.68354800000009, 20.83231100000006],
              [106.68342500000006, 20.83305400000006],
              [106.68335000000008, 20.83363600000007],
              [106.68318900000008, 20.83463400000005],
              [106.68314100000003, 20.83463100000006],
              [106.68304800000004, 20.83462600000007],
              [106.68297000000007, 20.834621000000027],
              [106.68238500000007, 20.834578000000022],
              [106.68222200000008, 20.834566000000052],
              [106.67994200000004, 20.834444000000076],
              [106.67885800000005, 20.834361000000058],
              [106.67855800000007, 20.834337000000062],
              [106.67793100000006, 20.83428900000007],
              [106.67716500000006, 20.834231000000045],
              [106.67706600000008, 20.834223000000065],
              [106.67705200000006, 20.834281000000033],
              [106.67701600000004, 20.834400000000073],
              [106.67699200000004, 20.834463000000028],
              [106.67696700000005, 20.834527000000037],
              [106.67693900000006, 20.834595000000036],
              [106.67689700000005, 20.834691000000078],
              [106.67681100000004, 20.834889000000032],
              [106.67667400000005, 20.835209000000077],
              [106.67653800000005, 20.83552700000007],
              [106.67642300000006, 20.835794000000078],
              [106.67630200000008, 20.836077000000046],
              [106.67616600000008, 20.836397000000034],
              [106.67605400000008, 20.836658000000057],
              [106.67597100000006, 20.83685600000007],
              [106.67589600000008, 20.837038000000064],
              [106.67586300000005, 20.837117000000035],
              [106.67582500000009, 20.837208000000032],
              [106.67577400000005, 20.83733200000006],
              [106.67575300000004, 20.837384000000043],
              [106.67574800000006, 20.837398000000064],
              [106.67574400000007, 20.837410000000034],
              [106.67573600000009, 20.837436000000025],
              [106.67572400000006, 20.837474000000043],
              [106.67571700000008, 20.83750200000003],
              [106.67571800000007, 20.837526000000025],
              [106.67572600000005, 20.837558000000058],
              [106.67574100000007, 20.837587000000042],
              [106.67575300000004, 20.837605000000053],
              [106.67576200000008, 20.837613000000033],
              [106.67576800000006, 20.837616000000025],
              [106.67588800000004, 20.83765200000005],
              [106.67603000000008, 20.837718000000052],
              [106.67596100000009, 20.83777800000007],
              [106.67581400000006, 20.837774000000024],
              [106.67563000000007, 20.837758000000065],
              [106.67547700000006, 20.837765000000047],
              [106.67536400000006, 20.837886000000026],
              [106.67515200000008, 20.838201000000026],
              [106.67510700000008, 20.838258000000053],
              [106.67467600000003, 20.83890800000006],
              [106.67452400000008, 20.839194000000077],
              [106.67531500000007, 20.83932100000004],
              [106.67532000000006, 20.839545000000044],
              [106.67547400000007, 20.840122000000065],
              [106.67549900000006, 20.84022200000004],
              [106.67571900000007, 20.84111800000005],
              [106.67581700000005, 20.84201100000007],
              [106.67582700000008, 20.842164000000025],
              [106.67583000000008, 20.842370000000074],
              [106.67574500000006, 20.842542000000037],
              [106.67540400000007, 20.84292300000004],
              [106.67525800000004, 20.84307300000006],
              [106.67572300000006, 20.843557000000033],
              [106.67605700000007, 20.843942000000027],
              [106.67616300000009, 20.844336000000055],
              [106.67614900000007, 20.844655000000046],
              [106.67614600000007, 20.844726000000037],
              [106.67612000000008, 20.844810000000052],
              [106.67605700000007, 20.845011000000056],
              [106.67581500000006, 20.845587000000023],
              [106.67556800000006, 20.84618100000006],
              [106.67540100000008, 20.846637000000044],
              [106.67539300000004, 20.846689000000026],
              [106.67536500000006, 20.84686700000003],
              [106.67510000000004, 20.846849000000077],
              [106.67471800000004, 20.846817000000044],
              [106.67408800000004, 20.84673900000007],
              [106.67309000000006, 20.84666500000003],
              [106.67254200000008, 20.846605000000068],
              [106.67253100000005, 20.846701000000053],
              [106.67240400000009, 20.847311000000047],
              [106.67227700000007, 20.847868000000062],
              [106.67190200000005, 20.84953900000005],
              [106.67122700000004, 20.849398000000065],
              [106.67105900000007, 20.850174000000038],
              [106.67097600000005, 20.85055200000005],
              [106.67085000000009, 20.851125000000025],
              [106.67259200000007, 20.85130900000007],
              [106.67317500000007, 20.85137100000003],
              [106.67386500000003, 20.851444000000072],
              [106.67504400000007, 20.851571000000035],
              [106.67527400000006, 20.85159600000003],
              [106.67577300000005, 20.851650000000063],
              [106.67681600000009, 20.851763000000062],
              [106.67679100000004, 20.851871000000074],
              [106.67666700000007, 20.852399000000048],
              [106.67664800000006, 20.852479000000073],
              [106.67804900000004, 20.85274000000004],
              [106.68023600000004, 20.853148000000033],
              [106.68140500000004, 20.85336600000005],
              [106.68231800000007, 20.85354700000005],
              [106.68298000000004, 20.853679000000056],
              [106.68342800000005, 20.85376800000006],
              [106.68351200000006, 20.853781000000026],
              [106.68360800000005, 20.853797000000043],
              [106.68359300000009, 20.853797000000043],
              [106.68213200000008, 20.853830000000073],
              [106.68220300000007, 20.854306000000065],
              [106.68169300000005, 20.854480000000024],
              [106.68173400000006, 20.854679000000033],
              [106.68184700000006, 20.854930000000024],
              [106.68177400000008, 20.85489800000005],
              [106.68091500000008, 20.85479200000003],
              [106.68087000000008, 20.85512300000005],
              [106.68113200000005, 20.85526100000004],
              [106.68127600000008, 20.855337000000077]
            ]
          ]
        ]
      }
    }
  ]
}
