{
  "type": "FeatureCollection",
  "name": "gis.vn",
  "features": [
    {
      "type": "Feature",
      "properties": {
        "ma_xa": "10792",
        "ten_xa": "An Thành",
        "sap_nhap": "Ngũ Phúc (huyện Kim Thành), Kim Tân, Kim Đính",
        "tru_so": [20.92184585, 106.5220592],
        "loai": "Xã",
        "cap": 2,
        "stt": 113,
        "dtich_km2": 23.66,
        "dan_so": 28785,
        "matdo_km2": 1216.61,
        "ma_tinh": "31",
        "ten_tinh": "Hải Phòng",
        "mau_sac": "#FF6600"
      },
      "geometry": {
        "type": "MultiPolygon",
        "coordinates": [
          [
            [
              [106.48187200000007, 20.96189700000002],
              [106.48097900000005, 20.96222000000006],
              [106.48029100000008, 20.96256100000005],
              [106.48017500000009, 20.962632000000042],
              [106.48000700000006, 20.962735000000066],
              [106.47965500000004, 20.963121000000058],
              [106.47945600000008, 20.963562000000024],
              [106.47940800000003, 20.963878000000022],
              [106.47936700000008, 20.96491100000003],
              [106.47929200000004, 20.965543000000025],
              [106.47919400000006, 20.965907000000072],
              [106.47907400000008, 20.966157000000067],
              [106.47886200000005, 20.966331000000025],
              [106.47852800000004, 20.96648600000003],
              [106.47796900000009, 20.966596000000038],
              [106.47756200000003, 20.966581000000076],
              [106.47741600000006, 20.96649000000008],
              [106.47685900000005, 20.96614100000005],
              [106.47636200000005, 20.96570200000008],
              [106.47612000000004, 20.96487300000007],
              [106.47598900000008, 20.96291400000007],
              [106.47600400000005, 20.962378000000058],
              [106.47607200000004, 20.962091000000044],
              [106.47617700000006, 20.961819000000048],
              [106.47617900000006, 20.961813000000063],
              [106.47622100000007, 20.961609000000067],
              [106.47642400000007, 20.960615000000075],
              [106.47650100000004, 20.96013700000003],
              [106.47646300000008, 20.95939100000004],
              [106.47636700000004, 20.95889500000004],
              [106.47617900000006, 20.958409000000074],
              [106.47587700000008, 20.957800000000077],
              [106.47537100000005, 20.957020000000057],
              [106.47466900000006, 20.95601300000004],
              [106.47424500000005, 20.95527100000004],
              [106.47381700000005, 20.954271000000062],
              [106.47373200000004, 20.953841000000068],
              [106.47371800000008, 20.953449000000035],
              [106.47386400000005, 20.95274100000006],
              [106.47390300000006, 20.95252800000003],
              [106.47394100000008, 20.952319000000045],
              [106.47397500000005, 20.952228000000048],
              [106.47407500000008, 20.951967000000025],
              [106.47413600000004, 20.95184100000006],
              [106.47428400000007, 20.95153700000003],
              [106.47438200000005, 20.951072000000067],
              [106.47441000000003, 20.950818000000027],
              [106.47446900000006, 20.950293000000045],
              [106.47471000000007, 20.950248000000045],
              [106.47525800000005, 20.950120000000027],
              [106.47626600000007, 20.949835000000064],
              [106.47752800000006, 20.949351000000036],
              [106.47816100000006, 20.949069000000065],
              [106.47894800000006, 20.948695000000043],
              [106.47942300000005, 20.948499000000027],
              [106.48043900000005, 20.947979000000032],
              [106.48061000000007, 20.947865000000036],
              [106.48115800000005, 20.947498000000053],
              [106.48205900000005, 20.94688400000007],
              [106.48308400000008, 20.94599000000005],
              [106.48363300000005, 20.94540900000004],
              [106.48437000000007, 20.944598000000042],
              [106.48476900000009, 20.94411400000007],
              [106.48525900000004, 20.943519000000038],
              [106.48589800000008, 20.94246000000004],
              [106.48633100000006, 20.941532000000052],
              [106.48654300000004, 20.94090600000004],
              [106.48660100000006, 20.940736000000072],
              [106.48666600000007, 20.940361000000053],
              [106.48673600000006, 20.939823000000047],
              [106.48669700000005, 20.93923300000006],
              [106.48661200000004, 20.937913000000037],
              [106.48614500000008, 20.936177000000043],
              [106.48608900000005, 20.935967000000062],
              [106.48577600000004, 20.935166000000038],
              [106.48436800000007, 20.93324300000006],
              [106.48329800000005, 20.93223400000005],
              [106.48298100000005, 20.931935000000067],
              [106.48144100000007, 20.930615000000046],
              [106.48071600000009, 20.929986000000042],
              [106.47860900000006, 20.92815900000005],
              [106.47762500000005, 20.927068000000077],
              [106.47692700000005, 20.92629500000004],
              [106.47621400000008, 20.925182000000063],
              [106.47535300000004, 20.92298100000005],
              [106.47491800000006, 20.92109700000003],
              [106.47487400000006, 20.92090600000006],
              [106.47487000000007, 20.92071100000004],
              [106.47484000000009, 20.91935200000006],
              [106.47501000000005, 20.91748700000005],
              [106.47521600000005, 20.915224000000023],
              [106.47523600000005, 20.91513800000007],
              [106.47560900000008, 20.91354000000007],
              [106.47679000000005, 20.91030100000006],
              [106.47737800000004, 20.90899500000006],
              [106.47817200000009, 20.90722900000003],
              [106.47834800000004, 20.906870000000026],
              [106.47950100000008, 20.904524000000038],
              [106.48047900000006, 20.902536000000055],
              [106.48118900000009, 20.90276700000004],
              [106.48246300000005, 20.903182000000072],
              [106.48255200000006, 20.90318700000006],
              [106.48261500000007, 20.903173000000038],
              [106.48271700000004, 20.903124000000048],
              [106.48291700000004, 20.90295700000007],
              [106.48336900000004, 20.901849000000027],
              [106.48354400000005, 20.901421000000028],
              [106.48374000000007, 20.900863000000072],
              [106.48410800000005, 20.899951000000044],
              [106.48413000000005, 20.899898000000064],
              [106.48419100000007, 20.899781000000075],
              [106.48460600000004, 20.898990000000026],
              [106.48465300000004, 20.89898800000003],
              [106.48569600000008, 20.898276000000067],
              [106.48607200000004, 20.898136000000022],
              [106.48619700000006, 20.898130000000037],
              [106.48623700000007, 20.898128000000042],
              [106.48674400000004, 20.89817400000004],
              [106.48711900000006, 20.898236000000054],
              [106.48729900000006, 20.89832700000005],
              [106.48745200000008, 20.898419000000047],
              [106.48781300000007, 20.898595000000057],
              [106.48802800000004, 20.898769000000073],
              [106.48812100000004, 20.898915000000045],
              [106.48815700000006, 20.899083000000076],
              [106.48813900000005, 20.899223000000063],
              [106.48807600000004, 20.89934900000003],
              [106.48796300000004, 20.89949000000007],
              [106.48772000000008, 20.899668000000077],
              [106.48743200000007, 20.89981800000004],
              [106.48697600000008, 20.900004000000024],
              [106.48667600000005, 20.900161000000026],
              [106.48650200000009, 20.90032400000007],
              [106.48632100000003, 20.900569000000075],
              [106.48624400000006, 20.900825000000054],
              [106.48623100000003, 20.90111500000006],
              [106.48627900000008, 20.90126200000003],
              [106.48641400000008, 20.901411000000053],
              [106.48669000000007, 20.901541000000066],
              [106.48706800000008, 20.901635000000056],
              [106.48750800000005, 20.901692000000025],
              [106.48792700000007, 20.90167800000006],
              [106.48830400000008, 20.901631000000066],
              [106.48860500000006, 20.901557000000025],
              [106.48886300000004, 20.901444000000026],
              [106.48919300000006, 20.901215000000036],
              [106.48958600000009, 20.900846000000058],
              [106.48992700000008, 20.90054200000003],
              [106.49024600000007, 20.900360000000035],
              [106.49059100000005, 20.900253000000077],
              [106.49087000000009, 20.900221000000045],
              [106.49116000000004, 20.900262000000055],
              [106.49162300000006, 20.900401000000045],
              [106.49214800000004, 20.90059700000006],
              [106.49248900000003, 20.900810000000035],
              [106.49301200000008, 20.901253000000054],
              [106.49330600000008, 20.90158400000007],
              [106.49359300000003, 20.902130000000056],
              [106.49418800000007, 20.903208000000063],
              [106.49445200000008, 20.903707000000054],
              [106.49452100000008, 20.904115000000047],
              [106.49448600000005, 20.90440200000006],
              [106.49410200000005, 20.90555500000005],
              [106.49403200000006, 20.90592300000003],
              [106.49402300000008, 20.906192000000033],
              [106.49407100000008, 20.90639600000003],
              [106.49418000000009, 20.90661700000004],
              [106.49436400000008, 20.906759000000022],
              [106.49447900000007, 20.90679700000004],
              [106.49462000000005, 20.90680700000007],
              [106.49475000000007, 20.90677000000005],
              [106.49485600000008, 20.906694000000073],
              [106.49492000000004, 20.906611000000055],
              [106.49498300000005, 20.906434000000047],
              [106.49507300000005, 20.905853000000036],
              [106.49515600000007, 20.905429000000026],
              [106.49528700000008, 20.90512300000006],
              [106.49545500000005, 20.90477400000003],
              [106.49563600000005, 20.90458200000006],
              [106.49578800000006, 20.904516000000058],
              [106.49599000000006, 20.904475000000048],
              [106.49631400000004, 20.904498000000046],
              [106.49662500000005, 20.904627000000062],
              [106.49707400000005, 20.904889000000026],
              [106.49731200000008, 20.905084000000045],
              [106.49744000000004, 20.90527600000007],
              [106.49745600000006, 20.905391000000066],
              [106.49742800000007, 20.90556300000003],
              [106.49728100000004, 20.905747000000076],
              [106.49707600000005, 20.905875000000037],
              [106.49674900000008, 20.906007000000045],
              [106.49628600000005, 20.906237000000033],
              [106.49582700000008, 20.906574000000035],
              [106.49568400000004, 20.90672900000004],
              [106.49562800000007, 20.906859000000054],
              [106.49561100000005, 20.907020000000045],
              [106.49564000000004, 20.907318000000032],
              [106.49576100000007, 20.907582000000048],
              [106.49600000000004, 20.907831000000044],
              [106.49634500000008, 20.908007000000055],
              [106.49663200000003, 20.908087000000023],
              [106.49695600000007, 20.908063000000027],
              [106.49729100000008, 20.907974000000024],
              [106.49788800000005, 20.907721000000038],
              [106.49849100000006, 20.907361000000037],
              [106.49896100000007, 20.907081000000062],
              [106.49923500000006, 20.906967000000066],
              [106.49942900000008, 20.90695800000003],
              [106.49967000000004, 20.90699200000006],
              [106.49983100000009, 20.90705900000006],
              [106.50000500000004, 20.90725800000007],
              [106.50005600000009, 20.90741500000007],
              [106.50005400000003, 20.907587000000035],
              [106.50000500000004, 20.907717000000048],
              [106.49990000000008, 20.90784700000006],
              [106.49968800000005, 20.907992000000036],
              [106.49939900000004, 20.908127000000036],
              [106.49908400000004, 20.908259000000044],
              [106.49870700000008, 20.908427000000074],
              [106.49846900000006, 20.908648000000028],
              [106.49828100000008, 20.908858000000066],
              [106.49819400000007, 20.909013000000073],
              [106.49814300000008, 20.90924300000006],
              [106.49816800000008, 20.90945700000003],
              [106.49828900000006, 20.909718000000055],
              [106.49852600000008, 20.910146000000054],
              [106.49911400000008, 20.91082300000005],
              [106.49941400000006, 20.911167000000034],
              [106.49944900000008, 20.911246000000062],
              [106.49945000000008, 20.911336000000063],
              [106.49939400000005, 20.911447000000067],
              [106.49929200000008, 20.911563000000058],
              [106.49925500000006, 20.911692000000073],
              [106.49926800000009, 20.911861000000044],
              [106.49934600000006, 20.912068000000033],
              [106.49948100000006, 20.912207000000024],
              [106.49969200000004, 20.912312000000043],
              [106.50010600000007, 20.912445000000048],
              [106.50050300000004, 20.912535000000048],
              [106.50085200000007, 20.912671000000046],
              [106.50102100000004, 20.91275900000005],
              [106.50119400000005, 20.912905000000023],
              [106.50125300000008, 20.91304400000007],
              [106.50128400000006, 20.913162000000057],
              [106.50127100000009, 20.91334500000005],
              [106.50120200000003, 20.913737000000026],
              [106.50117500000005, 20.914120000000025],
              [106.50121700000005, 20.914482000000078],
              [106.50138200000004, 20.914976000000024],
              [106.50156800000008, 20.915196000000037],
              [106.50170500000007, 20.915264000000036],
              [106.50186900000006, 20.91526700000003],
              [106.50187200000005, 20.91526700000003],
              [106.50197600000007, 20.915238000000045],
              [106.50220000000007, 20.91510500000004],
              [106.50222300000007, 20.915223000000026],
              [106.50222200000007, 20.91525900000005],
              [106.50221500000004, 20.91546500000004],
              [106.50221300000004, 20.915517000000023],
              [106.50248800000008, 20.915520000000072],
              [106.50260700000007, 20.91618900000003],
              [106.50301900000005, 20.91611400000005],
              [106.50304200000005, 20.916357000000062],
              [106.50314400000008, 20.916322000000036],
              [106.50323600000007, 20.91643300000004],
              [106.50340500000004, 20.916292000000055],
              [106.50348300000007, 20.916224000000057],
              [106.50364900000005, 20.916097000000036],
              [106.50406600000008, 20.915864000000056],
              [106.50405900000004, 20.91618200000005],
              [106.50408700000008, 20.916348000000028],
              [106.50412600000004, 20.916430000000048],
              [106.50421300000005, 20.916533000000072],
              [106.50433200000003, 20.916644000000076],
              [106.50446100000005, 20.916733000000022],
              [106.50457200000005, 20.916807000000063],
              [106.50463300000007, 20.916832000000056],
              [106.50483100000008, 20.916881000000046],
              [106.50499600000006, 20.91692400000005],
              [106.50517800000006, 20.91697700000003],
              [106.50549800000005, 20.91710100000006],
              [106.50574000000006, 20.917223000000035],
              [106.50586800000008, 20.91726600000004],
              [106.50596600000006, 20.917284000000052],
              [106.50609800000007, 20.917269000000033],
              [106.50621600000005, 20.917223000000035],
              [106.50629700000007, 20.91717200000005],
              [106.50641200000007, 20.917054000000064],
              [106.50655600000005, 20.916799000000026],
              [106.50662200000005, 20.916670000000067],
              [106.50667800000008, 20.916576000000077],
              [106.50676000000004, 20.916476000000046],
              [106.50682900000004, 20.91641800000008],
              [106.50692000000004, 20.91638800000004],
              [106.50701500000008, 20.916359000000057],
              [106.50707000000006, 20.91635800000006],
              [106.50717000000009, 20.916371000000026],
              [106.50733100000008, 20.915970000000073],
              [106.50767300000007, 20.916166000000032],
              [106.50795700000003, 20.916287000000068],
              [106.50787800000006, 20.916481000000033],
              [106.50854500000008, 20.916599000000076],
              [106.50863600000008, 20.916620000000023],
              [106.50873400000006, 20.916432000000043],
              [106.50901400000004, 20.916607000000056],
              [106.50914200000005, 20.916382000000056],
              [106.50945500000006, 20.916496000000052],
              [106.50962100000004, 20.916206000000045],
              [106.50942900000007, 20.916026000000045],
              [106.50970400000006, 20.915616000000057],
              [106.50998700000008, 20.91578400000003],
              [106.51018800000008, 20.915338000000077],
              [106.50974200000007, 20.915088000000026],
              [106.51005400000008, 20.91465000000005],
              [106.51017900000005, 20.91446700000006],
              [106.51083600000004, 20.914995000000033],
              [106.51121800000004, 20.915114000000074],
              [106.51119600000004, 20.915180000000078],
              [106.51111300000008, 20.91543400000006],
              [106.51208300000008, 20.91572300000007],
              [106.51354400000008, 20.91615900000005],
              [106.51368900000006, 20.916210000000035],
              [106.51381200000009, 20.916115000000048],
              [106.51399100000003, 20.916029000000037],
              [106.51407900000004, 20.91599300000007],
              [106.51419400000009, 20.915933000000052],
              [106.51432400000004, 20.915856000000076],
              [106.51447200000007, 20.915752000000055],
              [106.51463500000006, 20.91561500000006],
              [106.51492200000007, 20.915384000000074],
              [106.51509500000009, 20.91525000000007],
              [106.51561100000004, 20.914915000000065],
              [106.51569400000005, 20.914810000000045],
              [106.51573500000006, 20.914724000000035],
              [106.51575300000007, 20.914645000000064],
              [106.51575300000007, 20.914584000000048],
              [106.51572900000008, 20.914491000000055],
              [106.51561300000009, 20.914256000000023],
              [106.51554100000004, 20.914037000000064],
              [106.51553300000006, 20.913940000000025],
              [106.51555800000006, 20.913829000000078],
              [106.51560700000005, 20.91373500000003],
              [106.51570900000007, 20.913612000000057],
              [106.51588900000007, 20.913452000000063],
              [106.51606800000008, 20.913312000000076],
              [106.51630700000004, 20.913177000000076],
              [106.51649700000007, 20.91308200000003],
              [106.51664500000004, 20.91303400000004],
              [106.51678600000008, 20.913008000000048],
              [106.51694200000009, 20.91299200000003],
              [106.51706500000006, 20.913002000000063],
              [106.51716400000004, 20.91302200000007],
              [106.51724400000006, 20.913054000000045],
              [106.51737900000006, 20.913135000000068],
              [106.51749800000005, 20.913242000000025],
              [106.51777200000004, 20.913490000000024],
              [106.51788100000005, 20.913613000000055],
              [106.51807200000007, 20.913749000000053],
              [106.51830900000004, 20.913837000000058],
              [106.51855400000005, 20.913910000000044],
              [106.51878000000005, 20.913954000000047],
              [106.51905100000005, 20.913970000000063],
              [106.51928500000008, 20.913981000000035],
              [106.51954300000006, 20.913973000000055],
              [106.51984400000003, 20.91393400000004],
              [106.51999600000005, 20.913890000000038],
              [106.52010300000006, 20.913842000000045],
              [106.52020100000004, 20.913759000000027],
              [106.52029200000004, 20.913665000000037],
              [106.52039400000007, 20.913572000000045],
              [106.52057900000005, 20.913451000000066],
              [106.52071300000006, 20.913421000000028],
              [106.52084600000006, 20.91341600000004],
              [106.52102200000007, 20.91346100000004],
              [106.52119500000003, 20.913542000000064],
              [106.52132200000005, 20.913649000000078],
              [106.52148000000005, 20.913798000000043],
              [106.52165400000007, 20.914058000000068],
              [106.52169400000008, 20.91420100000005],
              [106.52170300000006, 20.914337000000046],
              [106.52166600000004, 20.91447400000004],
              [106.52161300000006, 20.914585000000045],
              [106.52148200000005, 20.914762000000053],
              [106.52120300000007, 20.915053000000057],
              [106.52099700000008, 20.91524400000003],
              [106.52093500000007, 20.91529600000007],
              [106.52080800000005, 20.915368000000058],
              [106.52067100000005, 20.915415000000053],
              [106.52037000000007, 20.91548300000005],
              [106.52003500000006, 20.915550000000053],
              [106.51984900000008, 20.915620000000047],
              [106.51974300000006, 20.915700000000072],
              [106.51966000000004, 20.915801000000044],
              [106.51961200000005, 20.915959000000043],
              [106.51958400000007, 20.916175000000067],
              [106.51957400000003, 20.91626300000007],
              [106.51957600000009, 20.916446000000064],
              [106.51963100000006, 20.916643000000022],
              [106.51975300000004, 20.916972000000044],
              [106.51985400000007, 20.917211000000066],
              [106.51990200000006, 20.917386000000022],
              [106.51991100000004, 20.917576000000054],
              [106.51996000000008, 20.917845000000057],
              [106.51998700000007, 20.917884000000072],
              [106.52004000000005, 20.917890000000057],
              [106.52017800000004, 20.917882000000077],
              [106.52051300000005, 20.917800000000057],
              [106.52226300000007, 20.917354000000046],
              [106.52315400000003, 20.917121000000066],
              [106.52474700000005, 20.916701000000046],
              [106.52492700000005, 20.916642000000024],
              [106.52525600000007, 20.916496000000052],
              [106.52630800000009, 20.91609200000005],
              [106.52739800000006, 20.915710000000047],
              [106.52782400000007, 20.915505000000053],
              [106.52835900000008, 20.915684000000056],
              [106.52894300000008, 20.91571600000003],
              [106.52929900000004, 20.91566400000005],
              [106.52962200000007, 20.915576000000044],
              [106.52988200000004, 20.915413000000058],
              [106.53007800000006, 20.91521300000005],
              [106.53025700000006, 20.91487600000005],
              [106.53041300000007, 20.914428000000044],
              [106.53053400000005, 20.91391600000003],
              [106.53072600000007, 20.91324000000003],
              [106.53087500000004, 20.91296600000004],
              [106.53112100000004, 20.91268400000007],
              [106.53159300000004, 20.912285000000054],
              [106.53207300000008, 20.912005000000022],
              [106.53255300000006, 20.911826000000076],
              [106.53278700000004, 20.91179100000005],
              [106.53303000000005, 20.911803000000077],
              [106.53318600000006, 20.91182200000003],
              [106.53340000000009, 20.911879000000056],
              [106.53360400000008, 20.911991000000057],
              [106.53376800000007, 20.912157000000036],
              [106.53402700000004, 20.91252600000007],
              [106.53418900000008, 20.91289400000005],
              [106.53430200000008, 20.913362000000063],
              [106.53436500000004, 20.91446700000006],
              [106.53451500000006, 20.91539800000004],
              [106.53472400000004, 20.915946000000076],
              [106.53506200000004, 20.916719000000057],
              [106.53541000000007, 20.917147000000057],
              [106.53601200000008, 20.91755900000004],
              [106.53634400000004, 20.917688000000055],
              [106.53693000000004, 20.917778000000055],
              [106.53814800000004, 20.917701000000022],
              [106.53840200000008, 20.917685000000063],
              [106.53877200000005, 20.917707000000064],
              [106.53902500000004, 20.917718000000036],
              [106.53904500000004, 20.917722000000026],
              [106.53982100000007, 20.918062000000077],
              [106.54069100000004, 20.918506000000036],
              [106.54083800000006, 20.91864400000003],
              [106.54091500000004, 20.91882000000004],
              [106.54093800000004, 20.918944000000067],
              [106.54089800000008, 20.919081000000062],
              [106.54067700000007, 20.919693000000052],
              [106.54062500000003, 20.920086000000026],
              [106.54067000000003, 20.920435000000055],
              [106.54073600000004, 20.920637000000056],
              [106.54096200000004, 20.921033000000023],
              [106.54119300000008, 20.921264000000065],
              [106.54146400000008, 20.92146800000006],
              [106.54186200000004, 20.921691000000067],
              [106.54250300000007, 20.921925000000044],
              [106.54293100000007, 20.922002000000077],
              [106.54331600000006, 20.922011000000055],
              [106.54381300000006, 20.921988000000056],
              [106.54395200000005, 20.921954000000028],
              [106.54438900000008, 20.921823000000074],
              [106.54465800000008, 20.921673000000055],
              [106.54494900000009, 20.921416000000022],
              [106.54522000000009, 20.921016000000066],
              [106.54560900000007, 20.92032000000006],
              [106.54593600000004, 20.919772000000023],
              [106.54612400000008, 20.919534000000056],
              [106.54634700000008, 20.91933800000004],
              [106.54657900000007, 20.919197000000054],
              [106.54681000000005, 20.91910800000005],
              [106.54705100000007, 20.919092000000035],
              [106.54724900000008, 20.919065000000046],
              [106.54747800000007, 20.919092000000035],
              [106.54763500000007, 20.919126000000063],
              [106.54777300000006, 20.919186000000025],
              [106.54810900000007, 20.919437000000073],
              [106.54829400000006, 20.919636000000025],
              [106.54841800000008, 20.91985500000004],
              [106.54852700000004, 20.92006900000007],
              [106.54856100000006, 20.92035100000004],
              [106.54859900000008, 20.920671000000027],
              [106.54860300000007, 20.921005000000036],
              [106.54859000000005, 20.921273000000042],
              [106.54855200000009, 20.92152200000004],
              [106.54847800000005, 20.92174700000004],
              [106.54838300000006, 20.921920000000057],
              [106.54813700000005, 20.922205000000076],
              [106.54783900000007, 20.922456000000068],
              [106.54742500000003, 20.922689000000048],
              [106.54710100000005, 20.922874000000036],
              [106.54683200000005, 20.92296200000004],
              [106.54655300000007, 20.923013000000026],
              [106.54627800000009, 20.923029000000042],
              [106.54601900000006, 20.923032000000035],
              [106.54577400000005, 20.922972000000073],
              [106.54540700000007, 20.922889000000055],
              [106.54485600000004, 20.922732000000053],
              [106.54462100000006, 20.922665000000052],
              [106.54451400000005, 20.922634000000073],
              [106.54432700000007, 20.922555000000045],
              [106.54424800000004, 20.922522000000072],
              [106.54401400000006, 20.92248600000005],
              [106.54376500000006, 20.922517000000028],
              [106.54345000000006, 20.922582000000034],
              [106.54327800000004, 20.922631000000024],
              [106.54292100000004, 20.922787000000028],
              [106.54271700000004, 20.922953000000064],
              [106.54254900000007, 20.923190000000034],
              [106.54238000000004, 20.923482000000035],
              [106.54229900000007, 20.923875000000066],
              [106.54235200000005, 20.924380000000042],
              [106.54249100000004, 20.92469200000005],
              [106.54274000000004, 20.92513400000007],
              [106.54303800000008, 20.925549000000046],
              [106.54346200000003, 20.92604700000004],
              [106.54387600000007, 20.92652700000008],
              [106.54413600000004, 20.92685000000006],
              [106.54428000000007, 20.927099000000055],
              [106.54431700000004, 20.927310000000034],
              [106.54428600000006, 20.927456000000063],
              [106.54414300000008, 20.927657000000067],
              [106.54384900000008, 20.92787400000003],
              [106.54330000000004, 20.928236000000027],
              [106.54259300000007, 20.928878000000054],
              [106.54231100000004, 20.929215000000056],
              [106.54206700000009, 20.92967100000004],
              [106.54193800000007, 20.930109000000073],
              [106.54184700000008, 20.930558000000076],
              [106.54181300000005, 20.930916000000025],
              [106.54181600000004, 20.93122100000005],
              [106.54185000000007, 20.931430000000034],
              [106.54189800000006, 20.931734000000063],
              [106.54205600000006, 20.93232400000005],
              [106.54238100000003, 20.932997000000057],
              [106.54296700000003, 20.933978000000025],
              [106.54313900000005, 20.93429800000007],
              [106.54338000000007, 20.934894000000043],
              [106.54345900000004, 20.935156000000063],
              [106.54348000000005, 20.935365000000047],
              [106.54346500000008, 20.935520000000054],
              [106.54344600000007, 20.93570600000004],
              [106.54342300000008, 20.93598700000007],
              [106.54332000000005, 20.936442000000056],
              [106.54319600000008, 20.93681900000007],
              [106.54296200000005, 20.93734900000004],
              [106.54255500000005, 20.938140000000033],
              [106.54218100000008, 20.938878000000045],
              [106.54188700000009, 20.939382000000023],
              [106.54158500000005, 20.939702000000068],
              [106.54123800000008, 20.94001600000007],
              [106.54089000000005, 20.94017400000007],
              [106.54059200000006, 20.940243000000066],
              [106.54023600000005, 20.940240000000074],
              [106.53972700000008, 20.94022700000005],
              [106.53862400000008, 20.94003900000007],
              [106.53750300000007, 20.93985200000003],
              [106.53659200000004, 20.939663000000053],
              [106.53575900000004, 20.939404000000025],
              [106.53441400000008, 20.938757000000066],
              [106.53337100000005, 20.938169000000073],
              [106.53260600000004, 20.937806000000023],
              [106.53221800000006, 20.937508000000037],
              [106.53199100000006, 20.93728100000004],
              [106.53171500000008, 20.93685000000005],
              [106.53158100000007, 20.936378000000047],
              [106.53156400000006, 20.93622000000005],
              [106.53157000000004, 20.936044000000038],
              [106.53161400000005, 20.935854000000063],
              [106.53169900000006, 20.93564900000007],
              [106.53181500000005, 20.93544000000003],
              [106.53201900000005, 20.93519800000007],
              [106.53226400000005, 20.934862000000066],
              [106.53254300000003, 20.934559000000036],
              [106.53278800000004, 20.93429800000007],
              [106.53298100000006, 20.934149000000048],
              [106.53316000000007, 20.934030000000064],
              [106.53331200000008, 20.93396000000007],
              [106.53350900000004, 20.933912000000078],
              [106.53384500000004, 20.933844000000022],
              [106.53418400000004, 20.93384100000003],
              [106.53466200000008, 20.933880000000045],
              [106.53509200000008, 20.933935000000076],
              [106.53513400000008, 20.933944000000054],
              [106.53561000000008, 20.934010000000058],
              [106.53597600000006, 20.93399000000005],
              [106.53636000000006, 20.933920000000057],
              [106.53676700000005, 20.93372400000004],
              [106.53703600000006, 20.933506000000023],
              [106.53718400000008, 20.933361000000048],
              [106.53730300000007, 20.93320200000005],
              [106.53744100000006, 20.932953000000055],
              [106.53752700000007, 20.93278600000008],
              [106.53762400000005, 20.932567000000063],
              [106.53767900000008, 20.932267000000024],
              [106.53770500000007, 20.932052000000056],
              [106.53771700000004, 20.93181100000004],
              [106.53772400000008, 20.931343000000027],
              [106.53768100000008, 20.93102600000003],
              [106.53756600000008, 20.93058300000007],
              [106.53724200000005, 20.929707000000064],
              [106.53686700000009, 20.928946000000053],
              [106.53663400000005, 20.928477000000044],
              [106.53646500000008, 20.928184000000044],
              [106.53629000000006, 20.927968000000078],
              [106.53614500000003, 20.927797000000055],
              [106.53600000000006, 20.927662000000055],
              [106.53536500000007, 20.92725500000006],
              [106.53485400000005, 20.92707800000005],
              [106.53441600000008, 20.92699600000003],
              [106.53357000000005, 20.926875000000052],
              [106.53253600000005, 20.926793000000032],
              [106.53151800000006, 20.926735000000065],
              [106.53007300000007, 20.926686000000075],
              [106.52874000000008, 20.926746000000037],
              [106.52733800000004, 20.92680900000005],
              [106.52709400000003, 20.926818000000026],
              [106.52671900000007, 20.926897000000054],
              [106.52639300000004, 20.92698800000005],
              [106.52618200000006, 20.927068000000077],
              [106.52511500000008, 20.927491000000032],
              [106.52441800000008, 20.927922000000024],
              [106.52394000000004, 20.92853400000007],
              [106.52381600000007, 20.92879300000004],
              [106.52377200000006, 20.929013000000054],
              [106.52382100000005, 20.929280000000063],
              [106.52392000000003, 20.92958100000004],
              [106.52416300000004, 20.929937000000052],
              [106.52446700000007, 20.930259000000035],
              [106.52490000000006, 20.930675000000065],
              [106.52508700000004, 20.930867000000035],
              [106.52535300000005, 20.93109400000003],
              [106.52563500000008, 20.931500000000028],
              [106.52579100000008, 20.93182100000007],
              [106.52577000000008, 20.932022000000075],
              [106.52571800000004, 20.932173000000034],
              [106.52549900000008, 20.932354000000032],
              [106.52519400000006, 20.932443000000035],
              [106.52485100000007, 20.93246000000005],
              [106.52443800000009, 20.932349000000045],
              [106.52399300000008, 20.932138000000066],
              [106.52314600000005, 20.931343000000027],
              [106.52236600000003, 20.930489000000023],
              [106.52193500000004, 20.930127000000027],
              [106.52161200000006, 20.92991500000005],
              [106.52126000000004, 20.92973900000004],
              [106.52081500000008, 20.929564000000028],
              [106.52040900000009, 20.92944600000004],
              [106.51985100000007, 20.92930000000007],
              [106.51934600000004, 20.929204000000027],
              [106.51878900000008, 20.929152000000045],
              [106.51780500000007, 20.929237000000057],
              [106.51770800000008, 20.929245000000037],
              [106.51734400000004, 20.929319000000078],
              [106.51724600000006, 20.929342000000076],
              [106.51667100000009, 20.929550000000063],
              [106.51630700000004, 20.92977600000006],
              [106.51595900000007, 20.930066000000068],
              [106.51568700000007, 20.930348000000038],
              [106.51552300000009, 20.93072200000006],
              [106.51541200000008, 20.931103000000064],
              [106.51538500000004, 20.931498000000033],
              [106.51544200000006, 20.931791000000032],
              [106.51560600000005, 20.932199000000026],
              [106.51582300000007, 20.932534000000032],
              [106.51624000000004, 20.932953000000055],
              [106.51714800000008, 20.933348000000024],
              [106.51728200000008, 20.933403000000055],
              [106.51827000000009, 20.93370900000008],
              [106.51873700000004, 20.93385600000005],
              [106.51910600000008, 20.93410300000005],
              [106.51935200000008, 20.934316000000024],
              [106.51950800000009, 20.934623000000045],
              [106.51960300000007, 20.934988000000033],
              [106.51963000000006, 20.935397000000023],
              [106.51960400000007, 20.935877000000062],
              [106.51953400000008, 20.93643000000003],
              [106.51945400000005, 20.936825000000056],
              [106.51928300000009, 20.937321000000054],
              [106.51901400000008, 20.937897000000078],
              [106.51868400000006, 20.938474000000042],
              [106.51797700000009, 20.939455000000066],
              [106.51743300000004, 20.94008400000007],
              [106.51658800000007, 20.941009000000065],
              [106.51609000000008, 20.941501000000073],
              [106.51576000000006, 20.94182600000005],
              [106.51567300000005, 20.94191500000005],
              [106.51558600000004, 20.942004000000054],
              [106.51492600000006, 20.94264400000003],
              [106.51471500000008, 20.942852000000073],
              [106.51441400000004, 20.943097000000023],
              [106.51394000000005, 20.943425000000047],
              [106.51347900000007, 20.943666000000064],
              [106.51318200000009, 20.943794000000025],
              [106.51300900000007, 20.943858000000034],
              [106.51277900000008, 20.94392700000003],
              [106.51252900000009, 20.94396400000005],
              [106.51229300000006, 20.94397900000007],
              [106.51209200000005, 20.943993000000034],
              [106.51180300000004, 20.943985000000055],
              [106.51123100000007, 20.94393800000006],
              [106.51091300000007, 20.943904000000032],
              [106.51051400000006, 20.943869000000063],
              [106.51020600000004, 20.943830000000048],
              [106.50988900000004, 20.943782000000056],
              [106.50921500000004, 20.943701000000033],
              [106.50873900000005, 20.943520000000035],
              [106.50838900000008, 20.94329700000003],
              [106.50799700000005, 20.942953000000045],
              [106.50783100000007, 20.94277100000005],
              [106.50769100000008, 20.94257700000003],
              [106.50756300000006, 20.942367000000047],
              [106.50745800000004, 20.94217100000003],
              [106.50735500000008, 20.941914000000054],
              [106.50727500000005, 20.941679000000022],
              [106.50721300000004, 20.941368000000068],
              [106.50717800000007, 20.94103400000006],
              [106.50714200000004, 20.940547000000038],
              [106.50712600000008, 20.94023500000003],
              [106.50712000000004, 20.939973000000066],
              [106.50721900000008, 20.938918000000058],
              [106.50737900000007, 20.938145000000077],
              [106.50718800000004, 20.938132000000053],
              [106.50705100000005, 20.938128000000063],
              [106.50688900000006, 20.938150000000064],
              [106.50653700000004, 20.93824600000005],
              [106.50565600000004, 20.93853000000007],
              [106.50467600000007, 20.938847000000067],
              [106.50420500000007, 20.939168000000052],
              [106.50410900000008, 20.939292000000023],
              [106.50378700000005, 20.939620000000048],
              [106.50369000000006, 20.939671000000033],
              [106.50342600000005, 20.939772000000062],
              [106.50329500000004, 20.939823000000047],
              [106.50302600000003, 20.939824000000044],
              [106.50298200000009, 20.939824000000044],
              [106.50261000000006, 20.939823000000047],
              [106.50238200000007, 20.939853000000028],
              [106.50220400000006, 20.93991200000005],
              [106.50187200000005, 20.940173000000073],
              [106.50187000000005, 20.94017400000007],
              [106.50159800000006, 20.94046000000003],
              [106.50150100000008, 20.940683000000035],
              [106.50136000000003, 20.94125800000006],
              [106.50131100000004, 20.941493000000037],
              [106.50109400000008, 20.941681000000074],
              [106.50041200000004, 20.94227200000006],
              [106.49944700000009, 20.943081000000063],
              [106.49896200000006, 20.943513000000053],
              [106.49901600000004, 20.94357400000007],
              [106.49916200000007, 20.94373900000005],
              [106.50092300000006, 20.945737000000065],
              [106.50068900000008, 20.946023000000025],
              [106.50117600000004, 20.94644500000004],
              [106.50063200000005, 20.946999000000062],
              [106.50063200000005, 20.94700000000006],
              [106.50040900000005, 20.947228000000052],
              [106.50014500000009, 20.946909000000062],
              [106.50012400000008, 20.94688300000007],
              [106.49983100000009, 20.947145000000035],
              [106.49970600000006, 20.94725600000004],
              [106.49958100000003, 20.947367000000042],
              [106.50002000000006, 20.948068000000035],
              [106.49846000000008, 20.94974300000007],
              [106.49686700000007, 20.95201600000007],
              [106.49642600000004, 20.95248600000008],
              [106.49615000000006, 20.952729000000033],
              [106.49611100000004, 20.95276300000006],
              [106.49607800000007, 20.952864000000034],
              [106.49598600000007, 20.953147000000058],
              [106.49607400000008, 20.953198000000043],
              [106.49666200000007, 20.95346600000005],
              [106.49696300000005, 20.953549000000066],
              [106.49724400000008, 20.953633000000025],
              [106.49741800000004, 20.953774000000067],
              [106.49766600000004, 20.954140000000052],
              [106.49778700000007, 20.95446400000003],
              [106.49774000000008, 20.954928000000052],
              [106.49759700000004, 20.95536500000003],
              [106.49739900000009, 20.955902000000037],
              [106.49737900000008, 20.955953000000022],
              [106.49733400000008, 20.956070000000068],
              [106.49734800000004, 20.956376000000034],
              [106.49732900000004, 20.956605000000025],
              [106.49724500000008, 20.956845000000044],
              [106.49718600000006, 20.95702200000005],
              [106.49716100000006, 20.95727100000005],
              [106.49712100000005, 20.957654000000048],
              [106.49708700000008, 20.958274000000074],
              [106.49704700000007, 20.95840000000004],
              [106.49676100000005, 20.95850100000007],
              [106.49615500000004, 20.958776000000057],
              [106.49576900000005, 20.958975000000066],
              [106.49543600000004, 20.959146000000032],
              [106.49485100000004, 20.959667000000024],
              [106.49443800000006, 20.96019700000005],
              [106.49441400000006, 20.96022800000003],
              [106.49388200000004, 20.960885000000076],
              [106.49361700000009, 20.961092000000065],
              [106.49324800000005, 20.96121000000005],
              [106.49308800000006, 20.961222000000078],
              [106.49288200000007, 20.961199000000022],
              [106.49261400000006, 20.961122000000046],
              [106.49261000000007, 20.96112000000005],
              [106.49236800000006, 20.96095900000006],
              [106.49216300000006, 20.960743000000036],
              [106.49192700000003, 20.96041500000007],
              [106.49181800000008, 20.960154000000045],
              [106.49174900000008, 20.959771000000046],
              [106.49177100000009, 20.95930100000004],
              [106.49184000000008, 20.95897800000006],
              [106.49195200000008, 20.95865800000007],
              [106.49207900000005, 20.958395000000053],
              [106.49229700000006, 20.958024000000023],
              [106.49252000000007, 20.957687000000078],
              [106.49257500000004, 20.957605000000058],
              [106.49281200000007, 20.957249000000047],
              [106.49296900000007, 20.956935000000044],
              [106.49300500000004, 20.95666600000004],
              [106.49300400000004, 20.95665900000006],
              [106.49300200000005, 20.956440000000043],
              [106.49296300000009, 20.956286000000034],
              [106.49293500000005, 20.95617500000003],
              [106.49279500000006, 20.955890000000068],
              [106.49257100000005, 20.955655000000036],
              [106.49220200000008, 20.955436000000077],
              [106.49180300000006, 20.955246000000045],
              [106.49131700000004, 20.955085000000054],
              [106.49067900000006, 20.954895000000022],
              [106.49055900000008, 20.954859000000056],
              [106.49008800000007, 20.954702000000054],
              [106.48968900000006, 20.954476000000057],
              [106.48934700000007, 20.95423100000005],
              [106.48905000000008, 20.953876000000037],
              [106.48884000000004, 20.953512000000046],
              [106.48867000000007, 20.952972000000045],
              [106.48864100000009, 20.95286100000004],
              [106.48846800000007, 20.952217000000076],
              [106.48816600000004, 20.951779000000045],
              [106.48786500000006, 20.951444000000038],
              [106.48737700000004, 20.95107900000005],
              [106.48717300000004, 20.951157000000023],
              [106.48677200000009, 20.95140800000007],
              [106.48674800000003, 20.951423000000034],
              [106.48659400000008, 20.951595000000054],
              [106.48655400000007, 20.95171700000003],
              [106.48654000000005, 20.951900000000023],
              [106.48653700000006, 20.951952000000063],
              [106.48651600000005, 20.952429000000052],
              [106.48642800000005, 20.953265000000044],
              [106.48618400000004, 20.954326000000037],
              [106.48598800000008, 20.95506400000005],
              [106.48584000000005, 20.955524000000025],
              [106.48549000000008, 20.956206000000066],
              [106.48503800000009, 20.956831000000022],
              [106.48442600000004, 20.957754000000023],
              [106.48433800000004, 20.958090000000027],
              [106.48439100000007, 20.958319000000074],
              [106.48452500000008, 20.958451000000025],
              [106.48478000000006, 20.95851600000003],
              [106.48499400000009, 20.95850500000006],
              [106.48543000000006, 20.958367000000067],
              [106.48611800000003, 20.957979000000023],
              [106.48698900000005, 20.957493000000056],
              [106.48770900000005, 20.95726700000006],
              [106.48771700000009, 20.95726600000006],
              [106.48814600000009, 20.957215000000076],
              [106.48874700000005, 20.95726700000006],
              [106.48904300000004, 20.957351000000074],
              [106.48955500000005, 20.957643000000076],
              [106.49021400000004, 20.95839200000006],
              [106.49036600000005, 20.958698000000027],
              [106.49054600000005, 20.959059000000025],
              [106.49100900000008, 20.960214000000065],
              [106.49102100000005, 20.960243000000048],
              [106.49103100000008, 20.96026900000004],
              [106.49109600000008, 20.960469000000046],
              [106.49112100000008, 20.960545000000025],
              [106.49100300000003, 20.960664000000065],
              [106.49091100000004, 20.960886000000073],
              [106.49084200000004, 20.96120700000006],
              [106.49057300000004, 20.961764000000073],
              [106.49041800000003, 20.961992000000066],
              [106.49034500000005, 20.962100000000078],
              [106.49027200000006, 20.962206000000037],
              [106.48975800000005, 20.96273700000006],
              [106.48935500000005, 20.96315100000004],
              [106.48898100000008, 20.963365000000067],
              [106.48851400000007, 20.963531000000046],
              [106.48818900000003, 20.963553000000047],
              [106.48767900000007, 20.963453000000072],
              [106.48718800000006, 20.963189000000057],
              [106.48660000000007, 20.96262100000007],
              [106.48657100000008, 20.96259200000003],
              [106.48601600000006, 20.96206200000006],
              [106.48547300000007, 20.961722000000066],
              [106.48518800000005, 20.961667000000034],
              [106.48499500000008, 20.961707000000047],
              [106.48483400000003, 20.96189000000004],
              [106.48465400000003, 20.962217000000066],
              [106.48447300000004, 20.962458000000026],
              [106.48431800000009, 20.962579000000062],
              [106.48424200000005, 20.962636000000032],
              [106.48412200000007, 20.96267000000006],
              [106.48399200000006, 20.96267400000005],
              [106.48386000000005, 20.962618000000077],
              [106.48372000000006, 20.962493000000052],
              [106.48356500000006, 20.96226500000006],
              [106.48332900000008, 20.962009000000023],
              [106.48307300000005, 20.961887000000047],
              [106.48276700000008, 20.961813000000063],
              [106.48243100000008, 20.961787000000072],
              [106.48187200000007, 20.96189700000002]
            ]
          ]
        ]
      }
    }
  ]
}
