{
  "type": "FeatureCollection",
  "name": "gis.vn",
  "features": [
    {
      "type": "Feature",
      "properties": {
        "ma_xa": "11359",
        "ten_xa": "Gia Viên",
        "sap_nhap": "Đằng Giang, Cầu Đất (1 phần), Lạch Tray (1 phần), Gia Viên (1 phần), Đông Khê (1 phần)",
        "tru_so": [20.83900392, 106.696634],
        "loai": "Phường",
        "cap": 2,
        "stt": 11,
        "dtich_km2": 5.01,
        "dan_so": 102246,
        "matdo_km2": 20408.38,
        "ma_tinh": "31",
        "ten_tinh": "Hải Phòng",
        "mau_sac": "#FF00FF"
      },
      "geometry": {
        "type": "MultiPolygon",
        "coordinates": [
          [
            [
              [106.70274900000004, 20.852518000000032],
              [106.70209300000005, 20.853337000000067],
              [106.70194500000008, 20.853530000000035],
              [106.70121500000005, 20.85446200000007],
              [106.70090900000008, 20.85485200000005],
              [106.70043600000008, 20.855457000000058],
              [106.69980100000004, 20.856260000000077],
              [106.69974100000007, 20.856336000000056],
              [106.69968100000006, 20.856412000000034],
              [106.69962800000008, 20.85647800000004],
              [106.69948400000004, 20.85665700000004],
              [106.69845500000008, 20.85792900000007],
              [106.69811400000003, 20.858355000000074],
              [106.69798300000008, 20.858519000000058],
              [106.69746800000007, 20.859164000000078],
              [106.69703100000004, 20.85971100000006],
              [106.69569600000005, 20.861446000000058],
              [106.69243300000005, 20.861496000000045],
              [106.69218900000004, 20.861499000000038],
              [106.69197800000006, 20.86150200000003],
              [106.69052000000005, 20.86151300000006],
              [106.68888800000008, 20.86152400000003],
              [106.68881500000003, 20.861353000000065],
              [106.68873100000008, 20.86115300000006],
              [106.68870700000008, 20.861105000000066],
              [106.68855000000008, 20.860784000000024],
              [106.68793000000005, 20.859781000000055],
              [106.68748900000008, 20.859369000000072],
              [106.68660300000005, 20.858543000000054],
              [106.68594000000007, 20.857962000000043],
              [106.68581100000006, 20.85786900000005],
              [106.68577300000004, 20.857842000000062],
              [106.68511600000005, 20.857368000000065],
              [106.68430900000004, 20.856933000000026],
              [106.68406300000004, 20.856801000000075],
              [106.68390700000003, 20.85671700000006],
              [106.68242700000008, 20.85614400000003],
              [106.68177300000008, 20.85603800000007],
              [106.68172100000004, 20.856030000000032],
              [106.68162000000007, 20.85600900000003],
              [106.68168800000007, 20.85591500000004],
              [106.68196100000006, 20.855538000000024],
              [106.68222900000006, 20.85530200000005],
              [106.68228000000005, 20.85525700000005],
              [106.68277600000005, 20.854820000000075],
              [106.68282000000005, 20.85478100000006],
              [106.68342200000006, 20.854250000000036],
              [106.68390300000004, 20.85385800000006],
              [106.68596700000006, 20.852175000000045],
              [106.68670900000006, 20.851570000000038],
              [106.68678600000004, 20.851507000000026],
              [106.68743200000006, 20.85098000000005],
              [106.68757100000005, 20.85086700000005],
              [106.68794100000008, 20.850565000000074],
              [106.68809100000004, 20.85044300000004],
              [106.68847700000003, 20.850127000000043],
              [106.68930500000005, 20.849452000000042],
              [106.68953400000004, 20.849257000000023],
              [106.69017200000008, 20.84872500000006],
              [106.69038600000005, 20.848311000000024],
              [106.69094600000005, 20.847176000000047],
              [106.69133000000005, 20.846390000000042],
              [106.69136500000008, 20.84632000000005],
              [106.69158200000004, 20.845858000000078],
              [106.69160900000008, 20.845800000000054],
              [106.69164500000005, 20.845723000000078],
              [106.69167900000008, 20.845651000000032],
              [106.69191400000005, 20.845151000000044],
              [106.69261000000006, 20.843672000000026],
              [106.69268200000005, 20.843518000000074],
              [106.69281500000005, 20.843236000000047],
              [106.69284800000008, 20.843165000000056],
              [106.69301100000007, 20.842819000000077],
              [106.69315800000004, 20.84250700000007],
              [106.69348800000006, 20.841805000000022],
              [106.69368100000008, 20.841395000000034],
              [106.69397800000007, 20.84076200000004],
              [106.69402900000006, 20.84065400000003],
              [106.69404800000007, 20.840614000000073],
              [106.69407800000005, 20.840546000000074],
              [106.69417500000009, 20.840342000000078],
              [106.69450400000005, 20.839649000000065],
              [106.69510000000008, 20.838332000000037],
              [106.69597500000003, 20.836433000000056],
              [106.69611500000008, 20.83612800000003],
              [106.69650100000007, 20.835290000000043],
              [106.69637600000004, 20.835219000000052],
              [106.69629600000007, 20.835173000000054],
              [106.69579200000004, 20.83412500000003],
              [106.69565500000004, 20.83381600000007],
              [106.69545900000008, 20.833340000000078],
              [106.69523100000004, 20.83279200000004],
              [106.69517000000008, 20.832494000000054],
              [106.69506900000005, 20.83193300000005],
              [106.69481800000005, 20.831733000000042],
              [106.69460600000008, 20.831502000000057],
              [106.69422500000007, 20.831120000000055],
              [106.69466400000005, 20.830183000000034],
              [106.69474800000006, 20.830147000000068],
              [106.69489200000004, 20.830122000000074],
              [106.69485300000008, 20.830021000000045],
              [106.69481000000007, 20.829679000000056],
              [106.69479700000005, 20.829627000000073],
              [106.69471500000009, 20.82916400000005],
              [106.69471500000009, 20.829125000000033],
              [106.69472500000006, 20.829090000000065],
              [106.69475300000005, 20.829048000000057],
              [106.69496400000008, 20.828838000000076],
              [106.69514200000003, 20.828662000000065],
              [106.69528300000007, 20.828472000000033],
              [106.69561900000008, 20.828018000000043],
              [106.69575200000008, 20.82785000000007],
              [106.69585800000004, 20.827756000000022],
              [106.69590300000004, 20.827717000000064],
              [106.69615000000005, 20.827521000000047],
              [106.69630400000005, 20.82742200000007],
              [106.69667200000004, 20.82774900000004],
              [106.69708900000006, 20.828031000000067],
              [106.69759900000008, 20.828215000000057],
              [106.69828400000006, 20.828272000000027],
              [106.69892600000009, 20.828202000000033],
              [106.69948600000004, 20.82799200000005],
              [106.69953200000003, 20.827975000000038],
              [106.69965100000007, 20.828418000000056],
              [106.69967600000007, 20.828516000000036],
              [106.69970800000004, 20.828648000000044],
              [106.69973600000009, 20.82878100000005],
              [106.69985100000008, 20.829314000000068],
              [106.69980700000008, 20.82944800000007],
              [106.69955600000009, 20.829723000000058],
              [106.69952300000006, 20.829752000000042],
              [106.69922500000007, 20.83001900000005],
              [106.69885100000005, 20.830579000000057],
              [106.69897200000008, 20.830654000000038],
              [106.69944500000008, 20.83094600000004],
              [106.69958800000006, 20.831049000000064],
              [106.69980400000009, 20.831205000000068],
              [106.70015100000006, 20.831530000000043],
              [106.70029300000004, 20.831780000000037],
              [106.70043000000004, 20.83207100000004],
              [106.70057000000008, 20.832251000000042],
              [106.70075900000006, 20.83249200000006],
              [106.70121900000004, 20.832726000000036],
              [106.70180100000005, 20.833049000000074],
              [106.70210000000009, 20.83315700000003],
              [106.70182700000004, 20.83394500000003],
              [106.70207600000003, 20.83401200000003],
              [106.70192600000007, 20.83456300000006],
              [106.70225500000004, 20.835356000000047],
              [106.70208700000006, 20.835793000000024],
              [106.70176700000007, 20.83575200000007],
              [106.70160700000008, 20.836250000000064],
              [106.70167800000007, 20.83627400000006],
              [106.70294000000007, 20.836697000000072],
              [106.70310100000006, 20.83675100000005],
              [106.70338900000007, 20.836828000000025],
              [106.70337600000005, 20.836963000000026],
              [106.70327800000007, 20.83745600000003],
              [106.70369900000009, 20.837932000000023],
              [106.70380800000004, 20.838069000000075],
              [106.70402200000007, 20.83857900000004],
              [106.70424200000008, 20.838992000000076],
              [106.70441300000005, 20.839193000000023],
              [106.70451800000006, 20.839257000000032],
              [106.70478600000007, 20.839255000000037],
              [106.70495800000003, 20.839554000000078],
              [106.70514800000007, 20.839519000000053],
              [106.70549700000004, 20.840219000000047],
              [106.70538600000003, 20.840306000000055],
              [106.70562800000005, 20.840673000000038],
              [106.70579100000003, 20.840590000000077],
              [106.70596300000005, 20.84084900000005],
              [106.70609200000007, 20.84079900000006],
              [106.70629000000008, 20.841106000000025],
              [106.70607600000005, 20.841283000000033],
              [106.70619200000004, 20.841545000000053],
              [106.70585600000004, 20.84170800000004],
              [106.70592700000009, 20.84191000000004],
              [106.70574200000004, 20.842002000000036],
              [106.70603800000004, 20.84255200000007],
              [106.70611500000007, 20.84286000000003],
              [106.70612800000004, 20.843075000000056],
              [106.70625800000005, 20.84311100000008],
              [106.70679900000005, 20.843269000000078],
              [106.70705600000008, 20.84334300000006],
              [106.70746000000008, 20.843476000000067],
              [106.70802300000008, 20.843674000000078],
              [106.70938500000005, 20.84415400000006],
              [106.70929300000006, 20.84427100000005],
              [106.70915700000006, 20.84444300000007],
              [106.70904900000005, 20.84458600000005],
              [106.70867300000003, 20.845084000000043],
              [106.70851100000004, 20.84528700000004],
              [106.70804900000007, 20.845866000000058],
              [106.70827500000007, 20.846033000000034],
              [106.70872500000007, 20.846366000000046],
              [106.70935500000007, 20.846831000000066],
              [106.71120200000007, 20.847433000000024],
              [106.71098700000005, 20.847984000000054],
              [106.71097300000008, 20.84798900000004],
              [106.71088500000008, 20.847995000000026],
              [106.71057000000008, 20.848041000000023],
              [106.71039700000006, 20.84807600000005],
              [106.71034000000009, 20.84809800000005],
              [106.71031300000004, 20.84812000000005],
              [106.71029800000008, 20.848164000000054],
              [106.71029800000008, 20.84825100000006],
              [106.71029900000008, 20.84839900000003],
              [106.71028100000007, 20.84851100000003],
              [106.71025800000007, 20.84859000000006],
              [106.71022700000009, 20.848697000000072],
              [106.71011200000004, 20.848932000000048],
              [106.70998300000008, 20.849102000000073],
              [106.70986200000004, 20.84923800000007],
              [106.70959300000004, 20.84944500000006],
              [106.70951000000008, 20.84948600000007],
              [106.70948400000009, 20.849505000000022],
              [106.70946100000003, 20.849567000000036],
              [106.70944100000008, 20.849591000000032],
              [106.70941700000009, 20.84960300000006],
              [106.70937800000007, 20.849605000000054],
              [106.70934000000005, 20.849591000000032],
              [106.70931300000007, 20.849590000000035],
              [106.70920900000004, 20.849612000000036],
              [106.70914500000003, 20.849626000000058],
              [106.70900000000006, 20.84968200000003],
              [106.70877500000006, 20.849810000000048],
              [106.70859100000007, 20.84994800000004],
              [106.70845500000007, 20.85008700000003],
              [106.70834000000008, 20.850205000000074],
              [106.70818300000008, 20.850415000000055],
              [106.70806600000009, 20.850663000000054],
              [106.70799100000005, 20.85093900000004],
              [106.70798500000006, 20.850982000000045],
              [106.70798800000006, 20.851023000000055],
              [106.70802400000008, 20.851120000000037],
              [106.70803300000006, 20.851135000000056],
              [106.70815500000003, 20.85135500000007],
              [106.70824600000009, 20.851419000000078],
              [106.70839200000006, 20.851484000000028],
              [106.70846300000005, 20.851500000000044],
              [106.70852000000008, 20.851489000000072],
              [106.70856900000007, 20.851474000000053],
              [106.70869600000009, 20.851436000000035],
              [106.70885400000009, 20.85141100000004],
              [106.70895100000007, 20.851414000000034],
              [106.70889100000005, 20.851803000000075],
              [106.70888800000006, 20.852250000000026],
              [106.70885200000004, 20.85320100000007],
              [106.70881900000006, 20.854078000000072],
              [106.70763600000004, 20.854082000000062],
              [106.70743100000004, 20.854142000000024],
              [106.70692600000007, 20.85438300000004],
              [106.70682400000004, 20.854431000000034],
              [106.70687400000008, 20.854926000000034],
              [106.70637700000009, 20.854945000000043],
              [106.70628600000003, 20.854712000000063],
              [106.70576200000005, 20.854904000000033],
              [106.70528200000007, 20.85500200000007],
              [106.70515200000006, 20.854953000000023],
              [106.70504400000004, 20.854839000000027],
              [106.70431800000006, 20.85336200000006],
              [106.70370900000006, 20.85214200000007],
              [106.70347000000004, 20.85161800000003],
              [106.70274900000004, 20.852518000000032]
            ]
          ]
        ]
      }
    }
  ]
}
