{
  "type": "FeatureCollection",
  "name": "gis.vn",
  "features": [
    {
      "type": "Feature",
      "properties": {
        "ma_xa": "11689",
        "ten_xa": "Hưng Đạo",
        "sap_nhap": "Đa Phúc, Hưng Đạo, Anh Dũng (1 phần), Hải Thành (1 phần)",
        "tru_so": [20.79444362, 106.6786422],
        "loai": "Phường",
        "cap": 2,
        "stt": 20,
        "dtich_km2": 18.64,
        "dan_so": 37859,
        "matdo_km2": 2031.06,
        "ma_tinh": "31",
        "ten_tinh": "Hải Phòng",
        "mau_sac": "#00FF99"
      },
      "geometry": {
        "type": "MultiPolygon",
        "coordinates": [
          [
            [
              [106.70276400000006, 20.81521200000003],
              [106.70289100000008, 20.81571800000006],
              [106.70306100000005, 20.81635600000004],
              [106.70347500000008, 20.817920000000072],
              [106.70347600000008, 20.817922000000067],
              [106.70352100000008, 20.818164000000024],
              [106.70353100000005, 20.818216000000064],
              [106.70378900000009, 20.819590000000062],
              [106.70391100000006, 20.820535000000064],
              [106.70393800000005, 20.82108000000005],
              [106.70387400000004, 20.82209400000005],
              [106.70373600000005, 20.823331000000053],
              [106.70322000000004, 20.824588000000062],
              [106.70288800000009, 20.825236000000075],
              [106.70217700000006, 20.826307000000043],
              [106.70159800000005, 20.826959000000045],
              [106.70063300000004, 20.827554000000077],
              [106.69953200000003, 20.827975000000038],
              [106.69948600000004, 20.82799200000005],
              [106.69892600000009, 20.828202000000033],
              [106.69828400000006, 20.828272000000027],
              [106.69759900000008, 20.828215000000057],
              [106.69708900000006, 20.828031000000067],
              [106.69667200000004, 20.82774900000004],
              [106.69630400000005, 20.82742200000007],
              [106.69617800000009, 20.827243000000067],
              [106.69600800000006, 20.826940000000036],
              [106.69571100000007, 20.826224000000025],
              [106.69548400000008, 20.824637000000052],
              [106.69542200000006, 20.82396300000005],
              [106.69529900000003, 20.822584000000063],
              [106.69498700000008, 20.82098300000007],
              [106.69483700000006, 20.820483000000024],
              [106.69461900000005, 20.819678000000067],
              [106.69454100000007, 20.819394000000045],
              [106.69452700000005, 20.819338000000073],
              [106.69446100000005, 20.81909600000006],
              [106.69419500000004, 20.81849100000005],
              [106.69409800000005, 20.81831100000005],
              [106.69393200000007, 20.818001000000038],
              [106.69363900000008, 20.81747100000007],
              [106.69347900000008, 20.817254000000048],
              [106.69321500000007, 20.816935000000058],
              [106.69298700000007, 20.81669900000003],
              [106.69260700000007, 20.81633000000005],
              [106.69242700000007, 20.816208000000074],
              [106.69209300000006, 20.815999000000033],
              [106.69176600000009, 20.815811000000053],
              [106.69140500000009, 20.815654000000052],
              [106.69098300000007, 20.81550100000004],
              [106.69029400000005, 20.815320000000042],
              [106.68964500000004, 20.815198000000066],
              [106.68933700000008, 20.815131000000065],
              [106.68814500000008, 20.815149000000076],
              [106.68640200000004, 20.81509600000004],
              [106.68632400000007, 20.815097000000037],
              [106.68612400000006, 20.815101000000027],
              [106.68461600000006, 20.81524500000006],
              [106.68438900000007, 20.815281000000027],
              [106.68326300000007, 20.81542600000006],
              [106.68206200000009, 20.815611000000047],
              [106.68084400000004, 20.81584900000007],
              [106.67969900000008, 20.81610100000006],
              [106.67693800000006, 20.816711000000055],
              [106.67683200000005, 20.816283000000055],
              [106.67679000000004, 20.81614600000006],
              [106.67674700000003, 20.816006000000073],
              [106.67659400000008, 20.815439000000026],
              [106.67741400000006, 20.813781000000063],
              [106.67592200000007, 20.813477000000034],
              [106.67549600000007, 20.813391000000024],
              [106.67487700000004, 20.81325000000004],
              [106.67478800000004, 20.81323100000003],
              [106.67456700000008, 20.813185000000033],
              [106.67438000000004, 20.81315900000004],
              [106.67429600000008, 20.81314800000007],
              [106.67336100000006, 20.813100000000077],
              [106.67278900000008, 20.81308000000007],
              [106.67264100000006, 20.81309200000004],
              [106.67250400000006, 20.81311900000003],
              [106.67242000000005, 20.813173000000063],
              [106.67221300000006, 20.813244000000054],
              [106.67201000000006, 20.813314000000048],
              [106.67077600000005, 20.813734000000068],
              [106.67060900000007, 20.81379000000004],
              [106.67029700000006, 20.81389500000006],
              [106.66948700000006, 20.814167000000054],
              [106.66911600000009, 20.814292000000023],
              [106.66824400000007, 20.814580000000035],
              [106.66653600000006, 20.81514500000003],
              [106.66601400000008, 20.815308000000073],
              [106.66562600000009, 20.81542600000006],
              [106.66547800000006, 20.81547000000006],
              [106.66361300000005, 20.813864000000024],
              [106.66301200000004, 20.813296000000037],
              [106.66203600000006, 20.812441000000035],
              [106.66169700000006, 20.81212400000004],
              [106.66135900000006, 20.812342000000058],
              [106.66069800000008, 20.81276900000006],
              [106.66012200000006, 20.81313300000005],
              [106.65953600000006, 20.81341100000003],
              [106.65938400000005, 20.813523000000032],
              [106.65924900000005, 20.813668000000064],
              [106.65917800000005, 20.813697000000047],
              [106.65900100000005, 20.81375600000007],
              [106.65884900000003, 20.81385700000004],
              [106.65882500000004, 20.81376700000004],
              [106.65853100000004, 20.812651000000074],
              [106.65836200000007, 20.81192100000004],
              [106.65826600000008, 20.811502000000075],
              [106.65823600000004, 20.811375000000055],
              [106.65819100000004, 20.811185000000023],
              [106.65816800000005, 20.811089000000038],
              [106.65805100000006, 20.81062000000003],
              [106.65806100000003, 20.81062000000003],
              [106.65851000000004, 20.810624000000075],
              [106.65866400000004, 20.810625000000073],
              [106.65938300000005, 20.810640000000035],
              [106.65981400000004, 20.810646000000077],
              [106.65983800000004, 20.810647000000074],
              [106.65989500000006, 20.81064800000007],
              [106.65998200000007, 20.810629000000063],
              [106.65998500000006, 20.810625000000073],
              [106.65998400000007, 20.81060700000006],
              [106.65997500000009, 20.810587000000055],
              [106.65842100000003, 20.80923800000005],
              [106.65777600000007, 20.808681000000036],
              [106.65769900000004, 20.808565000000044],
              [106.65771400000006, 20.808543000000043],
              [106.65774300000004, 20.808523000000037],
              [106.65781500000008, 20.808497000000045],
              [106.65794900000009, 20.808452000000045],
              [106.65802500000007, 20.808398000000068],
              [106.65805100000006, 20.808350000000075],
              [106.65805000000006, 20.808348000000024],
              [106.65804500000007, 20.80824300000006],
              [106.65805100000006, 20.808040000000062],
              [106.65802900000006, 20.807577000000038],
              [106.65802600000006, 20.80737400000004],
              [106.65801600000009, 20.806903000000034],
              [106.65801000000005, 20.80667900000003],
              [106.65799700000008, 20.806249000000037],
              [106.65799800000008, 20.805894000000023],
              [106.65797900000007, 20.805574000000036],
              [106.65797700000007, 20.805549000000042],
              [106.65796600000004, 20.805409000000054],
              [106.65793500000007, 20.80490700000007],
              [106.65792400000004, 20.804718000000037],
              [106.65790400000009, 20.804243000000042],
              [106.65790200000004, 20.804062000000044],
              [106.65788200000009, 20.803589000000045],
              [106.65788100000009, 20.803570000000036],
              [106.65787800000004, 20.80326800000006],
              [106.65785100000005, 20.80295200000006],
              [106.65785000000005, 20.802947000000074],
              [106.65726900000004, 20.803022000000055],
              [106.65722800000009, 20.803027000000043],
              [106.65589300000005, 20.803199000000063],
              [106.65585900000008, 20.803203000000053],
              [106.65476100000006, 20.803338000000053],
              [106.65462900000006, 20.80335400000007],
              [106.65462000000008, 20.803226000000052],
              [106.65448800000007, 20.803262000000075],
              [106.65222900000003, 20.80350500000003],
              [106.65222300000005, 20.80350500000003],
              [106.65182600000009, 20.80356800000004],
              [106.65121900000008, 20.803702000000044],
              [106.65067700000009, 20.80384300000003],
              [106.65058000000005, 20.80385300000006],
              [106.65046000000007, 20.80355600000007],
              [106.64996100000008, 20.80214600000005],
              [106.64964200000009, 20.801326000000074],
              [106.64919600000007, 20.80014300000005],
              [106.64856900000007, 20.798406000000057],
              [106.64856800000007, 20.79840500000006],
              [106.64829500000008, 20.797724000000073],
              [106.64816500000006, 20.79739100000006],
              [106.64809400000007, 20.797182000000078],
              [106.64806400000003, 20.797075000000063],
              [106.64804300000009, 20.79694900000004],
              [106.64803500000005, 20.796871000000067],
              [106.64803900000004, 20.796752000000026],
              [106.64808400000004, 20.796489000000065],
              [106.64817400000004, 20.79609700000003],
              [106.64826500000004, 20.795862000000056],
              [106.64834600000006, 20.795761000000027],
              [106.64854700000006, 20.795610000000067],
              [106.64906300000007, 20.79526100000004],
              [106.64937600000007, 20.795053000000053],
              [106.65044200000006, 20.794366000000025],
              [106.65090200000009, 20.794054000000074],
              [106.65195100000005, 20.79333500000007],
              [106.65238700000003, 20.793021000000067],
              [106.65325900000005, 20.79240200000004],
              [106.65385200000009, 20.791981000000078],
              [106.65455100000008, 20.791520000000048],
              [106.65484500000008, 20.79133100000007],
              [106.65496500000006, 20.79124500000006],
              [106.65500600000007, 20.791176000000064],
              [106.65504000000004, 20.79108300000007],
              [106.65505600000006, 20.791041000000064],
              [106.65508500000004, 20.790923000000078],
              [106.65514100000007, 20.790828000000033],
              [106.65536200000008, 20.790542000000073],
              [106.65560300000004, 20.790276000000063],
              [106.65624100000008, 20.789596000000074],
              [106.65746200000007, 20.788267000000076],
              [106.65804200000008, 20.787631000000033],
              [106.65816900000004, 20.78747500000003],
              [106.65844200000004, 20.787153000000046],
              [106.65839100000005, 20.78710200000006],
              [106.65763900000007, 20.786342000000047],
              [106.65669600000007, 20.78538800000007],
              [106.65620200000006, 20.784898000000055],
              [106.65496700000006, 20.783664000000044],
              [106.65484900000007, 20.783546000000058],
              [106.65523500000006, 20.783196000000032],
              [106.65555700000004, 20.78290400000003],
              [106.65560500000004, 20.782951000000025],
              [106.65569200000004, 20.78303900000003],
              [106.65605200000005, 20.782704000000024],
              [106.65647200000006, 20.782313000000045],
              [106.65725500000008, 20.781749000000048],
              [106.65753700000005, 20.781472000000065],
              [106.65797100000009, 20.78104600000006],
              [106.65883000000008, 20.78169500000007],
              [106.66037500000004, 20.78246900000005],
              [106.66213400000004, 20.782906000000025],
              [106.66363500000006, 20.78309500000006],
              [106.66466400000007, 20.783049000000062],
              [106.66577900000004, 20.782799000000068],
              [106.66660000000007, 20.78228900000005],
              [106.66678700000006, 20.782400000000052],
              [106.66703500000006, 20.782548000000077],
              [106.66713000000004, 20.78260700000004],
              [106.66728200000006, 20.782718000000045],
              [106.66731300000004, 20.78273800000005],
              [106.66735200000005, 20.782762000000048],
              [106.66742600000003, 20.782801000000063],
              [106.66752200000008, 20.782849000000056],
              [106.66757900000005, 20.78287800000004],
              [106.66785900000008, 20.783033000000046],
              [106.66823900000009, 20.783259000000044],
              [106.66854800000004, 20.783446000000026],
              [106.66873700000008, 20.783561000000077],
              [106.66898300000008, 20.783712000000037],
              [106.66939900000006, 20.783971000000065],
              [106.66986200000008, 20.784259000000077],
              [106.67027800000005, 20.784519000000046],
              [106.67065700000006, 20.784756000000073],
              [106.67092400000007, 20.78492300000005],
              [106.67105700000008, 20.785006000000067],
              [106.67110000000008, 20.785033000000055],
              [106.67101200000008, 20.785158000000024],
              [106.67045600000006, 20.786140000000046],
              [106.67028800000008, 20.786572000000035],
              [106.67056900000006, 20.786560000000065],
              [106.67070900000004, 20.78678300000007],
              [106.67090600000006, 20.787183000000027],
              [106.67095300000005, 20.787307000000055],
              [106.67098500000009, 20.787397000000055],
              [106.67104200000006, 20.787487000000056],
              [106.67117100000007, 20.787663000000066],
              [106.67120800000004, 20.787758000000053],
              [106.67119800000006, 20.787787000000037],
              [106.67112200000008, 20.78785000000005],
              [106.67109700000009, 20.787860000000023],
              [106.67155500000007, 20.788272000000063],
              [106.67202000000009, 20.788354000000027],
              [106.67211000000009, 20.787585000000036],
              [106.67299100000008, 20.78772200000003],
              [106.67315900000006, 20.786501000000044],
              [106.67317000000008, 20.78642300000007],
              [106.67318200000005, 20.786335000000065],
              [106.67343100000005, 20.78649000000007],
              [106.67396800000006, 20.78682500000008],
              [106.67475900000005, 20.78731700000003],
              [106.67510600000008, 20.787533000000053],
              [106.67557600000004, 20.787826000000052],
              [106.67613300000005, 20.788174000000026],
              [106.67686800000007, 20.788643000000036],
              [106.67732800000005, 20.788933000000043],
              [106.67772800000006, 20.789181000000042],
              [106.67796300000003, 20.789302000000077],
              [106.67796700000008, 20.789304000000072],
              [106.67804500000005, 20.789334000000053],
              [106.67820900000004, 20.789379000000054],
              [106.67912600000005, 20.789517000000046],
              [106.68001000000004, 20.789649000000054],
              [106.68005300000004, 20.78965500000004],
              [106.68012700000008, 20.789656000000036],
              [106.68103700000006, 20.789664000000073],
              [106.68177700000007, 20.789667000000065],
              [106.68243700000005, 20.78970000000004],
              [106.68399900000009, 20.789757000000066],
              [106.68429000000003, 20.789768000000038],
              [106.68489800000003, 20.789760000000058],
              [106.68531500000006, 20.789754000000073],
              [106.68711100000007, 20.789787000000047],
              [106.68727500000006, 20.78977100000003],
              [106.68756800000006, 20.789693000000057],
              [106.68825000000004, 20.789324000000022],
              [106.68938300000008, 20.788707000000045],
              [106.68941800000005, 20.788695000000075],
              [106.68960600000008, 20.788632000000064],
              [106.68963700000006, 20.788622000000032],
              [106.68974200000008, 20.788639000000046],
              [106.69044200000008, 20.78875400000004],
              [106.69121500000006, 20.788861000000054],
              [106.69327300000003, 20.78909500000003],
              [106.69493700000004, 20.789308000000062],
              [106.69599000000005, 20.78946200000007],
              [106.69761000000005, 20.789715000000058],
              [106.69842800000004, 20.789817000000028],
              [106.69935300000009, 20.789949000000036],
              [106.70013900000004, 20.790063000000032],
              [106.70080500000006, 20.79019100000005],
              [106.70210400000008, 20.79043500000006],
              [106.70316700000006, 20.790606000000025],
              [106.70380800000004, 20.790702000000067],
              [106.70433700000007, 20.790781000000038],
              [106.70454300000006, 20.79081700000006],
              [106.70491000000004, 20.790880000000072],
              [106.70522700000004, 20.790935000000047],
              [106.70547600000003, 20.79097900000005],
              [106.70575800000006, 20.791031000000032],
              [106.70612300000005, 20.79109900000003],
              [106.70647500000007, 20.79116300000004],
              [106.70684200000005, 20.79123000000004],
              [106.70727900000009, 20.791311000000064],
              [106.70769000000007, 20.791385000000048],
              [106.70803000000006, 20.791443000000072],
              [106.70833800000008, 20.791495000000054],
              [106.70856800000007, 20.791533000000072],
              [106.70869800000008, 20.791554000000076],
              [106.70876300000003, 20.79156500000005],
              [106.70880900000009, 20.791573000000028],
              [106.70887200000004, 20.79158300000006],
              [106.70895300000007, 20.791596000000027],
              [106.70902000000007, 20.791608000000053],
              [106.70904300000007, 20.791611000000046],
              [106.70915900000006, 20.791630000000055],
              [106.70930000000004, 20.791653000000053],
              [106.70945800000004, 20.791678000000047],
              [106.70966500000009, 20.791712000000075],
              [106.70992900000005, 20.791757000000075],
              [106.71020700000008, 20.791806000000065],
              [106.71048800000005, 20.791856000000053],
              [106.71078500000004, 20.791908000000035],
              [106.71109700000005, 20.791963000000067],
              [106.71142000000003, 20.792021000000034],
              [106.71171500000008, 20.792073000000073],
              [106.71200600000009, 20.792125000000055],
              [106.71230900000006, 20.79218000000003],
              [106.71253100000007, 20.792219000000046],
              [106.71264400000007, 20.792239000000052],
              [106.71271400000006, 20.792252000000076],
              [106.71278500000005, 20.792264000000046],
              [106.71289800000005, 20.792283000000054],
              [106.71303500000005, 20.79230700000005],
              [106.71314000000007, 20.792324000000065],
              [106.71324300000003, 20.792343000000074],
              [106.71340000000004, 20.79237100000006],
              [106.71356800000007, 20.792400000000043],
              [106.71370100000007, 20.79242400000004],
              [106.71381600000007, 20.792445000000043],
              [106.71391400000005, 20.792464000000052],
              [106.71400900000003, 20.79248400000006],
              [106.71411300000005, 20.792508000000055],
              [106.71422000000007, 20.792534000000046],
              [106.71432300000004, 20.792565000000025],
              [106.71441300000004, 20.792598000000055],
              [106.71448500000008, 20.792625000000044],
              [106.71455400000008, 20.792652000000032],
              [106.71462700000006, 20.792683000000068],
              [106.71468600000009, 20.79270800000006],
              [106.71472500000004, 20.792724000000078],
              [106.71475600000008, 20.792738000000043],
              [106.71479600000004, 20.79276200000004],
              [106.71486200000004, 20.792804000000046],
              [106.71494300000006, 20.792859000000078],
              [106.71502200000003, 20.79291500000005],
              [106.71508600000004, 20.79296000000005],
              [106.71512500000006, 20.792988000000037],
              [106.71515300000004, 20.793007000000046],
              [106.71517700000004, 20.793022000000065],
              [106.71520200000003, 20.79303900000008],
              [106.71523100000007, 20.79305800000003],
              [106.71525700000007, 20.793076000000042],
              [106.71525800000006, 20.79307700000004],
              [106.71528300000006, 20.793094000000053],
              [106.71531100000004, 20.793113000000062],
              [106.71533600000004, 20.793130000000076],
              [106.71536000000003, 20.793146000000036],
              [106.71538500000008, 20.79316300000005],
              [106.71540300000004, 20.793176000000074],
              [106.71541500000006, 20.793184000000053],
              [106.71544900000004, 20.79320800000005],
              [106.71554600000007, 20.793273000000056],
              [106.71570300000008, 20.793379000000073],
              [106.71590700000007, 20.793516000000068],
              [106.71617600000008, 20.793697000000066],
              [106.71649000000008, 20.793907000000047],
              [106.71683700000006, 20.79413900000003],
              [106.71718500000009, 20.794373000000064],
              [106.71751100000006, 20.794592000000023],
              [106.71782200000007, 20.794800000000066],
              [106.71808500000009, 20.794977000000074],
              [106.71829700000006, 20.79511800000006],
              [106.71850500000005, 20.79525700000005],
              [106.71872000000008, 20.795402000000024],
              [106.71891000000005, 20.795530000000042],
              [106.71909200000005, 20.795652000000075],
              [106.71925800000008, 20.795763000000022],
              [106.71934900000008, 20.79582400000004],
              [106.71939200000008, 20.795853000000022],
              [106.71943600000009, 20.795885000000055],
              [106.71947900000004, 20.795921000000078],
              [106.71950900000007, 20.79595800000004],
              [106.71952600000009, 20.79600300000004],
              [106.71953800000006, 20.796057000000076],
              [106.71954500000004, 20.796100000000024],
              [106.71955000000008, 20.796136000000047],
              [106.71955500000007, 20.796178000000054],
              [106.71955800000006, 20.79622500000005],
              [106.71955800000006, 20.79627000000005],
              [106.71956000000006, 20.796280000000024],
              [106.71943700000008, 20.796549000000027],
              [106.71942300000006, 20.796619000000078],
              [106.71941100000004, 20.796666000000073],
              [106.71939900000007, 20.796714000000065],
              [106.71938900000004, 20.796744000000047],
              [106.71927300000004, 20.796906000000035],
              [106.71926600000006, 20.796922000000052],
              [106.71924900000005, 20.796950000000038],
              [106.71922100000006, 20.796992000000046],
              [106.71918000000005, 20.79705000000007],
              [106.71913300000006, 20.797114000000022],
              [106.71909300000004, 20.79716600000006],
              [106.71906800000005, 20.797198000000037],
              [106.71905200000003, 20.797214000000054],
              [106.71904100000006, 20.79722400000003],
              [106.71903100000009, 20.797231000000068],
              [106.71901900000006, 20.797237000000052],
              [106.71900100000005, 20.79724200000004],
              [106.71897300000006, 20.797249000000022],
              [106.71893400000005, 20.79725600000006],
              [106.71888100000007, 20.79726500000004],
              [106.71880600000009, 20.797277000000065],
              [106.71870400000006, 20.797293000000025],
              [106.71858100000009, 20.797312000000034],
              [106.71844500000009, 20.79733200000004],
              [106.71830400000005, 20.797353000000044],
              [106.71815900000007, 20.797375000000045],
              [106.71800700000006, 20.797397000000046],
              [106.71785100000005, 20.797419000000048],
              [106.71769900000004, 20.797442000000046],
              [106.71756200000004, 20.797462000000053],
              [106.71744500000005, 20.797479000000067],
              [106.71734800000007, 20.79749400000003],
              [106.71727100000004, 20.797506000000055],
              [106.71721100000008, 20.797515000000033],
              [106.71716000000004, 20.797524000000067],
              [106.71711500000004, 20.79753100000005],
              [106.71707900000007, 20.79753800000003],
              [106.71705200000008, 20.79754500000007],
              [106.71703100000008, 20.797551000000055],
              [106.71701400000006, 20.79755700000004],
              [106.71699900000004, 20.797564000000023],
              [106.71698500000008, 20.797570000000064],
              [106.71696900000006, 20.797578000000044],
              [106.71695400000004, 20.797587000000078],
              [106.71694000000008, 20.797599000000048],
              [106.71692600000006, 20.79761700000006],
              [106.71691700000008, 20.797644000000048],
              [106.71691500000009, 20.79767400000003],
              [106.71692100000007, 20.797702000000072],
              [106.71692900000005, 20.797723000000076],
              [106.71693900000008, 20.797743000000025],
              [106.71696100000008, 20.79777800000005],
              [106.71700400000009, 20.79784600000005],
              [106.71707400000008, 20.79795500000006],
              [106.71716200000009, 20.798091000000056],
              [106.71725300000008, 20.79823200000004],
              [106.71733500000005, 20.79836000000006],
              [106.71736100000004, 20.79840100000007],
              [106.71740500000004, 20.79847200000006],
              [106.71746900000005, 20.798573000000033],
              [106.71753100000006, 20.79867100000007],
              [106.71759300000008, 20.79877300000004],
              [106.71765200000004, 20.79887300000007],
              [106.71767400000004, 20.798914000000025],
              [106.71775500000007, 20.799095000000023],
              [106.71808600000008, 20.799833000000035],
              [106.71791200000007, 20.79989000000006],
              [106.71700200000004, 20.800272000000064],
              [106.71621300000004, 20.80069100000003],
              [106.71531600000009, 20.80133100000006],
              [106.71468100000004, 20.80178600000005],
              [106.71354300000007, 20.802782000000036],
              [106.71202300000004, 20.80416400000007],
              [106.71092600000009, 20.80514100000005],
              [106.71002900000008, 20.805810000000065],
              [106.70972600000005, 20.805991000000063],
              [106.70944300000008, 20.806160000000034],
              [106.70773500000007, 20.807056000000046],
              [106.70679500000006, 20.80755300000004],
              [106.70584700000006, 20.808174000000065],
              [106.70519100000007, 20.808659000000034],
              [106.70454700000005, 20.809210000000064],
              [106.70388300000008, 20.809886000000063],
              [106.70357300000006, 20.810310000000072],
              [106.70334300000007, 20.810713000000078],
              [106.70321500000006, 20.81102100000004],
              [106.70304900000008, 20.811663000000067],
              [106.70292500000005, 20.812362000000064],
              [106.70278500000006, 20.813482000000022],
              [106.70271400000007, 20.814400000000035],
              [106.70270900000008, 20.81484000000006],
              [106.70276400000006, 20.81521200000003]
            ]
          ]
        ]
      }
    }
  ]
}
