{
  "type": "FeatureCollection",
  "name": "gis.vn",
  "features": [
    {
      "type": "Feature",
      "properties": {
        "ma_xa": "11443",
        "ten_xa": "Kiến An",
        "sap_nhap": "Nam Sơn (quận Kiến An, 1 phần), Đồng Hòa (1 phần), Bắc Sơn (1 phần), Trần Thành Ngọ (1 phần), Văn Đẩu (1 phần)",
        "tru_so": "đang cập nhật",
        "loai": "Phường",
        "cap": 2,
        "stt": 16,
        "dtich_km2": 11.18,
        "dan_so": 67236,
        "matdo_km2": 6013.95,
        "ma_tinh": "31",
        "ten_tinh": "Hải Phòng",
        "mau_sac": "#FF3366"
      },
      "geometry": {
        "type": "MultiPolygon",
        "coordinates": [
          [
            [
              [
                106.67011900000006,
                20.826486000000045
              ],
              [
                106.67011900000006,
                20.827733000000023
              ],
              [
                106.67008300000003,
                20.82808700000004
              ],
              [
                106.66987700000004,
                20.829172000000028
              ],
              [
                106.66953900000004,
                20.830167000000074
              ],
              [
                106.66943100000009,
                20.830547000000024
              ],
              [
                106.66892600000006,
                20.831818000000055
              ],
              [
                106.66850700000003,
                20.832722000000047
              ],
              [
                106.66776100000004,
                20.833744000000024
              ],
              [
                106.66767900000008,
                20.83391000000006
              ],
              [
                106.66743100000008,
                20.83426600000007
              ],
              [
                106.66711000000004,
                20.834791000000052
              ],
              [
                106.66679600000003,
                20.83525000000003
              ],
              [
                106.66647000000006,
                20.835691000000054
              ],
              [
                106.66641100000004,
                20.835757000000058
              ],
              [
                106.66606600000006,
                20.836185000000057
              ],
              [
                106.66570000000007,
                20.836595000000045
              ],
              [
                106.66441900000007,
                20.837769000000037
              ],
              [
                106.66427700000008,
                20.83789900000005
              ],
              [
                106.66421600000007,
                20.837956000000077
              ],
              [
                106.66308700000008,
                20.839146000000028
              ],
              [
                106.66194500000006,
                20.840341000000024
              ],
              [
                106.66127300000005,
                20.84096900000003
              ],
              [
                106.66083700000007,
                20.841354000000024
              ],
              [
                106.65984600000007,
                20.842213000000072
              ],
              [
                106.65921000000009,
                20.84261900000007
              ],
              [
                106.65918200000004,
                20.842634000000032
              ],
              [
                106.65874900000006,
                20.842868000000067
              ],
              [
                106.65833100000003,
                20.84306600000008
              ],
              [
                106.65765900000008,
                20.843403000000023
              ],
              [
                106.65695200000005,
                20.84364400000004
              ],
              [
                106.65581100000009,
                20.843905000000063
              ],
              [
                106.65476900000004,
                20.84399700000006
              ],
              [
                106.65423300000003,
                20.843943000000024
              ],
              [
                106.65373400000004,
                20.843823000000043
              ],
              [
                106.65300700000006,
                20.843586000000073
              ],
              [
                106.65254200000004,
                20.843398000000036
              ],
              [
                106.65220800000009,
                20.843226000000072
              ],
              [
                106.65188200000006,
                20.84297600000008
              ],
              [
                106.65123300000005,
                20.842231000000027
              ],
              [
                106.65069800000003,
                20.841572000000042
              ],
              [
                106.65008200000005,
                20.840431000000024
              ],
              [
                106.64993500000008,
                20.84003800000005
              ],
              [
                106.64977800000008,
                20.839619000000027
              ],
              [
                106.64965700000005,
                20.83886700000005
              ],
              [
                106.64966100000004,
                20.838497000000075
              ],
              [
                106.64975800000008,
                20.837642000000073
              ],
              [
                106.65002700000008,
                20.836974000000055
              ],
              [
                106.65042100000005,
                20.83639500000004
              ],
              [
                106.65081800000007,
                20.835982000000058
              ],
              [
                106.65128900000008,
                20.835493000000042
              ],
              [
                106.65193300000004,
                20.834951000000046
              ],
              [
                106.65330600000004,
                20.83393300000006
              ],
              [
                106.65376000000003,
                20.833582000000035
              ],
              [
                106.65452700000009,
                20.83298700000006
              ],
              [
                106.65524600000003,
                20.83233000000007
              ],
              [
                106.65563400000008,
                20.83193200000005
              ],
              [
                106.65593500000006,
                20.83132500000005
              ],
              [
                106.65612700000008,
                20.830429000000038
              ],
              [
                106.65615000000008,
                20.829705000000047
              ],
              [
                106.65604700000006,
                20.828806000000043
              ],
              [
                106.65592900000007,
                20.82831200000004
              ],
              [
                106.65579800000006,
                20.827980000000025
              ],
              [
                106.65570400000007,
                20.827740000000063
              ],
              [
                106.65537400000005,
                20.827322000000038
              ],
              [
                106.65517800000003,
                20.82707300000004
              ],
              [
                106.65468300000003,
                20.826553000000047
              ],
              [
                106.65463900000009,
                20.82652100000007
              ],
              [
                106.65453100000008,
                20.826441000000045
              ],
              [
                106.65439200000009,
                20.826337000000024
              ],
              [
                106.65432000000004,
                20.826284000000044
              ],
              [
                106.65393000000006,
                20.826088000000027
              ],
              [
                106.65350400000005,
                20.825924000000043
              ],
              [
                106.65290600000009,
                20.825822000000073
              ],
              [
                106.65206800000004,
                20.825938000000065
              ],
              [
                106.65124500000007,
                20.826197000000036
              ],
              [
                106.65042600000004,
                20.826647000000037
              ],
              [
                106.64905300000004,
                20.827642000000026
              ],
              [
                106.64834200000007,
                20.828157000000033
              ],
              [
                106.64750900000007,
                20.82868300000007
              ],
              [
                106.64634600000005,
                20.829267000000073
              ],
              [
                106.64539400000007,
                20.829574000000036
              ],
              [
                106.64479500000004,
                20.829646000000025
              ],
              [
                106.64436900000004,
                20.82968900000003
              ],
              [
                106.64402700000005,
                20.82967700000006
              ],
              [
                106.64383700000008,
                20.82967000000008
              ],
              [
                106.64260000000007,
                20.829485000000034
              ],
              [
                106.64217200000007,
                20.829421000000025
              ],
              [
                106.64183000000008,
                20.82937400000003
              ],
              [
                106.64095200000008,
                20.829139000000055
              ],
              [
                106.63994800000006,
                20.82875800000005
              ],
              [
                106.63904500000007,
                20.828292000000033
              ],
              [
                106.63853700000004,
                20.82800100000003
              ],
              [
                106.63790800000004,
                20.82757300000003
              ],
              [
                106.63753300000008,
                20.827331000000072
              ],
              [
                106.63614800000005,
                20.82651800000008
              ],
              [
                106.63491600000003,
                20.825930000000028
              ],
              [
                106.63356600000009,
                20.82526100000007
              ],
              [
                106.63271100000009,
                20.824730000000045
              ],
              [
                106.63210300000009,
                20.824335000000076
              ],
              [
                106.63166600000005,
                20.823960000000056
              ],
              [
                106.63066700000007,
                20.822988000000066
              ],
              [
                106.63004200000006,
                20.822339000000056
              ],
              [
                106.62927800000006,
                20.821248000000026
              ],
              [
                106.62874300000004,
                20.820557000000065
              ],
              [
                106.62855900000005,
                20.820294000000047
              ],
              [
                106.62839500000007,
                20.820070000000044
              ],
              [
                106.62789100000003,
                20.81962500000003
              ],
              [
                106.62741100000005,
                20.819173000000035
              ],
              [
                106.62687100000005,
                20.818775000000073
              ],
              [
                106.62613900000008,
                20.818331000000057
              ],
              [
                106.62386100000003,
                20.81714800000003
              ],
              [
                106.62362700000006,
                20.81705800000003
              ],
              [
                106.62365600000004,
                20.816607000000033
              ],
              [
                106.62367600000005,
                20.816170000000056
              ],
              [
                106.62369100000006,
                20.815856000000053
              ],
              [
                106.62369800000005,
                20.815680000000043
              ],
              [
                106.62372700000009,
                20.814935000000048
              ],
              [
                106.62379200000004,
                20.81385300000005
              ],
              [
                106.62577500000003,
                20.81441600000005
              ],
              [
                106.62575300000009,
                20.812644000000034
              ],
              [
                106.62579100000005,
                20.81012000000004
              ],
              [
                106.62578600000006,
                20.80978700000003
              ],
              [
                106.62577100000004,
                20.808642000000077
              ],
              [
                106.62575100000004,
                20.807695000000024
              ],
              [
                106.62575800000008,
                20.807202000000075
              ],
              [
                106.62576600000006,
                20.807020000000023
              ],
              [
                106.62576600000006,
                20.806691000000058
              ],
              [
                106.62575800000008,
                20.80589100000003
              ],
              [
                106.62578500000006,
                20.804297000000076
              ],
              [
                106.62582300000008,
                20.80430300000006
              ],
              [
                106.62607000000008,
                20.804325000000063
              ],
              [
                106.62626700000004,
                20.804382000000032
              ],
              [
                106.62666500000006,
                20.804515000000038
              ],
              [
                106.62679900000006,
                20.804561000000035
              ],
              [
                106.62687100000005,
                20.804593000000068
              ],
              [
                106.62711800000005,
                20.804732000000058
              ],
              [
                106.62730400000004,
                20.805004000000054
              ],
              [
                106.62730800000008,
                20.805378000000076
              ],
              [
                106.62717500000008,
                20.80579700000004
              ],
              [
                106.62712500000004,
                20.80591400000003
              ],
              [
                106.62687100000005,
                20.806503000000077
              ],
              [
                106.62682100000006,
                20.806674000000044
              ],
              [
                106.62679600000007,
                20.80722600000007
              ],
              [
                106.62678500000004,
                20.807638000000054
              ],
              [
                106.62678700000004,
                20.80776000000003
              ],
              [
                106.62680400000005,
                20.80792500000007
              ],
              [
                106.62682600000005,
                20.807972000000063
              ],
              [
                106.62687100000005,
                20.80806700000005
              ],
              [
                106.62707800000004,
                20.808137000000045
              ],
              [
                106.62754800000005,
                20.808169000000078
              ],
              [
                106.62809400000003,
                20.808146000000022
              ],
              [
                106.62865900000008,
                20.808039000000065
              ],
              [
                106.62909700000006,
                20.808034000000077
              ],
              [
                106.62938400000007,
                20.808097000000032
              ],
              [
                106.62959500000005,
                20.808179000000052
              ],
              [
                106.62969100000004,
                20.808316000000048
              ],
              [
                106.62982000000005,
                20.80844600000006
              ],
              [
                106.62994100000009,
                20.80848100000003
              ],
              [
                106.63008600000006,
                20.80843600000003
              ],
              [
                106.63015000000007,
                20.80840100000006
              ],
              [
                106.63033200000007,
                20.80825600000003
              ],
              [
                106.63042600000006,
                20.808088000000055
              ],
              [
                106.63044200000007,
                20.807813000000067
              ],
              [
                106.63047200000005,
                20.80760300000003
              ],
              [
                106.63052100000004,
                20.80751300000003
              ],
              [
                106.63063600000004,
                20.80750000000006
              ],
              [
                106.63075700000007,
                20.807547000000056
              ],
              [
                106.63106400000004,
                20.807735000000037
              ],
              [
                106.63129600000008,
                20.807884000000058
              ],
              [
                106.63147500000008,
                20.807836000000066
              ],
              [
                106.63142200000004,
                20.80773000000005
              ],
              [
                106.63135900000009,
                20.807506000000046
              ],
              [
                106.63126600000004,
                20.807330000000036
              ],
              [
                106.63127900000006,
                20.807192000000043
              ],
              [
                106.63138500000008,
                20.807052000000056
              ],
              [
                106.63149000000004,
                20.806931000000077
              ],
              [
                106.63160600000003,
                20.806849000000057
              ],
              [
                106.63163000000009,
                20.806691000000058
              ],
              [
                106.63157700000005,
                20.806505000000072
              ],
              [
                106.63157100000006,
                20.806391000000076
              ],
              [
                106.63166100000007,
                20.806261000000063
              ],
              [
                106.63186700000006,
                20.806091000000038
              ],
              [
                106.63197700000006,
                20.805918000000077
              ],
              [
                106.63213100000007,
                20.805573000000038
              ],
              [
                106.63214600000003,
                20.80541400000004
              ],
              [
                106.63215400000007,
                20.80532400000004
              ],
              [
                106.63211600000005,
                20.80510400000003
              ],
              [
                106.63205400000004,
                20.804976000000067
              ],
              [
                106.63195600000006,
                20.804857000000027
              ],
              [
                106.63186900000005,
                20.804810000000032
              ],
              [
                106.63175200000006,
                20.804783000000043
              ],
              [
                106.63147700000007,
                20.804757000000052
              ],
              [
                106.63133400000004,
                20.804734000000053
              ],
              [
                106.63119200000006,
                20.804793000000075
              ],
              [
                106.63105200000007,
                20.80492300000003
              ],
              [
                106.63056700000004,
                20.805248000000063
              ],
              [
                106.63032500000008,
                20.805446000000074
              ],
              [
                106.63021300000008,
                20.805462000000034
              ],
              [
                106.62993900000004,
                20.805426000000068
              ],
              [
                106.62961800000005,
                20.805300000000045
              ],
              [
                106.62862400000006,
                20.803649000000064
              ],
              [
                106.62857400000007,
                20.803539000000058
              ],
              [
                106.62854500000009,
                20.803473000000054
              ],
              [
                106.62857100000008,
                20.803387000000043
              ],
              [
                106.62866900000006,
                20.802991000000077
              ],
              [
                106.62867200000005,
                20.80293000000006
              ],
              [
                106.63016600000009,
                20.803209000000038
              ],
              [
                106.63076600000005,
                20.803303000000028
              ],
              [
                106.63118100000008,
                20.803353000000072
              ],
              [
                106.63166000000007,
                20.803395000000023
              ],
              [
                106.63188700000006,
                20.803414000000032
              ],
              [
                106.63268900000008,
                20.803439000000026
              ],
              [
                106.63306200000005,
                20.803439000000026
              ],
              [
                106.63416300000006,
                20.80176000000006
              ],
              [
                106.63560000000007,
                20.80171500000006
              ],
              [
                106.63601500000004,
                20.80096700000007
              ],
              [
                106.63634600000006,
                20.800370000000044
              ],
              [
                106.63665100000009,
                20.799820000000068
              ],
              [
                106.63679900000005,
                20.79961600000007
              ],
              [
                106.63689400000004,
                20.79948500000006
              ],
              [
                106.63699700000006,
                20.799323000000072
              ],
              [
                106.63712300000009,
                20.799167000000068
              ],
              [
                106.63746500000008,
                20.79860700000006
              ],
              [
                106.63787900000005,
                20.79878300000007
              ],
              [
                106.63844500000005,
                20.799023000000034
              ],
              [
                106.63890500000008,
                20.799190000000067
              ],
              [
                106.63940200000008,
                20.799372000000062
              ],
              [
                106.63951000000009,
                20.799457000000075
              ],
              [
                106.63945800000005,
                20.799615000000074
              ],
              [
                106.63937700000008,
                20.799910000000068
              ],
              [
                106.63940100000008,
                20.799974000000077
              ],
              [
                106.64048600000007,
                20.800222000000076
              ],
              [
                106.64050100000009,
                20.800223000000074
              ],
              [
                106.64046000000008,
                20.80033700000007
              ],
              [
                106.64041300000008,
                20.80046600000003
              ],
              [
                106.64040100000005,
                20.80049900000006
              ],
              [
                106.64036600000009,
                20.800569000000053
              ],
              [
                106.64010500000006,
                20.801255000000026
              ],
              [
                106.64009200000004,
                20.80129000000005
              ],
              [
                106.63987000000009,
                20.801875000000052
              ],
              [
                106.63975900000008,
                20.802080000000046
              ],
              [
                106.63935600000008,
                20.80317800000006
              ],
              [
                106.63900400000006,
                20.804273000000023
              ],
              [
                106.63899800000007,
                20.80431200000004
              ],
              [
                106.63892800000008,
                20.804783000000043
              ],
              [
                106.63886600000006,
                20.80520800000005
              ],
              [
                106.63886400000007,
                20.805213000000037
              ],
              [
                106.63872900000007,
                20.805526000000043
              ],
              [
                106.63903600000003,
                20.805680000000052
              ],
              [
                106.63924500000007,
                20.805850000000078
              ],
              [
                106.63941300000005,
                20.805985000000078
              ],
              [
                106.63969900000006,
                20.806179000000043
              ],
              [
                106.64066200000008,
                20.806830000000048
              ],
              [
                106.64108000000004,
                20.80718100000007
              ],
              [
                106.64155100000005,
                20.807686000000047
              ],
              [
                106.64190700000006,
                20.808170000000075
              ],
              [
                106.64213300000006,
                20.807915000000037
              ],
              [
                106.64243500000003,
                20.807619000000045
              ],
              [
                106.64272400000004,
                20.807309000000032
              ],
              [
                106.64384800000005,
                20.806097000000022
              ],
              [
                106.64386700000006,
                20.806080000000065
              ],
              [
                106.64436100000006,
                20.806959000000063
              ],
              [
                106.64540900000009,
                20.808821000000023
              ],
              [
                106.64556900000008,
                20.809106000000043
              ],
              [
                106.64609800000005,
                20.810046000000057
              ],
              [
                106.64637900000008,
                20.810545000000047
              ],
              [
                106.64665000000008,
                20.810984000000076
              ],
              [
                106.64680000000004,
                20.81123800000006
              ],
              [
                106.64729200000005,
                20.812099000000046
              ],
              [
                106.64738200000005,
                20.812256000000048
              ],
              [
                106.64835000000005,
                20.81395100000003
              ],
              [
                106.64942100000007,
                20.815886000000035
              ],
              [
                106.64943900000009,
                20.815918000000067
              ],
              [
                106.65030500000006,
                20.817338000000063
              ],
              [
                106.65116400000005,
                20.818707000000074
              ],
              [
                106.65252000000004,
                20.820869000000073
              ],
              [
                106.65292900000009,
                20.821521000000075
              ],
              [
                106.65331000000003,
                20.822128000000077
              ],
              [
                106.65343900000005,
                20.822091000000057
              ],
              [
                106.65406600000006,
                20.821898000000033
              ],
              [
                106.65424800000005,
                20.82184200000006
              ],
              [
                106.65479100000005,
                20.821668000000045
              ],
              [
                106.65536800000007,
                20.821462000000054
              ],
              [
                106.65542900000008,
                20.821429000000023
              ],
              [
                106.65572100000009,
                20.821250000000077
              ],
              [
                106.65633200000008,
                20.821004000000073
              ],
              [
                106.65676200000007,
                20.820866000000024
              ],
              [
                106.65730700000006,
                20.82071700000006
              ],
              [
                106.65766900000006,
                20.82063000000005
              ],
              [
                106.65774900000008,
                20.820620000000076
              ],
              [
                106.65807000000007,
                20.82232300000004
              ],
              [
                106.65835300000003,
                20.822677000000056
              ],
              [
                106.65858800000007,
                20.822970000000055
              ],
              [
                106.65915900000005,
                20.82369300000005
              ],
              [
                106.65965000000006,
                20.823419000000058
              ],
              [
                106.66046900000003,
                20.823010000000068
              ],
              [
                106.66211900000008,
                20.822392000000036
              ],
              [
                106.66282500000005,
                20.822217000000023
              ],
              [
                106.66291100000007,
                20.822196000000076
              ],
              [
                106.66299900000007,
                20.822177000000067
              ],
              [
                106.66388400000005,
                20.821992000000023
              ],
              [
                106.66445100000004,
                20.821916000000044
              ],
              [
                106.66457500000007,
                20.82189900000003
              ],
              [
                106.66542800000008,
                20.82180500000004
              ],
              [
                106.66608800000006,
                20.821732000000054
              ],
              [
                106.66630700000007,
                20.821724000000074
              ],
              [
                106.66849000000008,
                20.821743000000026
              ],
              [
                106.66917100000006,
                20.821751000000063
              ],
              [
                106.66950100000008,
                20.821755000000053
              ],
              [
                106.66950600000007,
                20.821890000000053
              ],
              [
                106.66952900000007,
                20.822486000000026
              ],
              [
                106.66956000000005,
                20.822888000000034
              ],
              [
                106.67002600000006,
                20.825204000000042
              ],
              [
                106.67011900000006,
                20.826486000000045
              ]
            ]
          ]
        ]
      }
    }
  ]
}