{
  "type": "FeatureCollection",
  "name": "gis.vn",
  "features": [
    {
      "type": "Feature",
      "properties": {
        "ma_xa": "10804",
        "ten_xa": "Kim Thành",
        "sap_nhap": "Đồng Cẩm, Tam Kỳ, Đại Đức, Hòa Bình (1 phần)",
        "tru_so": "đang cập nhật",
        "loai": "Xã",
        "cap": 2,
        "stt": 114,
        "dtich_km2": 33.79,
        "dan_so": 42915,
        "matdo_km2": 1270.05,
        "ma_tinh": "31",
        "ten_tinh": "Hải Phòng",
        "mau_sac": "#33FFFF"
      },
      "geometry": {
        "type": "MultiPolygon",
        "coordinates": [
          [
            [
              [
                106.52783300000004,
                20.91360000000003
              ],
              [
                106.52762400000006,
                20.91404700000004
              ],
              [
                106.52739500000007,
                20.914521000000036
              ],
              [
                106.52735300000006,
                20.914869000000067
              ],
              [
                106.52741800000007,
                20.915144000000055
              ],
              [
                106.52757300000007,
                20.915329000000042
              ],
              [
                106.52770200000003,
                20.915426000000025
              ],
              [
                106.52779500000008,
                20.915496000000076
              ],
              [
                106.52782400000007,
                20.915505000000053
              ],
              [
                106.52739800000006,
                20.915710000000047
              ],
              [
                106.52630800000009,
                20.91609200000005
              ],
              [
                106.52525600000007,
                20.916496000000052
              ],
              [
                106.52492700000005,
                20.916642000000024
              ],
              [
                106.52474700000005,
                20.916701000000046
              ],
              [
                106.52315400000003,
                20.917121000000066
              ],
              [
                106.52226300000007,
                20.917354000000046
              ],
              [
                106.52051300000005,
                20.917800000000057
              ],
              [
                106.52017800000004,
                20.917882000000077
              ],
              [
                106.52004000000005,
                20.917890000000057
              ],
              [
                106.51998700000007,
                20.917884000000072
              ],
              [
                106.51996000000008,
                20.917845000000057
              ],
              [
                106.51991100000004,
                20.917576000000054
              ],
              [
                106.51990200000006,
                20.917386000000022
              ],
              [
                106.51985400000007,
                20.917211000000066
              ],
              [
                106.51975300000004,
                20.916972000000044
              ],
              [
                106.51963100000006,
                20.916643000000022
              ],
              [
                106.51957600000009,
                20.916446000000064
              ],
              [
                106.51957400000003,
                20.91626300000007
              ],
              [
                106.51958400000007,
                20.916175000000067
              ],
              [
                106.51961200000005,
                20.915959000000043
              ],
              [
                106.51966000000004,
                20.915801000000044
              ],
              [
                106.51974300000006,
                20.915700000000072
              ],
              [
                106.51984900000008,
                20.915620000000047
              ],
              [
                106.52003500000006,
                20.915550000000053
              ],
              [
                106.52037000000007,
                20.91548300000005
              ],
              [
                106.52067100000005,
                20.915415000000053
              ],
              [
                106.52080800000005,
                20.915368000000058
              ],
              [
                106.52093500000007,
                20.91529600000007
              ],
              [
                106.52099700000008,
                20.91524400000003
              ],
              [
                106.52120300000007,
                20.915053000000057
              ],
              [
                106.52148200000005,
                20.914762000000053
              ],
              [
                106.52161300000006,
                20.914585000000045
              ],
              [
                106.52166600000004,
                20.91447400000004
              ],
              [
                106.52170300000006,
                20.914337000000046
              ],
              [
                106.52169400000008,
                20.91420100000005
              ],
              [
                106.52165400000007,
                20.914058000000068
              ],
              [
                106.52148000000005,
                20.913798000000043
              ],
              [
                106.52132200000005,
                20.913649000000078
              ],
              [
                106.52119500000003,
                20.913542000000064
              ],
              [
                106.52102200000007,
                20.91346100000004
              ],
              [
                106.52084600000006,
                20.91341600000004
              ],
              [
                106.52071300000006,
                20.913421000000028
              ],
              [
                106.52057900000005,
                20.913451000000066
              ],
              [
                106.52039400000007,
                20.913572000000045
              ],
              [
                106.52029200000004,
                20.913665000000037
              ],
              [
                106.52020100000004,
                20.913759000000027
              ],
              [
                106.52010300000006,
                20.913842000000045
              ],
              [
                106.51999600000005,
                20.913890000000038
              ],
              [
                106.51984400000003,
                20.91393400000004
              ],
              [
                106.51954300000006,
                20.913973000000055
              ],
              [
                106.51928500000008,
                20.913981000000035
              ],
              [
                106.51905100000005,
                20.913970000000063
              ],
              [
                106.51878000000005,
                20.913954000000047
              ],
              [
                106.51855400000005,
                20.913910000000044
              ],
              [
                106.51830900000004,
                20.913837000000058
              ],
              [
                106.51807200000007,
                20.913749000000053
              ],
              [
                106.51788100000005,
                20.913613000000055
              ],
              [
                106.51777200000004,
                20.913490000000024
              ],
              [
                106.51749800000005,
                20.913242000000025
              ],
              [
                106.51737900000006,
                20.913135000000068
              ],
              [
                106.51724400000006,
                20.913054000000045
              ],
              [
                106.51716400000004,
                20.91302200000007
              ],
              [
                106.51706500000006,
                20.913002000000063
              ],
              [
                106.51694200000009,
                20.91299200000003
              ],
              [
                106.51678600000008,
                20.913008000000048
              ],
              [
                106.51664500000004,
                20.91303400000004
              ],
              [
                106.51649700000007,
                20.91308200000003
              ],
              [
                106.51630700000004,
                20.913177000000076
              ],
              [
                106.51606800000008,
                20.913312000000076
              ],
              [
                106.51588900000007,
                20.913452000000063
              ],
              [
                106.51570900000007,
                20.913612000000057
              ],
              [
                106.51560700000005,
                20.91373500000003
              ],
              [
                106.51555800000006,
                20.913829000000078
              ],
              [
                106.51553300000006,
                20.913940000000025
              ],
              [
                106.51554100000004,
                20.914037000000064
              ],
              [
                106.51561300000009,
                20.914256000000023
              ],
              [
                106.51572900000008,
                20.914491000000055
              ],
              [
                106.51575300000007,
                20.914584000000048
              ],
              [
                106.51575300000007,
                20.914645000000064
              ],
              [
                106.51573500000006,
                20.914724000000035
              ],
              [
                106.51569400000005,
                20.914810000000045
              ],
              [
                106.51561100000004,
                20.914915000000065
              ],
              [
                106.51509500000009,
                20.91525000000007
              ],
              [
                106.51492200000007,
                20.915384000000074
              ],
              [
                106.51463500000006,
                20.91561500000006
              ],
              [
                106.51447200000007,
                20.915752000000055
              ],
              [
                106.51432400000004,
                20.915856000000076
              ],
              [
                106.51419400000009,
                20.915933000000052
              ],
              [
                106.51407900000004,
                20.91599300000007
              ],
              [
                106.51399100000003,
                20.916029000000037
              ],
              [
                106.51381200000009,
                20.916115000000048
              ],
              [
                106.51368900000006,
                20.916210000000035
              ],
              [
                106.51354400000008,
                20.91615900000005
              ],
              [
                106.51208300000008,
                20.91572300000007
              ],
              [
                106.51111300000008,
                20.91543400000006
              ],
              [
                106.51119600000004,
                20.915180000000078
              ],
              [
                106.51121800000004,
                20.915114000000074
              ],
              [
                106.51083600000004,
                20.914995000000033
              ],
              [
                106.51017900000005,
                20.91446700000006
              ],
              [
                106.51005400000008,
                20.91465000000005
              ],
              [
                106.50974200000007,
                20.915088000000026
              ],
              [
                106.51018800000008,
                20.915338000000077
              ],
              [
                106.50998700000008,
                20.91578400000003
              ],
              [
                106.50970400000006,
                20.915616000000057
              ],
              [
                106.50942900000007,
                20.916026000000045
              ],
              [
                106.50962100000004,
                20.916206000000045
              ],
              [
                106.50945500000006,
                20.916496000000052
              ],
              [
                106.50914200000005,
                20.916382000000056
              ],
              [
                106.50901400000004,
                20.916607000000056
              ],
              [
                106.50873400000006,
                20.916432000000043
              ],
              [
                106.50863600000008,
                20.916620000000023
              ],
              [
                106.50854500000008,
                20.916599000000076
              ],
              [
                106.50787800000006,
                20.916481000000033
              ],
              [
                106.50795700000003,
                20.916287000000068
              ],
              [
                106.50767300000007,
                20.916166000000032
              ],
              [
                106.50733100000008,
                20.915970000000073
              ],
              [
                106.50717000000009,
                20.916371000000026
              ],
              [
                106.50707000000006,
                20.91635800000006
              ],
              [
                106.50701500000008,
                20.916359000000057
              ],
              [
                106.50692000000004,
                20.91638800000004
              ],
              [
                106.50682900000004,
                20.91641800000008
              ],
              [
                106.50676000000004,
                20.916476000000046
              ],
              [
                106.50667800000008,
                20.916576000000077
              ],
              [
                106.50662200000005,
                20.916670000000067
              ],
              [
                106.50655600000005,
                20.916799000000026
              ],
              [
                106.50641200000007,
                20.917054000000064
              ],
              [
                106.50629700000007,
                20.91717200000005
              ],
              [
                106.50621600000005,
                20.917223000000035
              ],
              [
                106.50609800000007,
                20.917269000000033
              ],
              [
                106.50596600000006,
                20.917284000000052
              ],
              [
                106.50586800000008,
                20.91726600000004
              ],
              [
                106.50574000000006,
                20.917223000000035
              ],
              [
                106.50549800000005,
                20.91710100000006
              ],
              [
                106.50517800000006,
                20.91697700000003
              ],
              [
                106.50499600000006,
                20.91692400000005
              ],
              [
                106.50483100000008,
                20.916881000000046
              ],
              [
                106.50463300000007,
                20.916832000000056
              ],
              [
                106.50457200000005,
                20.916807000000063
              ],
              [
                106.50446100000005,
                20.916733000000022
              ],
              [
                106.50433200000003,
                20.916644000000076
              ],
              [
                106.50421300000005,
                20.916533000000072
              ],
              [
                106.50412600000004,
                20.916430000000048
              ],
              [
                106.50408700000008,
                20.916348000000028
              ],
              [
                106.50405900000004,
                20.91618200000005
              ],
              [
                106.50406600000008,
                20.915864000000056
              ],
              [
                106.50364900000005,
                20.916097000000036
              ],
              [
                106.50348300000007,
                20.916224000000057
              ],
              [
                106.50340500000004,
                20.916292000000055
              ],
              [
                106.50323600000007,
                20.91643300000004
              ],
              [
                106.50314400000008,
                20.916322000000036
              ],
              [
                106.50304200000005,
                20.916357000000062
              ],
              [
                106.50301900000005,
                20.91611400000005
              ],
              [
                106.50260700000007,
                20.91618900000003
              ],
              [
                106.50248800000008,
                20.915520000000072
              ],
              [
                106.50221300000004,
                20.915517000000023
              ],
              [
                106.50221500000004,
                20.91546500000004
              ],
              [
                106.50222200000007,
                20.91525900000005
              ],
              [
                106.50222300000007,
                20.915223000000026
              ],
              [
                106.50220000000007,
                20.91510500000004
              ],
              [
                106.50197600000007,
                20.915238000000045
              ],
              [
                106.50187200000005,
                20.91526700000003
              ],
              [
                106.50186900000006,
                20.91526700000003
              ],
              [
                106.50170500000007,
                20.915264000000036
              ],
              [
                106.50156800000008,
                20.915196000000037
              ],
              [
                106.50138200000004,
                20.914976000000024
              ],
              [
                106.50121700000005,
                20.914482000000078
              ],
              [
                106.50117500000005,
                20.914120000000025
              ],
              [
                106.50120200000003,
                20.913737000000026
              ],
              [
                106.50127100000009,
                20.91334500000005
              ],
              [
                106.50128400000006,
                20.913162000000057
              ],
              [
                106.50125300000008,
                20.91304400000007
              ],
              [
                106.50119400000005,
                20.912905000000023
              ],
              [
                106.50102100000004,
                20.91275900000005
              ],
              [
                106.50085200000007,
                20.912671000000046
              ],
              [
                106.50050300000004,
                20.912535000000048
              ],
              [
                106.50010600000007,
                20.912445000000048
              ],
              [
                106.49969200000004,
                20.912312000000043
              ],
              [
                106.49948100000006,
                20.912207000000024
              ],
              [
                106.49934600000006,
                20.912068000000033
              ],
              [
                106.49926800000009,
                20.911861000000044
              ],
              [
                106.49925500000006,
                20.911692000000073
              ],
              [
                106.49929200000008,
                20.911563000000058
              ],
              [
                106.49939400000005,
                20.911447000000067
              ],
              [
                106.49945000000008,
                20.911336000000063
              ],
              [
                106.49944900000008,
                20.911246000000062
              ],
              [
                106.49941400000006,
                20.911167000000034
              ],
              [
                106.49911400000008,
                20.91082300000005
              ],
              [
                106.49852600000008,
                20.910146000000054
              ],
              [
                106.49828900000006,
                20.909718000000055
              ],
              [
                106.49816800000008,
                20.90945700000003
              ],
              [
                106.49814300000008,
                20.90924300000006
              ],
              [
                106.49819400000007,
                20.909013000000073
              ],
              [
                106.49828100000008,
                20.908858000000066
              ],
              [
                106.49846900000006,
                20.908648000000028
              ],
              [
                106.49870700000008,
                20.908427000000074
              ],
              [
                106.49908400000004,
                20.908259000000044
              ],
              [
                106.49939900000004,
                20.908127000000036
              ],
              [
                106.49968800000005,
                20.907992000000036
              ],
              [
                106.49990000000008,
                20.90784700000006
              ],
              [
                106.50000500000004,
                20.907717000000048
              ],
              [
                106.50005400000003,
                20.907587000000035
              ],
              [
                106.50005600000009,
                20.90741500000007
              ],
              [
                106.50000500000004,
                20.90725800000007
              ],
              [
                106.49983100000009,
                20.90705900000006
              ],
              [
                106.49967000000004,
                20.90699200000006
              ],
              [
                106.49942900000008,
                20.90695800000003
              ],
              [
                106.49923500000006,
                20.906967000000066
              ],
              [
                106.49896100000007,
                20.907081000000062
              ],
              [
                106.49849100000006,
                20.907361000000037
              ],
              [
                106.49788800000005,
                20.907721000000038
              ],
              [
                106.49729100000008,
                20.907974000000024
              ],
              [
                106.49695600000007,
                20.908063000000027
              ],
              [
                106.49663200000003,
                20.908087000000023
              ],
              [
                106.49634500000008,
                20.908007000000055
              ],
              [
                106.49600000000004,
                20.907831000000044
              ],
              [
                106.49576100000007,
                20.907582000000048
              ],
              [
                106.49564000000004,
                20.907318000000032
              ],
              [
                106.49561100000005,
                20.907020000000045
              ],
              [
                106.49562800000007,
                20.906859000000054
              ],
              [
                106.49568400000004,
                20.90672900000004
              ],
              [
                106.49582700000008,
                20.906574000000035
              ],
              [
                106.49628600000005,
                20.906237000000033
              ],
              [
                106.49674900000008,
                20.906007000000045
              ],
              [
                106.49707600000005,
                20.905875000000037
              ],
              [
                106.49728100000004,
                20.905747000000076
              ],
              [
                106.49742800000007,
                20.90556300000003
              ],
              [
                106.49745600000006,
                20.905391000000066
              ],
              [
                106.49744000000004,
                20.90527600000007
              ],
              [
                106.49731200000008,
                20.905084000000045
              ],
              [
                106.49707400000005,
                20.904889000000026
              ],
              [
                106.49662500000005,
                20.904627000000062
              ],
              [
                106.49631400000004,
                20.904498000000046
              ],
              [
                106.49599000000006,
                20.904475000000048
              ],
              [
                106.49578800000006,
                20.904516000000058
              ],
              [
                106.49563600000005,
                20.90458200000006
              ],
              [
                106.49545500000005,
                20.90477400000003
              ],
              [
                106.49528700000008,
                20.90512300000006
              ],
              [
                106.49515600000007,
                20.905429000000026
              ],
              [
                106.49507300000005,
                20.905853000000036
              ],
              [
                106.49498300000005,
                20.906434000000047
              ],
              [
                106.49492000000004,
                20.906611000000055
              ],
              [
                106.49485600000008,
                20.906694000000073
              ],
              [
                106.49475000000007,
                20.90677000000005
              ],
              [
                106.49462000000005,
                20.90680700000007
              ],
              [
                106.49447900000007,
                20.90679700000004
              ],
              [
                106.49436400000008,
                20.906759000000022
              ],
              [
                106.49418000000009,
                20.90661700000004
              ],
              [
                106.49407100000008,
                20.90639600000003
              ],
              [
                106.49402300000008,
                20.906192000000033
              ],
              [
                106.49403200000006,
                20.90592300000003
              ],
              [
                106.49410200000005,
                20.90555500000005
              ],
              [
                106.49448600000005,
                20.90440200000006
              ],
              [
                106.49452100000008,
                20.904115000000047
              ],
              [
                106.49445200000008,
                20.903707000000054
              ],
              [
                106.49418800000007,
                20.903208000000063
              ],
              [
                106.49359300000003,
                20.902130000000056
              ],
              [
                106.49330600000008,
                20.90158400000007
              ],
              [
                106.49301200000008,
                20.901253000000054
              ],
              [
                106.49248900000003,
                20.900810000000035
              ],
              [
                106.49214800000004,
                20.90059700000006
              ],
              [
                106.49162300000006,
                20.900401000000045
              ],
              [
                106.49116000000004,
                20.900262000000055
              ],
              [
                106.49087000000009,
                20.900221000000045
              ],
              [
                106.49059100000005,
                20.900253000000077
              ],
              [
                106.49024600000007,
                20.900360000000035
              ],
              [
                106.48992700000008,
                20.90054200000003
              ],
              [
                106.48958600000009,
                20.900846000000058
              ],
              [
                106.48919300000006,
                20.901215000000036
              ],
              [
                106.48886300000004,
                20.901444000000026
              ],
              [
                106.48860500000006,
                20.901557000000025
              ],
              [
                106.48830400000008,
                20.901631000000066
              ],
              [
                106.48792700000007,
                20.90167800000006
              ],
              [
                106.48750800000005,
                20.901692000000025
              ],
              [
                106.48706800000008,
                20.901635000000056
              ],
              [
                106.48669000000007,
                20.901541000000066
              ],
              [
                106.48641400000008,
                20.901411000000053
              ],
              [
                106.48627900000008,
                20.90126200000003
              ],
              [
                106.48623100000003,
                20.90111500000006
              ],
              [
                106.48624400000006,
                20.900825000000054
              ],
              [
                106.48632100000003,
                20.900569000000075
              ],
              [
                106.48650200000009,
                20.90032400000007
              ],
              [
                106.48667600000005,
                20.900161000000026
              ],
              [
                106.48697600000008,
                20.900004000000024
              ],
              [
                106.48743200000007,
                20.89981800000004
              ],
              [
                106.48772000000008,
                20.899668000000077
              ],
              [
                106.48796300000004,
                20.89949000000007
              ],
              [
                106.48807600000004,
                20.89934900000003
              ],
              [
                106.48813900000005,
                20.899223000000063
              ],
              [
                106.48815700000006,
                20.899083000000076
              ],
              [
                106.48812100000004,
                20.898915000000045
              ],
              [
                106.48802800000004,
                20.898769000000073
              ],
              [
                106.48781300000007,
                20.898595000000057
              ],
              [
                106.48745200000008,
                20.898419000000047
              ],
              [
                106.48729900000006,
                20.89832700000005
              ],
              [
                106.48711900000006,
                20.898236000000054
              ],
              [
                106.48674400000004,
                20.89817400000004
              ],
              [
                106.48623700000007,
                20.898128000000042
              ],
              [
                106.48619700000006,
                20.898130000000037
              ],
              [
                106.48607200000004,
                20.898136000000022
              ],
              [
                106.48569600000008,
                20.898276000000067
              ],
              [
                106.48465300000004,
                20.89898800000003
              ],
              [
                106.48460600000004,
                20.898990000000026
              ],
              [
                106.48419100000007,
                20.899781000000075
              ],
              [
                106.48413000000005,
                20.899898000000064
              ],
              [
                106.48410800000005,
                20.899951000000044
              ],
              [
                106.48374000000007,
                20.900863000000072
              ],
              [
                106.48354400000005,
                20.901421000000028
              ],
              [
                106.48336900000004,
                20.901849000000027
              ],
              [
                106.48291700000004,
                20.90295700000007
              ],
              [
                106.48271700000004,
                20.903124000000048
              ],
              [
                106.48261500000007,
                20.903173000000038
              ],
              [
                106.48255200000006,
                20.90318700000006
              ],
              [
                106.48246300000005,
                20.903182000000072
              ],
              [
                106.48118900000009,
                20.90276700000004
              ],
              [
                106.48047900000006,
                20.902536000000055
              ],
              [
                106.48123900000007,
                20.90098900000004
              ],
              [
                106.48250000000007,
                20.898636000000067
              ],
              [
                106.48251300000004,
                20.898611000000074
              ],
              [
                106.48304000000007,
                20.897854000000052
              ],
              [
                106.48443400000008,
                20.895358000000044
              ],
              [
                106.48511500000006,
                20.893470000000036
              ],
              [
                106.48513300000008,
                20.892709000000025
              ],
              [
                106.48516000000006,
                20.891617000000053
              ],
              [
                106.48495200000008,
                20.890773000000024
              ],
              [
                106.48486300000008,
                20.890415000000075
              ],
              [
                106.48483400000003,
                20.89029800000003
              ],
              [
                106.48469600000004,
                20.889739000000077
              ],
              [
                106.48370700000004,
                20.88762500000007
              ],
              [
                106.48360900000006,
                20.88741600000003
              ],
              [
                106.48255600000005,
                20.88516500000003
              ],
              [
                106.48237000000006,
                20.884937000000036
              ],
              [
                106.48139900000007,
                20.882851000000073
              ],
              [
                106.48127100000005,
                20.88257600000003
              ],
              [
                106.48077600000005,
                20.881602000000044
              ],
              [
                106.48039400000005,
                20.880967000000055
              ],
              [
                106.48009800000005,
                20.88048500000008
              ],
              [
                106.47948300000007,
                20.879526000000055
              ],
              [
                106.47879200000006,
                20.87863500000003
              ],
              [
                106.47872300000006,
                20.878551000000073
              ],
              [
                106.47856000000007,
                20.87835300000006
              ],
              [
                106.47835600000008,
                20.878104000000064
              ],
              [
                106.47681000000006,
                20.87624500000004
              ],
              [
                106.47681300000005,
                20.876234000000068
              ],
              [
                106.47688900000009,
                20.875992000000053
              ],
              [
                106.47694200000007,
                20.875824000000023
              ],
              [
                106.47699500000004,
                20.87571900000006
              ],
              [
                106.47707800000006,
                20.87555100000003
              ],
              [
                106.47718500000008,
                20.87533600000006
              ],
              [
                106.47731800000008,
                20.875061000000073
              ],
              [
                106.47741700000006,
                20.874857000000077
              ],
              [
                106.47743300000008,
                20.874824000000046
              ],
              [
                106.47755200000006,
                20.874577000000045
              ],
              [
                106.47782700000005,
                20.87401200000005
              ],
              [
                106.47875900000008,
                20.87227800000005
              ],
              [
                106.47923000000009,
                20.871267000000046
              ],
              [
                106.47946600000006,
                20.870761000000073
              ],
              [
                106.47977500000007,
                20.870075000000043
              ],
              [
                106.47983900000008,
                20.86990700000007
              ],
              [
                106.47989300000006,
                20.869710000000055
              ],
              [
                106.47990800000008,
                20.869670000000042
              ],
              [
                106.47994800000004,
                20.86956200000003
              ],
              [
                106.48009200000007,
                20.869274000000075
              ],
              [
                106.48023600000005,
                20.868914000000075
              ],
              [
                106.48028600000004,
                20.868823000000077
              ],
              [
                106.48039800000004,
                20.868783000000064
              ],
              [
                106.48073900000009,
                20.86878500000006
              ],
              [
                106.48082500000004,
                20.86877000000004
              ],
              [
                106.48089500000003,
                20.86869800000005
              ],
              [
                106.48096500000008,
                20.868525000000034
              ],
              [
                106.48097100000007,
                20.86850400000003
              ],
              [
                106.48103400000008,
                20.86828500000007
              ],
              [
                106.48110900000006,
                20.868161000000043
              ],
              [
                106.48118100000005,
                20.868122000000028
              ],
              [
                106.48119000000008,
                20.86811700000004
              ],
              [
                106.48134700000008,
                20.868092000000047
              ],
              [
                106.48155700000007,
                20.868058000000076
              ],
              [
                106.48156800000004,
                20.868056000000024
              ],
              [
                106.48211900000007,
                20.86843700000003
              ],
              [
                106.48269500000004,
                20.86884800000007
              ],
              [
                106.48304700000006,
                20.869308000000046
              ],
              [
                106.48328100000003,
                20.86946000000006
              ],
              [
                106.48343800000004,
                20.86949100000004
              ],
              [
                106.48359900000008,
                20.86939700000005
              ],
              [
                106.48367300000007,
                20.869240000000048
              ],
              [
                106.48368200000004,
                20.869222000000036
              ],
              [
                106.48371600000007,
                20.869053000000065
              ],
              [
                106.48373400000008,
                20.868914000000075
              ],
              [
                106.48376500000006,
                20.86856000000006
              ],
              [
                106.48378100000008,
                20.868471000000056
              ],
              [
                106.48380100000008,
                20.86840600000005
              ],
              [
                106.48384300000004,
                20.86832400000003
              ],
              [
                106.48391700000008,
                20.868231000000037
              ],
              [
                106.48399400000005,
                20.86815500000006
              ],
              [
                106.48416700000007,
                20.868002000000047
              ],
              [
                106.48424600000004,
                20.867921000000024
              ],
              [
                106.48431000000005,
                20.867834000000073
              ],
              [
                106.48436000000004,
                20.867741000000024
              ],
              [
                106.48441100000008,
                20.867609000000073
              ],
              [
                106.48451700000004,
                20.86728000000005
              ],
              [
                106.48462400000005,
                20.86700600000006
              ],
              [
                106.48466900000005,
                20.86687100000006
              ],
              [
                106.48507700000005,
                20.86625200000003
              ],
              [
                106.48573800000008,
                20.865425000000073
              ],
              [
                106.48724100000004,
                20.866025000000036
              ],
              [
                106.48724600000008,
                20.86602700000003
              ],
              [
                106.48738100000008,
                20.86607300000003
              ],
              [
                106.48821200000003,
                20.86636100000004
              ],
              [
                106.49086900000003,
                20.867375000000038
              ],
              [
                106.49103900000006,
                20.867447000000027
              ],
              [
                106.49220600000007,
                20.867608000000075
              ],
              [
                106.49342200000007,
                20.86741500000005
              ],
              [
                106.49375700000007,
                20.86726500000003
              ],
              [
                106.49402300000008,
                20.867053000000055
              ],
              [
                106.49444500000004,
                20.866716000000054
              ],
              [
                106.49475000000007,
                20.866234000000077
              ],
              [
                106.49526500000007,
                20.865098000000046
              ],
              [
                106.49602500000009,
                20.863837000000046
              ],
              [
                106.49687300000005,
                20.862433000000067
              ],
              [
                106.49760200000009,
                20.86124200000006
              ],
              [
                106.49825100000004,
                20.859930000000077
              ],
              [
                106.49849400000005,
                20.859267000000045
              ],
              [
                106.49867600000005,
                20.858512000000076
              ],
              [
                106.49875100000008,
                20.85782000000006
              ],
              [
                106.49880300000007,
                20.85640600000005
              ],
              [
                106.49875900000006,
                20.856283000000076
              ],
              [
                106.49871600000006,
                20.85609500000004
              ],
              [
                106.49862500000006,
                20.854993000000036
              ],
              [
                106.49862200000007,
                20.85451000000006
              ],
              [
                106.49865400000004,
                20.853886000000045
              ],
              [
                106.49877300000009,
                20.853527000000042
              ],
              [
                106.49893800000007,
                20.853274000000056
              ],
              [
                106.49927800000006,
                20.852977000000067
              ],
              [
                106.49935900000008,
                20.85294700000003
              ],
              [
                106.49963600000007,
                20.85284500000006
              ],
              [
                106.49997000000008,
                20.852771000000075
              ],
              [
                106.50027600000004,
                20.852768000000026
              ],
              [
                106.50067300000006,
                20.852858000000026
              ],
              [
                106.50114100000008,
                20.853069000000062
              ],
              [
                106.50186800000006,
                20.853597000000036
              ],
              [
                106.50187200000005,
                20.85360000000003
              ],
              [
                106.50211200000007,
                20.85385800000006
              ],
              [
                106.50245300000006,
                20.85422200000005
              ],
              [
                106.50270100000006,
                20.854636000000028
              ],
              [
                106.50301200000007,
                20.855645000000038
              ],
              [
                106.50316000000004,
                20.85613200000006
              ],
              [
                106.50329900000008,
                20.856769000000043
              ],
              [
                106.50332600000007,
                20.857700000000023
              ],
              [
                106.50333700000004,
                20.85790600000007
              ],
              [
                106.50350700000007,
                20.858804000000077
              ],
              [
                106.50368000000009,
                20.859750000000076
              ],
              [
                106.50391100000007,
                20.86051800000007
              ],
              [
                106.50424100000004,
                20.861331000000064
              ],
              [
                106.50441300000006,
                20.861634000000038
              ],
              [
                106.50469500000008,
                20.861955000000023
              ],
              [
                106.50522000000007,
                20.862445000000037
              ],
              [
                106.50533700000005,
                20.862528000000054
              ],
              [
                106.50607700000006,
                20.863158000000055
              ],
              [
                106.50698200000005,
                20.863668000000075
              ],
              [
                106.50763100000006,
                20.863841000000036
              ],
              [
                106.50869000000006,
                20.863906000000043
              ],
              [
                106.50981100000007,
                20.863901000000055
              ],
              [
                106.51061700000008,
                20.863874000000067
              ],
              [
                106.51168800000005,
                20.863642000000027
              ],
              [
                106.51267900000005,
                20.863218000000074
              ],
              [
                106.51319100000006,
                20.86297600000006
              ],
              [
                106.51399000000004,
                20.86259000000007
              ],
              [
                106.51488700000004,
                20.862324000000058
              ],
              [
                106.51573000000008,
                20.862107000000037
              ],
              [
                106.51639400000005,
                20.862032000000056
              ],
              [
                106.51696400000009,
                20.86199300000004
              ],
              [
                106.51763600000004,
                20.86200800000006
              ],
              [
                106.51818600000007,
                20.86203100000006
              ],
              [
                106.51916500000004,
                20.862152000000037
              ],
              [
                106.51922400000007,
                20.86216500000006
              ],
              [
                106.52009800000008,
                20.862662000000057
              ],
              [
                106.52149200000008,
                20.863080000000025
              ],
              [
                106.52247300000005,
                20.863234000000034
              ],
              [
                106.52308900000008,
                20.863244000000066
              ],
              [
                106.52365600000007,
                20.863135000000057
              ],
              [
                106.52423700000008,
                20.862788000000023
              ],
              [
                106.52487900000006,
                20.86221800000004
              ],
              [
                106.52514400000007,
                20.861649000000057
              ],
              [
                106.52514500000007,
                20.861618000000078
              ],
              [
                106.52512100000007,
                20.861406000000045
              ],
              [
                106.52496500000007,
                20.860735000000034
              ],
              [
                106.52472100000006,
                20.86001600000003
              ],
              [
                106.52437900000007,
                20.85874000000007
              ],
              [
                106.52421200000003,
                20.858196000000078
              ],
              [
                106.52383200000008,
                20.85671300000007
              ],
              [
                106.52379500000006,
                20.85660800000005
              ],
              [
                106.52356100000009,
                20.855597000000046
              ],
              [
                106.52321800000004,
                20.854370000000074
              ],
              [
                106.52315800000008,
                20.853931000000046
              ],
              [
                106.52328800000004,
                20.85312700000003
              ],
              [
                106.52387200000004,
                20.852319000000023
              ],
              [
                106.52477400000004,
                20.85163700000004
              ],
              [
                106.52565300000003,
                20.85134400000004
              ],
              [
                106.52758400000005,
                20.85136600000004
              ],
              [
                106.52967400000006,
                20.85255200000006
              ],
              [
                106.53072900000006,
                20.85335800000007
              ],
              [
                106.53131100000007,
                20.85374100000007
              ],
              [
                106.53240000000005,
                20.855195000000037
              ],
              [
                106.53315600000008,
                20.856405000000052
              ],
              [
                106.53351700000007,
                20.857250000000022
              ],
              [
                106.53390100000007,
                20.858232000000044
              ],
              [
                106.53419500000007,
                20.85916000000003
              ],
              [
                106.53437900000006,
                20.860022000000072
              ],
              [
                106.53448900000006,
                20.860735000000034
              ],
              [
                106.53447300000005,
                20.861687000000074
              ],
              [
                106.53450500000008,
                20.86268400000006
              ],
              [
                106.53449300000005,
                20.863241000000073
              ],
              [
                106.53450500000008,
                20.864063000000044
              ],
              [
                106.53456200000005,
                20.86464600000005
              ],
              [
                106.53473500000007,
                20.865243000000078
              ],
              [
                106.53498400000007,
                20.865763000000072
              ],
              [
                106.53550100000007,
                20.86644700000005
              ],
              [
                106.53587600000009,
                20.866819000000078
              ],
              [
                106.53645100000006,
                20.867161000000067
              ],
              [
                106.53741000000008,
                20.86764800000003
              ],
              [
                106.53854900000005,
                20.868020000000058
              ],
              [
                106.54082200000005,
                20.868642000000023
              ],
              [
                106.54210600000005,
                20.868899000000056
              ],
              [
                106.54312400000003,
                20.869030000000066
              ],
              [
                106.54416300000008,
                20.86908500000004
              ],
              [
                106.54518300000007,
                20.86899600000004
              ],
              [
                106.54630000000009,
                20.868779000000075
              ],
              [
                106.54675600000007,
                20.868628000000058
              ],
              [
                106.54726900000009,
                20.86887900000005
              ],
              [
                106.54749700000008,
                20.868967000000055
              ],
              [
                106.54786100000007,
                20.86911800000007
              ],
              [
                106.54798700000003,
                20.869199000000037
              ],
              [
                106.54811000000007,
                20.86930700000005
              ],
              [
                106.54859100000004,
                20.869928000000073
              ],
              [
                106.54872500000005,
                20.870081000000027
              ],
              [
                106.54883500000005,
                20.87010900000007
              ],
              [
                106.54921900000005,
                20.87014800000003
              ],
              [
                106.54938800000008,
                20.870168000000035
              ],
              [
                106.54946700000005,
                20.870201000000066
              ],
              [
                106.54954100000003,
                20.870241000000078
              ],
              [
                106.54962400000005,
                20.870319000000052
              ],
              [
                106.54991900000005,
                20.87068400000004
              ],
              [
                106.55000200000006,
                20.870873000000074
              ],
              [
                106.55008800000007,
                20.871141000000023
              ],
              [
                106.55018300000006,
                20.87144900000004
              ],
              [
                106.55030500000004,
                20.871856000000037
              ],
              [
                106.55035800000007,
                20.872132000000022
              ],
              [
                106.55037300000004,
                20.87245800000005
              ],
              [
                106.55037900000008,
                20.87268700000004
              ],
              [
                106.55038400000007,
                20.872816000000057
              ],
              [
                106.55039200000004,
                20.872881000000064
              ],
              [
                106.55041200000005,
                20.87293100000005
              ],
              [
                106.55044600000008,
                20.872966000000076
              ],
              [
                106.55050400000005,
                20.87299500000006
              ],
              [
                106.55066500000004,
                20.873033000000078
              ],
              [
                106.55098100000004,
                20.873051000000032
              ],
              [
                106.55132500000008,
                20.87308100000007
              ],
              [
                106.55156600000004,
                20.873154000000056
              ],
              [
                106.55173200000007,
                20.873225000000048
              ],
              [
                106.55191600000006,
                20.873304000000076
              ],
              [
                106.55201600000004,
                20.873368000000028
              ],
              [
                106.55206900000007,
                20.87341900000007
              ],
              [
                106.55211700000007,
                20.873471000000052
              ],
              [
                106.55214600000005,
                20.87352100000004
              ],
              [
                106.55219000000005,
                20.873619000000076
              ],
              [
                106.55231800000007,
                20.87372400000004
              ],
              [
                106.55271600000003,
                20.87372700000003
              ],
              [
                106.55272500000007,
                20.874015000000043
              ],
              [
                106.55275500000005,
                20.87441400000006
              ],
              [
                106.55280900000008,
                20.874806000000035
              ],
              [
                106.55283800000007,
                20.87501400000008
              ],
              [
                106.55288100000007,
                20.875325000000032
              ],
              [
                106.55293500000005,
                20.87571500000007
              ],
              [
                106.55306600000006,
                20.876641000000063
              ],
              [
                106.55307400000004,
                20.876700000000028
              ],
              [
                106.55219100000005,
                20.876855000000035
              ],
              [
                106.55110400000007,
                20.877411000000052
              ],
              [
                106.55030100000005,
                20.877984000000026
              ],
              [
                106.54940800000008,
                20.878580000000056
              ],
              [
                106.54886300000004,
                20.87883000000005
              ],
              [
                106.54829000000007,
                20.87895700000007
              ],
              [
                106.54785400000009,
                20.878953000000024
              ],
              [
                106.54737800000004,
                20.878880000000038
              ],
              [
                106.54683700000004,
                20.87871300000006
              ],
              [
                106.54608300000007,
                20.878490000000056
              ],
              [
                106.54537700000009,
                20.878368000000023
              ],
              [
                106.54500700000006,
                20.87835700000005
              ],
              [
                106.54470200000009,
                20.87845500000003
              ],
              [
                106.54439600000006,
                20.87864600000006
              ],
              [
                106.54418400000009,
                20.878899000000047
              ],
              [
                106.54415400000005,
                20.87901800000003
              ],
              [
                106.54416200000009,
                20.879188000000056
              ],
              [
                106.54423700000007,
                20.879402000000027
              ],
              [
                106.54442200000005,
                20.879699000000073
              ],
              [
                106.54467500000004,
                20.879939000000036
              ],
              [
                106.54494500000004,
                20.880188000000032
              ],
              [
                106.54546200000004,
                20.880688000000077
              ],
              [
                106.54552100000006,
                20.880741000000057
              ],
              [
                106.54586500000005,
                20.88113100000004
              ],
              [
                106.54600900000008,
                20.88122500000003
              ],
              [
                106.54622300000005,
                20.88126600000004
              ],
              [
                106.54652300000004,
                20.881278000000066
              ],
              [
                106.54692900000003,
                20.881226000000026
              ],
              [
                106.54711800000007,
                20.881249000000025
              ],
              [
                106.54727700000007,
                20.881376000000046
              ],
              [
                106.54736800000006,
                20.881623000000047
              ],
              [
                106.54738300000008,
                20.881872000000044
              ],
              [
                106.54735400000004,
                20.882011000000034
              ],
              [
                106.54717700000003,
                20.88211300000006
              ],
              [
                106.54708200000005,
                20.882210000000043
              ],
              [
                106.54703200000006,
                20.88230600000003
              ],
              [
                106.54701800000004,
                20.88239200000004
              ],
              [
                106.54701800000004,
                20.88247300000006
              ],
              [
                106.54706200000004,
                20.88264900000007
              ],
              [
                106.54771600000004,
                20.88308500000005
              ],
              [
                106.54794600000008,
                20.88331500000004
              ],
              [
                106.54807500000004,
                20.883482000000072
              ],
              [
                106.54823600000009,
                20.883722000000034
              ],
              [
                106.54829200000006,
                20.88393700000006
              ],
              [
                106.54831300000006,
                20.884086000000025
              ],
              [
                106.54828900000007,
                20.884259000000043
              ],
              [
                106.54820800000005,
                20.88439500000004
              ],
              [
                106.54792500000008,
                20.88474700000006
              ],
              [
                106.54790500000007,
                20.884775000000047
              ],
              [
                106.54768100000007,
                20.88503600000007
              ],
              [
                106.54742400000003,
                20.88526600000006
              ],
              [
                106.54715900000008,
                20.885410000000036
              ],
              [
                106.54687000000007,
                20.885524000000032
              ],
              [
                106.54656600000004,
                20.885583000000054
              ],
              [
                106.54597300000006,
                20.885663000000022
              ],
              [
                106.54528100000005,
                20.885781000000065
              ],
              [
                106.54473000000007,
                20.885807000000057
              ],
              [
                106.54402300000004,
                20.885793000000035
              ],
              [
                106.54367800000006,
                20.885729000000026
              ],
              [
                106.54325200000005,
                20.885555000000068
              ],
              [
                106.54262300000005,
                20.885132000000056
              ],
              [
                106.54221500000006,
                20.884874000000025
              ],
              [
                106.54196100000007,
                20.884794000000056
              ],
              [
                106.54171400000007,
                20.88482300000004
              ],
              [
                106.54151600000006,
                20.884906000000058
              ],
              [
                106.54124100000007,
                20.885092000000043
              ],
              [
                106.54104400000006,
                20.885264000000063
              ],
              [
                106.54068000000007,
                20.885710000000074
              ],
              [
                106.54034400000006,
                20.886202000000026
              ],
              [
                106.54006300000009,
                20.88651100000004
              ],
              [
                106.53958100000006,
                20.887009000000035
              ],
              [
                106.53937100000007,
                20.887360000000058
              ],
              [
                106.53931300000005,
                20.887623000000076
              ],
              [
                106.53934100000004,
                20.887915000000078
              ],
              [
                106.53947600000004,
                20.888210000000072
              ],
              [
                106.53968600000007,
                20.888370000000066
              ],
              [
                106.54000900000005,
                20.888535000000047
              ],
              [
                106.54036600000006,
                20.888713000000052
              ],
              [
                106.54054100000008,
                20.88891700000005
              ],
              [
                106.54064000000005,
                20.889079000000038
              ],
              [
                106.54067700000007,
                20.88924600000007
              ],
              [
                106.54066300000005,
                20.88940400000007
              ],
              [
                106.54062000000005,
                20.88961900000004
              ],
              [
                106.54045300000007,
                20.890252000000032
              ],
              [
                106.54043100000007,
                20.890596000000073
              ],
              [
                106.54051500000008,
                20.890820000000076
              ],
              [
                106.54063800000006,
                20.890948000000037
              ],
              [
                106.54079700000005,
                20.891013000000044
              ],
              [
                106.54086800000005,
                20.89104100000003
              ],
              [
                106.54107600000003,
                20.891083000000037
              ],
              [
                106.54144600000006,
                20.891095000000064
              ],
              [
                106.54186500000009,
                20.891099000000054
              ],
              [
                106.54231300000004,
                20.891157000000078
              ],
              [
                106.54259500000006,
                20.891224000000022
              ],
              [
                106.54298300000005,
                20.89137400000004
              ],
              [
                106.54322500000006,
                20.891550000000052
              ],
              [
                106.54344700000007,
                20.89173500000004
              ],
              [
                106.54364000000004,
                20.892002000000048
              ],
              [
                106.54381100000006,
                20.892370000000028
              ],
              [
                106.54388200000005,
                20.89260900000005
              ],
              [
                106.54386900000009,
                20.892948000000047
              ],
              [
                106.54377900000009,
                20.893204000000026
              ],
              [
                106.54362100000009,
                20.893432000000075
              ],
              [
                106.54341400000004,
                20.89362200000005
              ],
              [
                106.54311100000007,
                20.89372000000003
              ],
              [
                106.54276100000004,
                20.89370800000006
              ],
              [
                106.54238100000003,
                20.893705000000068
              ],
              [
                106.54181600000004,
                20.89368200000007
              ],
              [
                106.54126000000008,
                20.89368600000006
              ],
              [
                106.54083100000008,
                20.893747000000076
              ],
              [
                106.54054700000006,
                20.893863000000067
              ],
              [
                106.54033100000004,
                20.89403600000003
              ],
              [
                106.54013400000008,
                20.894318000000055
              ],
              [
                106.54009200000007,
                20.894556000000023
              ],
              [
                106.54011800000006,
                20.894877000000065
              ],
              [
                106.54022300000008,
                20.895143000000076
              ],
              [
                106.54039000000006,
                20.895484000000067
              ],
              [
                106.54059200000006,
                20.89577900000006
              ],
              [
                106.54081400000007,
                20.89604600000007
              ],
              [
                106.54111200000006,
                20.89638800000006
              ],
              [
                106.54134300000004,
                20.896765000000073
              ],
              [
                106.54144600000006,
                20.897124000000076
              ],
              [
                106.54143400000004,
                20.897371000000078
              ],
              [
                106.54138400000005,
                20.897545000000036
              ],
              [
                106.54125500000004,
                20.897718000000054
              ],
              [
                106.54100100000005,
                20.897853000000055
              ],
              [
                106.54064000000005,
                20.89787700000005
              ],
              [
                106.54001700000003,
                20.897808000000055
              ],
              [
                106.53910200000007,
                20.897663000000023
              ],
              [
                106.53866300000004,
                20.89770500000003
              ],
              [
                106.53837000000004,
                20.897830000000056
              ],
              [
                106.53810400000003,
                20.898085000000037
              ],
              [
                106.53797000000009,
                20.898368000000062
              ],
              [
                106.53797800000007,
                20.898569000000066
              ],
              [
                106.53803500000004,
                20.898753000000056
              ],
              [
                106.53815000000009,
                20.89892800000007
              ],
              [
                106.53831400000007,
                20.899076000000036
              ],
              [
                106.53863400000006,
                20.899207000000047
              ],
              [
                106.53912900000006,
                20.89939400000003
              ],
              [
                106.53974100000005,
                20.89959200000004
              ],
              [
                106.54010100000005,
                20.89974200000006
              ],
              [
                106.54026500000003,
                20.89988100000005
              ],
              [
                106.54030200000005,
                20.900027000000023
              ],
              [
                106.54027200000007,
                20.90013700000003
              ],
              [
                106.54016300000006,
                20.900319000000025
              ],
              [
                106.53992800000009,
                20.900482000000068
              ],
              [
                106.53957500000007,
                20.900653000000034
              ],
              [
                106.53903800000006,
                20.90082300000006
              ],
              [
                106.53834400000005,
                20.900973000000022
              ],
              [
                106.53775900000005,
                20.901023000000066
              ],
              [
                106.53685300000006,
                20.901006000000052
              ],
              [
                106.53649300000006,
                20.90100300000006
              ],
              [
                106.53616100000005,
                20.901064000000076
              ],
              [
                106.53591600000004,
                20.901181000000065
              ],
              [
                106.53568500000006,
                20.901362000000063
              ],
              [
                106.53519300000005,
                20.901880000000062
              ],
              [
                106.53476100000006,
                20.902188000000024
              ],
              [
                106.53439900000006,
                20.902359000000047
              ],
              [
                106.53393900000003,
                20.90253800000005
              ],
              [
                106.53370400000006,
                20.902701000000036
              ],
              [
                106.53358500000007,
                20.90288400000003
              ],
              [
                106.53354300000007,
                20.903140000000064
              ],
              [
                106.53361700000005,
                20.903580000000034
              ],
              [
                106.53377900000004,
                20.903966000000025
              ],
              [
                106.53397000000007,
                20.90432500000003
              ],
              [
                106.53407500000009,
                20.904629000000057
              ],
              [
                106.53408300000007,
                20.904757000000075
              ],
              [
                106.53404200000006,
                20.904940000000067
              ],
              [
                106.53392300000007,
                20.90514900000005
              ],
              [
                106.53373600000003,
                20.905377000000044
              ],
              [
                106.53359800000004,
                20.905458000000067
              ],
              [
                106.53352000000007,
                20.905503000000067
              ],
              [
                106.53326700000008,
                20.905556000000047
              ],
              [
                106.53303300000005,
                20.905545000000075
              ],
              [
                106.53275100000008,
                20.90544200000005
              ],
              [
                106.53250900000006,
                20.90526600000004
              ],
              [
                106.53220000000005,
                20.90500600000007
              ],
              [
                106.53195800000009,
                20.904803000000072
              ],
              [
                106.53171600000007,
                20.90465400000005
              ],
              [
                106.53137600000008,
                20.90456000000006
              ],
              [
                106.53102500000006,
                20.904566000000045
              ],
              [
                106.53087800000009,
                20.904629000000057
              ],
              [
                106.53080900000003,
                20.904738000000066
              ],
              [
                106.53080700000004,
                20.904903000000047
              ],
              [
                106.53087400000004,
                20.905114000000026
              ],
              [
                106.53105700000003,
                20.905345000000068
              ],
              [
                106.53130600000009,
                20.905732000000057
              ],
              [
                106.53151700000006,
                20.906127000000026
              ],
              [
                106.53155400000009,
                20.90633900000006
              ],
              [
                106.53152300000005,
                20.906503000000043
              ],
              [
                106.53137500000008,
                20.90665800000005
              ],
              [
                106.53117900000007,
                20.90676600000006
              ],
              [
                106.53094500000009,
                20.906791000000055
              ],
              [
                106.53060400000004,
                20.90677900000003
              ],
              [
                106.53005800000005,
                20.90675600000003
              ],
              [
                106.52955200000008,
                20.90677000000005
              ],
              [
                106.52896600000008,
                20.906829000000073
              ],
              [
                106.52842900000007,
                20.906962000000078
              ],
              [
                106.52779400000009,
                20.907158000000038
              ],
              [
                106.52746600000006,
                20.90731100000005
              ],
              [
                106.52723000000009,
                20.907492000000047
              ],
              [
                106.52709100000004,
                20.907729000000074
              ],
              [
                106.52705000000009,
                20.907967000000042
              ],
              [
                106.52706800000004,
                20.908160000000066
              ],
              [
                106.52716400000008,
                20.90831600000007
              ],
              [
                106.52743400000008,
                20.908520000000067
              ],
              [
                106.52777400000008,
                20.908642000000043
              ],
              [
                106.52807500000006,
                20.908828000000028
              ],
              [
                106.52829700000007,
                20.90905900000007
              ],
              [
                106.52838200000008,
                20.909280000000024
              ],
              [
                106.52838300000008,
                20.909655000000043
              ],
              [
                106.52832200000006,
                20.90999400000004
              ],
              [
                106.52817200000004,
                20.91035000000005
              ],
              [
                106.52805100000006,
                20.91071500000004
              ],
              [
                106.52802800000006,
                20.911091000000056
              ],
              [
                106.52807800000005,
                20.91197100000005
              ],
              [
                106.52809400000007,
                20.912365000000023
              ],
              [
                106.52809100000007,
                20.91262100000006
              ],
              [
                106.52803500000005,
                20.91286800000006
              ],
              [
                106.52793400000007,
                20.913298000000054
              ],
              [
                106.52783300000004,
                20.91360000000003
              ]
            ]
          ]
        ]
      }
    }
  ]
}