{
  "type": "FeatureCollection",
  "name": "gis.vn",
  "features": [
    {
      "type": "Feature",
      "properties": {
        "ma_xa": "11383",
        "ten_xa": "Lê Chân",
        "sap_nhap": "Hàng Kênh, Dư Hàng Kênh, Kênh Dương, An Biên (1 phần), Trần Nguyên Hãn (1 phần), Vĩnh Niệm (1 phần), Cầu Đất (1 phần), Lạch Tray (1 phần)",
        "tru_so": [20.83558448, 106.6836802],
        "loai": "Phường",
        "cap": 2,
        "stt": 12,
        "dtich_km2": 5.65,
        "dan_so": 161051,
        "matdo_km2": 28504.6,
        "ma_tinh": "31",
        "ten_tinh": "Hải Phòng",
        "mau_sac": "#FF9900"
      },
      "geometry": {
        "type": "MultiPolygon",
        "coordinates": [
          [
            [
              [106.68228000000005, 20.85525700000005],
              [106.68222900000006, 20.85530200000005],
              [106.68196100000006, 20.855538000000024],
              [106.68168800000007, 20.85591500000004],
              [106.68162000000007, 20.85600900000003],
              [106.68156800000008, 20.855741000000023],
              [106.68152200000009, 20.855499000000066],
              [106.68130200000007, 20.855354000000034],
              [106.68127600000008, 20.855337000000077],
              [106.68113200000005, 20.85526100000004],
              [106.68087000000008, 20.85512300000005],
              [106.68091500000008, 20.85479200000003],
              [106.68177400000008, 20.85489800000005],
              [106.68184700000006, 20.854930000000024],
              [106.68173400000006, 20.854679000000033],
              [106.68169300000005, 20.854480000000024],
              [106.68220300000007, 20.854306000000065],
              [106.68213200000008, 20.853830000000073],
              [106.68359300000009, 20.853797000000043],
              [106.68360800000005, 20.853797000000043],
              [106.68351200000006, 20.853781000000026],
              [106.68342800000005, 20.85376800000006],
              [106.68298000000004, 20.853679000000056],
              [106.68231800000007, 20.85354700000005],
              [106.68140500000004, 20.85336600000005],
              [106.68023600000004, 20.853148000000033],
              [106.67804900000004, 20.85274000000004],
              [106.67664800000006, 20.852479000000073],
              [106.67666700000007, 20.852399000000048],
              [106.67679100000004, 20.851871000000074],
              [106.67681600000009, 20.851763000000062],
              [106.67577300000005, 20.851650000000063],
              [106.67527400000006, 20.85159600000003],
              [106.67504400000007, 20.851571000000035],
              [106.67386500000003, 20.851444000000072],
              [106.67317500000007, 20.85137100000003],
              [106.67259200000007, 20.85130900000007],
              [106.67085000000009, 20.851125000000025],
              [106.67097600000005, 20.85055200000005],
              [106.67105900000007, 20.850174000000038],
              [106.67122700000004, 20.849398000000065],
              [106.67190200000005, 20.84953900000005],
              [106.67227700000007, 20.847868000000062],
              [106.67240400000009, 20.847311000000047],
              [106.67253100000005, 20.846701000000053],
              [106.67254200000008, 20.846605000000068],
              [106.67309000000006, 20.84666500000003],
              [106.67408800000004, 20.84673900000007],
              [106.67471800000004, 20.846817000000044],
              [106.67510000000004, 20.846849000000077],
              [106.67536500000006, 20.84686700000003],
              [106.67539300000004, 20.846689000000026],
              [106.67540100000008, 20.846637000000044],
              [106.67556800000006, 20.84618100000006],
              [106.67581500000006, 20.845587000000023],
              [106.67605700000007, 20.845011000000056],
              [106.67612000000008, 20.844810000000052],
              [106.67614600000007, 20.844726000000037],
              [106.67614900000007, 20.844655000000046],
              [106.67616300000009, 20.844336000000055],
              [106.67605700000007, 20.843942000000027],
              [106.67572300000006, 20.843557000000033],
              [106.67525800000004, 20.84307300000006],
              [106.67540400000007, 20.84292300000004],
              [106.67574500000006, 20.842542000000037],
              [106.67583000000008, 20.842370000000074],
              [106.67582700000008, 20.842164000000025],
              [106.67581700000005, 20.84201100000007],
              [106.67571900000007, 20.84111800000005],
              [106.67549900000006, 20.84022200000004],
              [106.67547400000007, 20.840122000000065],
              [106.67532000000006, 20.839545000000044],
              [106.67531500000007, 20.83932100000004],
              [106.67452400000008, 20.839194000000077],
              [106.67467600000003, 20.83890800000006],
              [106.67510700000008, 20.838258000000053],
              [106.67515200000008, 20.838201000000026],
              [106.67536400000006, 20.837886000000026],
              [106.67547700000006, 20.837765000000047],
              [106.67563000000007, 20.837758000000065],
              [106.67581400000006, 20.837774000000024],
              [106.67596100000009, 20.83777800000007],
              [106.67603000000008, 20.837718000000052],
              [106.67588800000004, 20.83765200000005],
              [106.67576800000006, 20.837616000000025],
              [106.67576200000008, 20.837613000000033],
              [106.67575300000004, 20.837605000000053],
              [106.67574100000007, 20.837587000000042],
              [106.67572600000005, 20.837558000000058],
              [106.67571800000007, 20.837526000000025],
              [106.67571700000008, 20.83750200000003],
              [106.67572400000006, 20.837474000000043],
              [106.67573600000009, 20.837436000000025],
              [106.67574400000007, 20.837410000000034],
              [106.67574800000006, 20.837398000000064],
              [106.67575300000004, 20.837384000000043],
              [106.67577400000005, 20.83733200000006],
              [106.67582500000009, 20.837208000000032],
              [106.67586300000005, 20.837117000000035],
              [106.67589600000008, 20.837038000000064],
              [106.67597100000006, 20.83685600000007],
              [106.67605400000008, 20.836658000000057],
              [106.67616600000008, 20.836397000000034],
              [106.67630200000008, 20.836077000000046],
              [106.67642300000006, 20.835794000000078],
              [106.67653800000005, 20.83552700000007],
              [106.67667400000005, 20.835209000000077],
              [106.67681100000004, 20.834889000000032],
              [106.67689700000005, 20.834691000000078],
              [106.67693900000006, 20.834595000000036],
              [106.67696700000005, 20.834527000000037],
              [106.67699200000004, 20.834463000000028],
              [106.67701600000004, 20.834400000000073],
              [106.67705200000006, 20.834281000000033],
              [106.67706600000008, 20.834223000000065],
              [106.67716500000006, 20.834231000000045],
              [106.67793100000006, 20.83428900000007],
              [106.67855800000007, 20.834337000000062],
              [106.67885800000005, 20.834361000000058],
              [106.67994200000004, 20.834444000000076],
              [106.68222200000008, 20.834566000000052],
              [106.68238500000007, 20.834578000000022],
              [106.68297000000007, 20.834621000000027],
              [106.68304800000004, 20.83462600000007],
              [106.68314100000003, 20.83463100000006],
              [106.68318900000008, 20.83463400000005],
              [106.68335000000008, 20.83363600000007],
              [106.68342500000006, 20.83305400000006],
              [106.68354800000009, 20.83231100000006],
              [106.68375200000008, 20.831404000000077],
              [106.68390600000004, 20.830904000000032],
              [106.68415400000004, 20.830290000000048],
              [106.68431200000003, 20.829935000000035],
              [106.68475200000006, 20.82920400000006],
              [106.68507400000004, 20.828708000000063],
              [106.68514800000008, 20.828584000000035],
              [106.68525200000005, 20.828454000000022],
              [106.68623700000006, 20.827604000000065],
              [106.68682900000005, 20.827102000000025],
              [106.68766900000008, 20.826387000000068],
              [106.68858400000005, 20.82561000000004],
              [106.68872000000005, 20.82547500000004],
              [106.68902200000008, 20.82519300000007],
              [106.68929300000008, 20.824997000000053],
              [106.68985700000007, 20.825172000000066],
              [106.69059800000008, 20.825747000000035],
              [106.69263100000006, 20.82719700000007],
              [106.69367700000004, 20.827932000000033],
              [106.69473600000003, 20.82851000000005],
              [106.69514200000003, 20.828662000000065],
              [106.69496400000008, 20.828838000000076],
              [106.69475300000005, 20.829048000000057],
              [106.69472500000006, 20.829090000000065],
              [106.69471500000009, 20.829125000000033],
              [106.69471500000009, 20.82916400000005],
              [106.69479700000005, 20.829627000000073],
              [106.69481000000007, 20.829679000000056],
              [106.69485300000008, 20.830021000000045],
              [106.69489200000004, 20.830122000000074],
              [106.69474800000006, 20.830147000000068],
              [106.69466400000005, 20.830183000000034],
              [106.69422500000007, 20.831120000000055],
              [106.69460600000008, 20.831502000000057],
              [106.69481800000005, 20.831733000000042],
              [106.69506900000005, 20.83193300000005],
              [106.69517000000008, 20.832494000000054],
              [106.69523100000004, 20.83279200000004],
              [106.69545900000008, 20.833340000000078],
              [106.69565500000004, 20.83381600000007],
              [106.69579200000004, 20.83412500000003],
              [106.69629600000007, 20.835173000000054],
              [106.69637600000004, 20.835219000000052],
              [106.69650100000007, 20.835290000000043],
              [106.69611500000008, 20.83612800000003],
              [106.69597500000003, 20.836433000000056],
              [106.69510000000008, 20.838332000000037],
              [106.69450400000005, 20.839649000000065],
              [106.69417500000009, 20.840342000000078],
              [106.69407800000005, 20.840546000000074],
              [106.69404800000007, 20.840614000000073],
              [106.69402900000006, 20.84065400000003],
              [106.69397800000007, 20.84076200000004],
              [106.69368100000008, 20.841395000000034],
              [106.69348800000006, 20.841805000000022],
              [106.69315800000004, 20.84250700000007],
              [106.69301100000007, 20.842819000000077],
              [106.69284800000008, 20.843165000000056],
              [106.69281500000005, 20.843236000000047],
              [106.69268200000005, 20.843518000000074],
              [106.69261000000006, 20.843672000000026],
              [106.69191400000005, 20.845151000000044],
              [106.69167900000008, 20.845651000000032],
              [106.69164500000005, 20.845723000000078],
              [106.69160900000008, 20.845800000000054],
              [106.69158200000004, 20.845858000000078],
              [106.69136500000008, 20.84632000000005],
              [106.69133000000005, 20.846390000000042],
              [106.69094600000005, 20.847176000000047],
              [106.69038600000005, 20.848311000000024],
              [106.69017200000008, 20.84872500000006],
              [106.68953400000004, 20.849257000000023],
              [106.68930500000005, 20.849452000000042],
              [106.68847700000003, 20.850127000000043],
              [106.68809100000004, 20.85044300000004],
              [106.68794100000008, 20.850565000000074],
              [106.68757100000005, 20.85086700000005],
              [106.68743200000006, 20.85098000000005],
              [106.68678600000004, 20.851507000000026],
              [106.68670900000006, 20.851570000000038],
              [106.68596700000006, 20.852175000000045],
              [106.68390300000004, 20.85385800000006],
              [106.68342200000006, 20.854250000000036],
              [106.68282000000005, 20.85478100000006],
              [106.68277600000005, 20.854820000000075],
              [106.68228000000005, 20.85525700000005]
            ]
          ]
        ]
      }
    }
  ]
}
