{
  "type": "FeatureCollection",
  "name": "gis.vn",
  "features": [
    {
      "type": "Feature",
      "properties": {
        "ma_xa": "11329",
        "ten_xa": "Ngô Quyền",
        "sap_nhap": "Máy Chai, Vạn Mỹ, Cầu Tre, Gia Viên (1 phần), Đông Khê (1 phần)",
        "tru_so": [20.86152955, 106.6982764],
        "loai": "Phường",
        "cap": 2,
        "stt": 10,
        "dtich_km2": 5.81,
        "dan_so": 88595,
        "matdo_km2": 15248.71,
        "ma_tinh": "31",
        "ten_tinh": "Hải Phòng",
        "mau_sac": "#CC00FF"
      },
      "geometry": {
        "type": "MultiPolygon",
        "coordinates": [
          [
            [
              [106.72226400000005, 20.86721300000005],
              [106.72174100000007, 20.867715000000032],
              [106.72010000000006, 20.869300000000067],
              [106.71853500000009, 20.87076600000006],
              [106.71707900000007, 20.87195900000006],
              [106.71483000000006, 20.87393000000003],
              [106.71474700000005, 20.874002000000075],
              [106.71474400000005, 20.874005000000068],
              [106.71474300000006, 20.874006000000065],
              [106.71376800000007, 20.874726000000067],
              [106.71266000000008, 20.875544000000048],
              [106.71054400000008, 20.876279000000068],
              [106.70887500000003, 20.87698000000006],
              [106.70701300000007, 20.877399000000025],
              [106.70645800000005, 20.877403000000072],
              [106.70544100000006, 20.877411000000052],
              [106.70469700000007, 20.87741600000004],
              [106.70378000000005, 20.87717900000007],
              [106.70348200000006, 20.877035000000035],
              [106.70096000000007, 20.875816000000043],
              [106.69885700000003, 20.87474100000003],
              [106.69752300000005, 20.87400400000007],
              [106.69752000000005, 20.874002000000075],
              [106.69735800000007, 20.87393000000003],
              [106.69579800000008, 20.873234000000025],
              [106.69528400000007, 20.87291300000004],
              [106.69515800000005, 20.872835000000066],
              [106.69352400000008, 20.87181700000008],
              [106.69160600000004, 20.870772000000045],
              [106.69035200000008, 20.87010300000003],
              [106.68810800000006, 20.869166000000064],
              [106.68590200000006, 20.868313000000057],
              [106.68426400000004, 20.867841000000055],
              [106.68331700000005, 20.86768200000006],
              [106.68281200000007, 20.867598000000044],
              [106.68153500000005, 20.867490000000032],
              [106.68138100000004, 20.867477000000065],
              [106.68128500000006, 20.86746900000003],
              [106.68126000000007, 20.86746800000003],
              [106.68126700000005, 20.866884000000027],
              [106.68127000000004, 20.86667300000005],
              [106.68129400000004, 20.866171000000065],
              [106.68132800000006, 20.866052000000025],
              [106.68135300000006, 20.865965000000074],
              [106.68135100000006, 20.865918000000022],
              [106.68134800000007, 20.865872000000024],
              [106.68133800000004, 20.865676000000065],
              [106.68132200000008, 20.865333000000078],
              [106.68186300000008, 20.865356000000077],
              [106.68234200000006, 20.865376000000026],
              [106.68247500000007, 20.86538100000007],
              [106.68277300000005, 20.865117000000055],
              [106.68274000000008, 20.86452500000007],
              [106.68301800000006, 20.864522000000022],
              [106.68314000000004, 20.864513000000045],
              [106.68344800000006, 20.864473000000032],
              [106.68369300000006, 20.864557000000048],
              [106.68417000000005, 20.864670000000046],
              [106.68454200000008, 20.86475900000005],
              [106.68491300000005, 20.86483000000004],
              [106.68628900000004, 20.86509700000005],
              [106.68662600000005, 20.865162000000055],
              [106.68772100000007, 20.86537400000003],
              [106.68817100000007, 20.86544800000007],
              [106.68898100000007, 20.865580000000023],
              [106.68902000000008, 20.86406400000004],
              [106.68902100000008, 20.86358800000005],
              [106.68902300000008, 20.862919000000034],
              [106.68901400000004, 20.862150000000042],
              [106.68901400000004, 20.862090000000023],
              [106.68896200000006, 20.861819000000025],
              [106.68888800000008, 20.86152400000003],
              [106.69052000000005, 20.86151300000006],
              [106.69197800000006, 20.86150200000003],
              [106.69218900000004, 20.861499000000038],
              [106.69243300000005, 20.861496000000045],
              [106.69569600000005, 20.861446000000058],
              [106.69703100000004, 20.85971100000006],
              [106.69746800000007, 20.859164000000078],
              [106.69798300000008, 20.858519000000058],
              [106.69811400000003, 20.858355000000074],
              [106.69845500000008, 20.85792900000007],
              [106.69948400000004, 20.85665700000004],
              [106.69962800000008, 20.85647800000004],
              [106.69968100000006, 20.856412000000034],
              [106.69974100000007, 20.856336000000056],
              [106.69980100000004, 20.856260000000077],
              [106.70043600000008, 20.855457000000058],
              [106.70090900000008, 20.85485200000005],
              [106.70121500000005, 20.85446200000007],
              [106.70194500000008, 20.853530000000035],
              [106.70209300000005, 20.853337000000067],
              [106.70274900000004, 20.852518000000032],
              [106.70347000000004, 20.85161800000003],
              [106.70370900000006, 20.85214200000007],
              [106.70431800000006, 20.85336200000006],
              [106.70504400000004, 20.854839000000027],
              [106.70515200000006, 20.854953000000023],
              [106.70528200000007, 20.85500200000007],
              [106.70576200000005, 20.854904000000033],
              [106.70628600000003, 20.854712000000063],
              [106.70637700000009, 20.854945000000043],
              [106.70687400000008, 20.854926000000034],
              [106.70682400000004, 20.854431000000034],
              [106.70692600000007, 20.85438300000004],
              [106.70743100000004, 20.854142000000024],
              [106.70763600000004, 20.854082000000062],
              [106.70881900000006, 20.854078000000072],
              [106.70879300000007, 20.85439800000006],
              [106.70880300000005, 20.854497000000038],
              [106.70915300000007, 20.854479000000026],
              [106.71042500000004, 20.855180000000075],
              [106.71051700000004, 20.855210000000056],
              [106.71171900000007, 20.85561400000006],
              [106.71167700000007, 20.855969000000073],
              [106.71166100000005, 20.85605300000003],
              [106.71165600000006, 20.856081000000074],
              [106.71207400000009, 20.856204000000048],
              [106.71234700000008, 20.856314000000054],
              [106.71278100000006, 20.856521000000043],
              [106.71298300000007, 20.856133000000057],
              [106.71314200000006, 20.855762000000027],
              [106.71464100000009, 20.85580600000003],
              [106.71464700000007, 20.856303000000025],
              [106.71540100000004, 20.856377000000066],
              [106.71547100000004, 20.85632400000003],
              [106.71591600000005, 20.856602000000066],
              [106.71587800000003, 20.85669500000006],
              [106.71598600000004, 20.856741000000056],
              [106.71620200000007, 20.856835000000046],
              [106.71618200000006, 20.856911000000025],
              [106.71604900000006, 20.85738200000003],
              [106.71601700000008, 20.857492000000036],
              [106.71598000000006, 20.857587000000024],
              [106.71590600000007, 20.857772000000068],
              [106.71586300000007, 20.857882000000075],
              [106.71560100000005, 20.858321000000046],
              [106.71544400000005, 20.858519000000058],
              [106.71511800000007, 20.858947000000057],
              [106.71459700000008, 20.859508000000062],
              [106.71444000000008, 20.859665000000064],
              [106.71410700000007, 20.86002700000006],
              [106.71396700000008, 20.860138000000063],
              [106.71416500000004, 20.860283000000038],
              [106.71440600000005, 20.86045900000005],
              [106.71464200000008, 20.86063100000007],
              [106.71464400000008, 20.860794000000055],
              [106.71435400000007, 20.860787000000073],
              [106.71434700000003, 20.86102100000005],
              [106.71433400000006, 20.861075000000028],
              [106.71404000000007, 20.86128300000007],
              [106.71404600000005, 20.861492000000055],
              [106.71400000000006, 20.861528000000078],
              [106.71396200000004, 20.86155800000006],
              [106.71387900000008, 20.861631000000045],
              [106.71349500000008, 20.862056000000052],
              [106.71295800000007, 20.862602000000038],
              [106.71300200000007, 20.862602000000038],
              [106.71349200000009, 20.862607000000025],
              [106.71350500000005, 20.863170000000025],
              [106.71285100000006, 20.86318700000004],
              [106.71250700000007, 20.863198000000068],
              [106.71245000000005, 20.863621000000023],
              [106.71348100000006, 20.863654000000054],
              [106.71349200000009, 20.86480000000006],
              [106.71421200000009, 20.864784000000043],
              [106.71426500000007, 20.864782000000048],
              [106.71443900000008, 20.864776000000063],
              [106.71501600000005, 20.86470600000007],
              [106.71558100000004, 20.86464200000006],
              [106.71584500000006, 20.864610000000027],
              [106.71601700000008, 20.864589000000024],
              [106.71640800000006, 20.86453800000004],
              [106.71676000000008, 20.864482000000066],
              [106.71687500000007, 20.864464000000055],
              [106.71699600000005, 20.864424000000042],
              [106.71706700000004, 20.864397000000054],
              [106.71717400000006, 20.864356000000043],
              [106.71761000000004, 20.864139000000023],
              [106.71823600000005, 20.86384000000004],
              [106.71888300000006, 20.863499000000047],
              [106.71909500000004, 20.863387000000046],
              [106.71934500000003, 20.863255000000038],
              [106.71960900000005, 20.86310000000003],
              [106.71961900000008, 20.863095000000044],
              [106.71964500000007, 20.863077000000033],
              [106.72045500000007, 20.864037000000053],
              [106.71995600000008, 20.864476000000025],
              [106.72123300000004, 20.865991000000065],
              [106.72226400000005, 20.86721300000005]
            ]
          ]
        ]
      }
    }
  ]
}
