{
  "type": "FeatureCollection",
  "name": "gis.vn",
  "features": [
    {
      "type": "Feature",
      "properties": {
        "ma_xa": "11446",
        "ten_xa": "Phù Liễn",
        "sap_nhap": "Bắc Hà, Ngọc Sơn, Trường Sơn (thị trấn, 1 phần), Nam Sơn (quận Kiến An, 1 phần), Đồng Hòa (1 phần), Bắc Sơn (1 phần), Trần Thành Ngọ (1 phần), Văn Đẩu (1 phần)",
        "tru_so": [20.79648364, 106.6257575],
        "loai": "Phường",
        "cap": 2,
        "stt": 17,
        "dtich_km2": 18.46,
        "dan_so": 60733,
        "matdo_km2": 3289.98,
        "ma_tinh": "31",
        "ten_tinh": "Hải Phòng",
        "mau_sac": "#CCFF00"
      },
      "geometry": {
        "type": "MultiPolygon",
        "coordinates": [
          [
            [
              [
                106.66608800000006,
                20.821732000000054
              ],
              [
                106.66542800000008,
                20.82180500000004
              ],
              [
                106.66457500000007,
                20.82189900000003
              ],
              [
                106.66445100000004,
                20.821916000000044
              ],
              [
                106.66388400000005,
                20.821992000000023
              ],
              [
                106.66299900000007,
                20.822177000000067
              ],
              [
                106.66291100000007,
                20.822196000000076
              ],
              [
                106.66282500000005,
                20.822217000000023
              ],
              [
                106.66211900000008,
                20.822392000000036
              ],
              [
                106.66046900000003,
                20.823010000000068
              ],
              [
                106.65965000000006,
                20.823419000000058
              ],
              [
                106.65915900000005,
                20.82369300000005
              ],
              [
                106.65858800000007,
                20.822970000000055
              ],
              [
                106.65835300000003,
                20.822677000000056
              ],
              [
                106.65807000000007,
                20.82232300000004
              ],
              [
                106.65774900000008,
                20.820620000000076
              ],
              [
                106.65766900000006,
                20.82063000000005
              ],
              [
                106.65730700000006,
                20.82071700000006
              ],
              [
                106.65676200000007,
                20.820866000000024
              ],
              [
                106.65633200000008,
                20.821004000000073
              ],
              [
                106.65572100000009,
                20.821250000000077
              ],
              [
                106.65542900000008,
                20.821429000000023
              ],
              [
                106.65536800000007,
                20.821462000000054
              ],
              [
                106.65479100000005,
                20.821668000000045
              ],
              [
                106.65424800000005,
                20.82184200000006
              ],
              [
                106.65406600000006,
                20.821898000000033
              ],
              [
                106.65343900000005,
                20.822091000000057
              ],
              [
                106.65331000000003,
                20.822128000000077
              ],
              [
                106.65292900000009,
                20.821521000000075
              ],
              [
                106.65252000000004,
                20.820869000000073
              ],
              [
                106.65116400000005,
                20.818707000000074
              ],
              [
                106.65030500000006,
                20.817338000000063
              ],
              [
                106.64943900000009,
                20.815918000000067
              ],
              [
                106.64942100000007,
                20.815886000000035
              ],
              [
                106.64835000000005,
                20.81395100000003
              ],
              [
                106.64738200000005,
                20.812256000000048
              ],
              [
                106.64729200000005,
                20.812099000000046
              ],
              [
                106.64680000000004,
                20.81123800000006
              ],
              [
                106.64665000000008,
                20.810984000000076
              ],
              [
                106.64637900000008,
                20.810545000000047
              ],
              [
                106.64609800000005,
                20.810046000000057
              ],
              [
                106.64556900000008,
                20.809106000000043
              ],
              [
                106.64540900000009,
                20.808821000000023
              ],
              [
                106.64436100000006,
                20.806959000000063
              ],
              [
                106.64386700000006,
                20.806080000000065
              ],
              [
                106.64384800000005,
                20.806097000000022
              ],
              [
                106.64272400000004,
                20.807309000000032
              ],
              [
                106.64243500000003,
                20.807619000000045
              ],
              [
                106.64213300000006,
                20.807915000000037
              ],
              [
                106.64190700000006,
                20.808170000000075
              ],
              [
                106.64155100000005,
                20.807686000000047
              ],
              [
                106.64108000000004,
                20.80718100000007
              ],
              [
                106.64066200000008,
                20.806830000000048
              ],
              [
                106.63969900000006,
                20.806179000000043
              ],
              [
                106.63941300000005,
                20.805985000000078
              ],
              [
                106.63924500000007,
                20.805850000000078
              ],
              [
                106.63903600000003,
                20.805680000000052
              ],
              [
                106.63872900000007,
                20.805526000000043
              ],
              [
                106.63886400000007,
                20.805213000000037
              ],
              [
                106.63886600000006,
                20.80520800000005
              ],
              [
                106.63892800000008,
                20.804783000000043
              ],
              [
                106.63899800000007,
                20.80431200000004
              ],
              [
                106.63900400000006,
                20.804273000000023
              ],
              [
                106.63935600000008,
                20.80317800000006
              ],
              [
                106.63975900000008,
                20.802080000000046
              ],
              [
                106.63987000000009,
                20.801875000000052
              ],
              [
                106.64009200000004,
                20.80129000000005
              ],
              [
                106.64010500000006,
                20.801255000000026
              ],
              [
                106.64036600000009,
                20.800569000000053
              ],
              [
                106.64040100000005,
                20.80049900000006
              ],
              [
                106.64041300000008,
                20.80046600000003
              ],
              [
                106.64046000000008,
                20.80033700000007
              ],
              [
                106.64050100000009,
                20.800223000000074
              ],
              [
                106.64048600000007,
                20.800222000000076
              ],
              [
                106.63940100000008,
                20.799974000000077
              ],
              [
                106.63937700000008,
                20.799910000000068
              ],
              [
                106.63945800000005,
                20.799615000000074
              ],
              [
                106.63951000000009,
                20.799457000000075
              ],
              [
                106.63940200000008,
                20.799372000000062
              ],
              [
                106.63890500000008,
                20.799190000000067
              ],
              [
                106.63844500000005,
                20.799023000000034
              ],
              [
                106.63787900000005,
                20.79878300000007
              ],
              [
                106.63746500000008,
                20.79860700000006
              ],
              [
                106.63712300000009,
                20.799167000000068
              ],
              [
                106.63699700000006,
                20.799323000000072
              ],
              [
                106.63689400000004,
                20.79948500000006
              ],
              [
                106.63679900000005,
                20.79961600000007
              ],
              [
                106.63665100000009,
                20.799820000000068
              ],
              [
                106.63634600000006,
                20.800370000000044
              ],
              [
                106.63601500000004,
                20.80096700000007
              ],
              [
                106.63560000000007,
                20.80171500000006
              ],
              [
                106.63416300000006,
                20.80176000000006
              ],
              [
                106.63306200000005,
                20.803439000000026
              ],
              [
                106.63268900000008,
                20.803439000000026
              ],
              [
                106.63188700000006,
                20.803414000000032
              ],
              [
                106.63166000000007,
                20.803395000000023
              ],
              [
                106.63118100000008,
                20.803353000000072
              ],
              [
                106.63076600000005,
                20.803303000000028
              ],
              [
                106.63016600000009,
                20.803209000000038
              ],
              [
                106.62867200000005,
                20.80293000000006
              ],
              [
                106.62866900000006,
                20.802991000000077
              ],
              [
                106.62857100000008,
                20.803387000000043
              ],
              [
                106.62854500000009,
                20.803473000000054
              ],
              [
                106.62857400000007,
                20.803539000000058
              ],
              [
                106.62862400000006,
                20.803649000000064
              ],
              [
                106.62961800000005,
                20.805300000000045
              ],
              [
                106.62993900000004,
                20.805426000000068
              ],
              [
                106.63021300000008,
                20.805462000000034
              ],
              [
                106.63032500000008,
                20.805446000000074
              ],
              [
                106.63056700000004,
                20.805248000000063
              ],
              [
                106.63105200000007,
                20.80492300000003
              ],
              [
                106.63119200000006,
                20.804793000000075
              ],
              [
                106.63133400000004,
                20.804734000000053
              ],
              [
                106.63147700000007,
                20.804757000000052
              ],
              [
                106.63175200000006,
                20.804783000000043
              ],
              [
                106.63186900000005,
                20.804810000000032
              ],
              [
                106.63195600000006,
                20.804857000000027
              ],
              [
                106.63205400000004,
                20.804976000000067
              ],
              [
                106.63211600000005,
                20.80510400000003
              ],
              [
                106.63215400000007,
                20.80532400000004
              ],
              [
                106.63214600000003,
                20.80541400000004
              ],
              [
                106.63213100000007,
                20.805573000000038
              ],
              [
                106.63197700000006,
                20.805918000000077
              ],
              [
                106.63186700000006,
                20.806091000000038
              ],
              [
                106.63166100000007,
                20.806261000000063
              ],
              [
                106.63157100000006,
                20.806391000000076
              ],
              [
                106.63157700000005,
                20.806505000000072
              ],
              [
                106.63163000000009,
                20.806691000000058
              ],
              [
                106.63160600000003,
                20.806849000000057
              ],
              [
                106.63149000000004,
                20.806931000000077
              ],
              [
                106.63138500000008,
                20.807052000000056
              ],
              [
                106.63127900000006,
                20.807192000000043
              ],
              [
                106.63126600000004,
                20.807330000000036
              ],
              [
                106.63135900000009,
                20.807506000000046
              ],
              [
                106.63142200000004,
                20.80773000000005
              ],
              [
                106.63147500000008,
                20.807836000000066
              ],
              [
                106.63129600000008,
                20.807884000000058
              ],
              [
                106.63106400000004,
                20.807735000000037
              ],
              [
                106.63075700000007,
                20.807547000000056
              ],
              [
                106.63063600000004,
                20.80750000000006
              ],
              [
                106.63052100000004,
                20.80751300000003
              ],
              [
                106.63047200000005,
                20.80760300000003
              ],
              [
                106.63044200000007,
                20.807813000000067
              ],
              [
                106.63042600000006,
                20.808088000000055
              ],
              [
                106.63033200000007,
                20.80825600000003
              ],
              [
                106.63015000000007,
                20.80840100000006
              ],
              [
                106.63008600000006,
                20.80843600000003
              ],
              [
                106.62994100000009,
                20.80848100000003
              ],
              [
                106.62982000000005,
                20.80844600000006
              ],
              [
                106.62969100000004,
                20.808316000000048
              ],
              [
                106.62959500000005,
                20.808179000000052
              ],
              [
                106.62938400000007,
                20.808097000000032
              ],
              [
                106.62909700000006,
                20.808034000000077
              ],
              [
                106.62865900000008,
                20.808039000000065
              ],
              [
                106.62809400000003,
                20.808146000000022
              ],
              [
                106.62754800000005,
                20.808169000000078
              ],
              [
                106.62707800000004,
                20.808137000000045
              ],
              [
                106.62687100000005,
                20.80806700000005
              ],
              [
                106.62682600000005,
                20.807972000000063
              ],
              [
                106.62680400000005,
                20.80792500000007
              ],
              [
                106.62678700000004,
                20.80776000000003
              ],
              [
                106.62678500000004,
                20.807638000000054
              ],
              [
                106.62679600000007,
                20.80722600000007
              ],
              [
                106.62682100000006,
                20.806674000000044
              ],
              [
                106.62687100000005,
                20.806503000000077
              ],
              [
                106.62712500000004,
                20.80591400000003
              ],
              [
                106.62717500000008,
                20.80579700000004
              ],
              [
                106.62730800000008,
                20.805378000000076
              ],
              [
                106.62730400000004,
                20.805004000000054
              ],
              [
                106.62711800000005,
                20.804732000000058
              ],
              [
                106.62687100000005,
                20.804593000000068
              ],
              [
                106.62679900000006,
                20.804561000000035
              ],
              [
                106.62666500000006,
                20.804515000000038
              ],
              [
                106.62626700000004,
                20.804382000000032
              ],
              [
                106.62607000000008,
                20.804325000000063
              ],
              [
                106.62582300000008,
                20.80430300000006
              ],
              [
                106.62578500000006,
                20.804297000000076
              ],
              [
                106.62575800000008,
                20.80589100000003
              ],
              [
                106.62576600000006,
                20.806691000000058
              ],
              [
                106.62576600000006,
                20.807020000000023
              ],
              [
                106.62575800000008,
                20.807202000000075
              ],
              [
                106.62575100000004,
                20.807695000000024
              ],
              [
                106.62577100000004,
                20.808642000000077
              ],
              [
                106.62578600000006,
                20.80978700000003
              ],
              [
                106.62579100000005,
                20.81012000000004
              ],
              [
                106.62575300000009,
                20.812644000000034
              ],
              [
                106.62577500000003,
                20.81441600000005
              ],
              [
                106.62379200000004,
                20.81385300000005
              ],
              [
                106.62372700000009,
                20.814935000000048
              ],
              [
                106.62369800000005,
                20.815680000000043
              ],
              [
                106.62369100000006,
                20.815856000000053
              ],
              [
                106.62367600000005,
                20.816170000000056
              ],
              [
                106.62365600000004,
                20.816607000000033
              ],
              [
                106.62362700000006,
                20.81705800000003
              ],
              [
                106.62201500000003,
                20.81643900000006
              ],
              [
                106.62143100000009,
                20.816333000000043
              ],
              [
                106.62125700000007,
                20.816302000000064
              ],
              [
                106.62121300000007,
                20.816301000000067
              ],
              [
                106.62113700000003,
                20.816299000000072
              ],
              [
                106.62058900000005,
                20.816286000000048
              ],
              [
                106.62013300000007,
                20.816273000000024
              ],
              [
                106.61998400000004,
                20.81628500000005
              ],
              [
                106.61960100000005,
                20.816324000000066
              ],
              [
                106.61924900000008,
                20.816382000000033
              ],
              [
                106.61904000000004,
                20.81645000000003
              ],
              [
                106.61860200000007,
                20.81659200000007
              ],
              [
                106.61781100000007,
                20.816921000000036
              ],
              [
                106.61728300000004,
                20.817136000000062
              ],
              [
                106.61714300000006,
                20.81719300000003
              ],
              [
                106.61666100000008,
                20.81738800000005
              ],
              [
                106.61596400000008,
                20.81766700000003
              ],
              [
                106.61487300000005,
                20.818112000000042
              ],
              [
                106.61123900000007,
                20.819530000000043
              ],
              [
                106.61066300000005,
                20.819710000000043
              ],
              [
                106.61022400000007,
                20.81856300000004
              ],
              [
                106.61007200000006,
                20.81806800000004
              ],
              [
                106.60965400000003,
                20.815814000000046
              ],
              [
                106.60952200000008,
                20.815307000000075
              ],
              [
                106.60941600000007,
                20.81487800000008
              ],
              [
                106.60862100000008,
                20.813660000000027
              ],
              [
                106.60757400000006,
                20.81198500000005
              ],
              [
                106.60652600000009,
                20.81030400000003
              ],
              [
                106.60507100000007,
                20.807916000000034
              ],
              [
                106.60382300000003,
                20.805912000000035
              ],
              [
                106.60492100000005,
                20.804894000000047
              ],
              [
                106.60300100000006,
                20.80321900000007
              ],
              [
                106.60259800000006,
                20.80287000000004
              ],
              [
                106.60192900000004,
                20.80225400000006
              ],
              [
                106.60128000000009,
                20.801685000000077
              ],
              [
                106.60089200000004,
                20.80133500000005
              ],
              [
                106.60009300000007,
                20.80062900000007
              ],
              [
                106.59922700000004,
                20.79984900000005
              ],
              [
                106.59855900000008,
                20.79925000000003
              ],
              [
                106.59827900000005,
                20.799030000000073
              ],
              [
                106.59821400000004,
                20.79899000000006
              ],
              [
                106.59819000000005,
                20.79897500000004
              ],
              [
                106.59818200000007,
                20.79896300000007
              ],
              [
                106.59816900000004,
                20.798942000000068
              ],
              [
                106.59815700000007,
                20.798901000000058
              ],
              [
                106.59815200000008,
                20.798823000000027
              ],
              [
                106.59814400000005,
                20.79876500000006
              ],
              [
                106.59811900000005,
                20.79870500000004
              ],
              [
                106.59806800000007,
                20.798628000000065
              ],
              [
                106.59799200000003,
                20.798561000000063
              ],
              [
                106.59753500000005,
                20.79818000000006
              ],
              [
                106.59667900000005,
                20.797416000000055
              ],
              [
                106.59582800000004,
                20.796665000000075
              ],
              [
                106.59519200000005,
                20.79609800000003
              ],
              [
                106.59476300000006,
                20.795735000000036
              ],
              [
                106.59475100000009,
                20.79571500000003
              ],
              [
                106.59474400000005,
                20.79569300000003
              ],
              [
                106.59476100000006,
                20.79566600000004
              ],
              [
                106.59482400000007,
                20.795596000000046
              ],
              [
                106.59524800000008,
                20.795161000000064
              ],
              [
                106.59556900000007,
                20.794831000000045
              ],
              [
                106.59560000000005,
                20.794808000000046
              ],
              [
                106.59563000000009,
                20.794800000000066
              ],
              [
                106.59666900000008,
                20.795682000000056
              ],
              [
                106.59776300000004,
                20.796537000000058
              ],
              [
                106.59920600000004,
                20.79781900000006
              ],
              [
                106.60011500000007,
                20.797082000000046
              ],
              [
                106.60231000000005,
                20.798992000000055
              ],
              [
                106.60287300000005,
                20.79942600000004
              ],
              [
                106.60397300000005,
                20.798632000000055
              ],
              [
                106.60439400000007,
                20.798141000000044
              ],
              [
                106.60509500000006,
                20.798096000000044
              ],
              [
                106.60589300000004,
                20.79776000000004
              ],
              [
                106.60627900000009,
                20.797626000000037
              ],
              [
                106.60675300000008,
                20.797249000000022
              ],
              [
                106.60731400000009,
                20.79708800000003
              ],
              [
                106.60759700000006,
                20.796955000000025
              ],
              [
                106.60826800000007,
                20.796678000000043
              ],
              [
                106.60833900000006,
                20.79660000000007
              ],
              [
                106.60842300000007,
                20.796370000000024
              ],
              [
                106.60849100000007,
                20.796073000000035
              ],
              [
                106.60850100000005,
                20.795638000000054
              ],
              [
                106.60853400000008,
                20.795408000000066
              ],
              [
                106.60860400000007,
                20.795255000000054
              ],
              [
                106.60869400000007,
                20.795149000000038
              ],
              [
                106.60887100000008,
                20.79502300000007
              ],
              [
                106.60924800000004,
                20.79460800000004
              ],
              [
                106.60946300000006,
                20.794305000000065
              ],
              [
                106.60960500000004,
                20.793983000000026
              ],
              [
                106.60960900000003,
                20.793972000000053
              ],
              [
                106.60970400000008,
                20.79380100000003
              ],
              [
                106.60962200000006,
                20.793716000000074
              ],
              [
                106.60843000000006,
                20.792475000000024
              ],
              [
                106.60824600000007,
                20.792323000000067
              ],
              [
                106.60817200000008,
                20.792319000000077
              ],
              [
                106.60807800000003,
                20.79229200000003
              ],
              [
                106.60782000000006,
                20.79225100000008
              ],
              [
                106.60780600000004,
                20.79225100000008
              ],
              [
                106.60815600000006,
                20.79155000000003
              ],
              [
                106.60793900000004,
                20.791237000000024
              ],
              [
                106.60888500000004,
                20.79057000000006
              ],
              [
                106.60880500000007,
                20.790410000000065
              ],
              [
                106.60875500000009,
                20.79029600000007
              ],
              [
                106.60873600000008,
                20.79022200000003
              ],
              [
                106.61033400000008,
                20.790072000000066
              ],
              [
                106.61164900000006,
                20.789375000000064
              ],
              [
                106.61212100000006,
                20.78885500000007
              ],
              [
                106.61236700000006,
                20.78840400000007
              ],
              [
                106.61242700000008,
                20.78813800000006
              ],
              [
                106.61247700000007,
                20.78769600000004
              ],
              [
                106.61233900000008,
                20.787300000000073
              ],
              [
                106.61229100000008,
                20.787153000000046
              ],
              [
                106.61227300000007,
                20.786969000000056
              ],
              [
                106.61255500000004,
                20.786937000000023
              ],
              [
                106.61251100000004,
                20.786489000000074
              ],
              [
                106.61344000000008,
                20.78628100000003
              ],
              [
                106.61352000000005,
                20.786420000000078
              ],
              [
                106.61476000000005,
                20.785952000000066
              ],
              [
                106.61497100000008,
                20.78595000000007
              ],
              [
                106.61515100000008,
                20.78600700000004
              ],
              [
                106.61529300000007,
                20.786021000000062
              ],
              [
                106.61568400000004,
                20.786005000000046
              ],
              [
                106.61606600000005,
                20.785903000000076
              ],
              [
                106.61633200000006,
                20.78586400000006
              ],
              [
                106.61666100000008,
                20.785875000000033
              ],
              [
                106.61689600000005,
                20.78589500000004
              ],
              [
                106.61718100000007,
                20.78579300000007
              ],
              [
                106.61656400000004,
                20.784574000000077
              ],
              [
                106.61625900000007,
                20.78393600000004
              ],
              [
                106.61582400000009,
                20.783025000000066
              ],
              [
                106.61559500000004,
                20.782546000000025
              ],
              [
                106.61465100000004,
                20.780781000000047
              ],
              [
                106.61461700000007,
                20.78071700000004
              ],
              [
                106.61451500000004,
                20.780526000000066
              ],
              [
                106.61456700000008,
                20.78050200000007
              ],
              [
                106.61494700000009,
                20.780201000000034
              ],
              [
                106.61504300000007,
                20.780016000000046
              ],
              [
                106.61511800000005,
                20.77983100000006
              ],
              [
                106.61515000000009,
                20.779641000000026
              ],
              [
                106.61511700000005,
                20.779142000000036
              ],
              [
                106.61497200000008,
                20.778644000000043
              ],
              [
                106.61479300000008,
                20.77823200000006
              ],
              [
                106.61457200000007,
                20.777850000000058
              ],
              [
                106.61449400000004,
                20.777697000000046
              ],
              [
                106.61442800000003,
                20.777543000000037
              ],
              [
                106.61422900000008,
                20.777075000000025
              ],
              [
                106.61407100000008,
                20.776610000000062
              ],
              [
                106.61398200000008,
                20.776132000000075
              ],
              [
                106.61393500000008,
                20.775633000000028
              ],
              [
                106.61396600000006,
                20.775252000000023
              ],
              [
                106.61410900000004,
                20.77494800000005
              ],
              [
                106.61441000000008,
                20.774407000000053
              ],
              [
                106.61493000000007,
                20.773835000000076
              ],
              [
                106.61500600000005,
                20.773773000000062
              ],
              [
                106.61501400000009,
                20.773767000000078
              ],
              [
                106.61515700000007,
                20.77366100000006
              ],
              [
                106.61527400000006,
                20.773591000000067
              ],
              [
                106.61534600000005,
                20.773548000000062
              ],
              [
                106.61543000000006,
                20.773520000000076
              ],
              [
                106.61544500000008,
                20.77351500000003
              ],
              [
                106.61599800000005,
                20.77333500000003
              ],
              [
                106.61713600000007,
                20.77327800000006
              ],
              [
                106.61784100000006,
                20.773239000000046
              ],
              [
                106.61835100000008,
                20.773273000000074
              ],
              [
                106.61924700000009,
                20.773495000000025
              ],
              [
                106.62041000000005,
                20.773924000000022
              ],
              [
                106.62070400000005,
                20.77404800000005
              ],
              [
                106.62140800000009,
                20.774286000000075
              ],
              [
                106.62190000000004,
                20.774508000000026
              ],
              [
                106.62264100000004,
                20.77490800000004
              ],
              [
                106.62299900000005,
                20.775131000000044
              ],
              [
                106.62324300000006,
                20.775308000000052
              ],
              [
                106.62336200000004,
                20.775411000000076
              ],
              [
                106.62376900000004,
                20.775901000000033
              ],
              [
                106.62407500000006,
                20.776378000000022
              ],
              [
                106.62420500000007,
                20.776784000000077
              ],
              [
                106.62428600000004,
                20.777210000000025
              ],
              [
                106.62426200000004,
                20.777578000000062
              ],
              [
                106.62410100000005,
                20.778151000000037
              ],
              [
                106.62379300000003,
                20.77874500000007
              ],
              [
                106.62351900000004,
                20.779292000000055
              ],
              [
                106.62330900000006,
                20.77987200000007
              ],
              [
                106.62321700000007,
                20.78037900000004
              ],
              [
                106.62315100000006,
                20.78080600000004
              ],
              [
                106.62316700000008,
                20.781581000000074
              ],
              [
                106.62330500000007,
                20.782099000000073
              ],
              [
                106.62350500000008,
                20.782497000000035
              ],
              [
                106.62392700000004,
                20.782828000000052
              ],
              [
                106.62421500000005,
                20.782977000000074
              ],
              [
                106.62470500000006,
                20.78310300000004
              ],
              [
                106.62507600000004,
                20.783146000000045
              ],
              [
                106.62565600000005,
                20.783066000000076
              ],
              [
                106.62583700000005,
                20.783044000000075
              ],
              [
                106.62626400000005,
                20.78298300000006
              ],
              [
                106.62638900000007,
                20.782969000000037
              ],
              [
                106.62687000000005,
                20.78283300000004
              ],
              [
                106.62731200000007,
                20.782745000000034
              ],
              [
                106.62792600000006,
                20.782408000000032
              ],
              [
                106.62837000000007,
                20.78209300000003
              ],
              [
                106.62871100000007,
                20.781794000000048
              ],
              [
                106.62907800000005,
                20.781297000000052
              ],
              [
                106.62928800000009,
                20.780815000000075
              ],
              [
                106.62944400000003,
                20.780298000000073
              ],
              [
                106.62950800000004,
                20.779863000000034
              ],
              [
                106.62953000000005,
                20.77918100000005
              ],
              [
                106.62949400000008,
                20.77880200000004
              ],
              [
                106.62929900000006,
                20.777927000000034
              ],
              [
                106.62923500000005,
                20.77762800000005
              ],
              [
                106.62906200000003,
                20.77677600000004
              ],
              [
                106.62901100000005,
                20.77639700000003
              ],
              [
                106.62902900000006,
                20.77576700000003
              ],
              [
                106.62914700000005,
                20.77541300000007
              ],
              [
                106.62931800000007,
                20.775229000000024
              ],
              [
                106.62953000000005,
                20.77515100000005
              ],
              [
                106.62980400000004,
                20.775100000000066
              ],
              [
                106.63001800000006,
                20.775175000000047
              ],
              [
                106.63022300000006,
                20.775297000000023
              ],
              [
                106.63044200000007,
                20.775450000000035
              ],
              [
                106.63058600000005,
                20.775662000000068
              ],
              [
                106.63082600000007,
                20.776125000000036
              ],
              [
                106.63090600000004,
                20.776316000000065
              ],
              [
                106.63096400000006,
                20.776609000000064
              ],
              [
                106.63098800000006,
                20.77702800000003
              ],
              [
                106.63099900000009,
                20.777426000000048
              ],
              [
                106.63098400000007,
                20.777931000000024
              ],
              [
                106.63097100000005,
                20.778230000000065
              ],
              [
                106.63091700000007,
                20.778653000000077
              ],
              [
                106.63090900000009,
                20.77903500000008
              ],
              [
                106.63092500000005,
                20.77935300000007
              ],
              [
                106.63099500000004,
                20.779846000000077
              ],
              [
                106.63108300000005,
                20.780445000000043
              ],
              [
                106.63120500000008,
                20.780959000000053
              ],
              [
                106.63125600000006,
                20.78115500000007
              ],
              [
                106.63139200000006,
                20.781417000000033
              ],
              [
                106.63153000000005,
                20.78171800000007
              ],
              [
                106.63173600000005,
                20.782169000000067
              ],
              [
                106.63191300000005,
                20.78243800000007
              ],
              [
                106.63220900000005,
                20.782828000000052
              ],
              [
                106.63242600000007,
                20.783090000000072
              ],
              [
                106.63249700000006,
                20.783176000000026
              ],
              [
                106.63283900000005,
                20.78339500000004
              ],
              [
                106.63309400000009,
                20.78351900000007
              ],
              [
                106.63312400000007,
                20.78352700000005
              ],
              [
                106.63334900000007,
                20.783588000000066
              ],
              [
                106.63360000000006,
                20.783637000000056
              ],
              [
                106.63383600000009,
                20.78366200000005
              ],
              [
                106.63418500000006,
                20.783656000000065
              ],
              [
                106.63439100000005,
                20.783630000000073
              ],
              [
                106.63472100000007,
                20.783561000000077
              ],
              [
                106.63501900000006,
                20.783415000000048
              ],
              [
                106.63524700000005,
                20.783266000000026
              ],
              [
                106.63545200000004,
                20.78313000000003
              ],
              [
                106.63567600000005,
                20.782916000000057
              ],
              [
                106.63580400000006,
                20.782771000000025
              ],
              [
                106.63597400000003,
                20.782507000000066
              ],
              [
                106.63610300000005,
                20.782208000000026
              ],
              [
                106.63617200000004,
                20.78201800000005
              ],
              [
                106.63631600000008,
                20.78144100000003
              ],
              [
                106.63635600000003,
                20.781236000000035
              ],
              [
                106.63646100000005,
                20.780632000000026
              ],
              [
                106.63650400000006,
                20.78036700000007
              ],
              [
                106.63653600000004,
                20.780036000000052
              ],
              [
                106.63658600000008,
                20.779522000000043
              ],
              [
                106.63667200000003,
                20.779018000000065
              ],
              [
                106.63690100000008,
                20.77825500000006
              ],
              [
                106.63702800000004,
                20.777991000000043
              ],
              [
                106.63713000000007,
                20.777780000000064
              ],
              [
                106.63739500000008,
                20.777460000000076
              ],
              [
                106.63754700000004,
                20.777328000000068
              ],
              [
                106.63784700000008,
                20.77708700000005
              ],
              [
                106.63818400000008,
                20.776872000000026
              ],
              [
                106.63837900000004,
                20.77676900000006
              ],
              [
                106.63857300000006,
                20.776681000000053
              ],
              [
                106.63877600000006,
                20.776599000000033
              ],
              [
                106.63896800000003,
                20.776537000000076
              ],
              [
                106.63917700000007,
                20.776486000000034
              ],
              [
                106.63942900000006,
                20.77643100000006
              ],
              [
                106.63964500000009,
                20.776400000000024
              ],
              [
                106.63986000000006,
                20.77638600000006
              ],
              [
                106.64046800000006,
                20.77640800000006
              ],
              [
                106.64093200000008,
                20.776464000000033
              ],
              [
                106.64146300000004,
                20.776530000000037
              ],
              [
                106.64192300000008,
                20.776534000000026
              ],
              [
                106.64224300000006,
                20.77650200000005
              ],
              [
                106.64255700000007,
                20.776464000000033
              ],
              [
                106.64270200000004,
                20.77641600000004
              ],
              [
                106.64280000000008,
                20.77638500000006
              ],
              [
                106.64291200000008,
                20.77629900000005
              ],
              [
                106.64299500000004,
                20.776216000000034
              ],
              [
                106.64307900000006,
                20.776099000000045
              ],
              [
                106.64310200000006,
                20.77598100000006
              ],
              [
                106.64310500000005,
                20.77569500000004
              ],
              [
                106.64310000000006,
                20.77551600000004
              ],
              [
                106.64300900000006,
                20.77508800000004
              ],
              [
                106.64288100000005,
                20.77459600000003
              ],
              [
                106.64271900000006,
                20.774113000000057
              ],
              [
                106.64258800000005,
                20.773731000000055
              ],
              [
                106.64249500000005,
                20.773406000000023
              ],
              [
                106.64243600000003,
                20.773132000000032
              ],
              [
                106.64242600000006,
                20.772933000000023
              ],
              [
                106.64240500000005,
                20.772519000000045
              ],
              [
                106.64240800000005,
                20.772122000000024
              ],
              [
                106.64242200000007,
                20.771922000000075
              ],
              [
                106.64244800000006,
                20.771769000000063
              ],
              [
                106.64250300000003,
                20.771510000000035
              ],
              [
                106.64258200000006,
                20.77129300000007
              ],
              [
                106.64271700000006,
                20.770976000000076
              ],
              [
                106.64282300000008,
                20.77078700000004
              ],
              [
                106.64296600000006,
                20.770575000000065
              ],
              [
                106.64310300000005,
                20.77037100000007
              ],
              [
                106.64331400000003,
                20.770111000000043
              ],
              [
                106.64354600000007,
                20.769925000000057
              ],
              [
                106.64373200000006,
                20.76977000000005
              ],
              [
                106.64400100000006,
                20.76958200000007
              ],
              [
                106.64434400000005,
                20.769344000000046
              ],
              [
                106.64458200000007,
                20.76921600000003
              ],
              [
                106.64489300000008,
                20.769096000000047
              ],
              [
                106.64523900000006,
                20.76896800000003
              ],
              [
                106.64574100000004,
                20.768822000000057
              ],
              [
                106.64614100000006,
                20.76871200000005
              ],
              [
                106.64654100000007,
                20.76865900000007
              ],
              [
                106.64681500000006,
                20.768621000000053
              ],
              [
                106.64738600000004,
                20.768643000000054
              ],
              [
                106.64778200000006,
                20.76868600000006
              ],
              [
                106.64818700000006,
                20.76878300000004
              ],
              [
                106.64843500000006,
                20.768846000000053
              ],
              [
                106.64873200000005,
                20.768947000000026
              ],
              [
                106.64897400000007,
                20.769047000000057
              ],
              [
                106.64923100000004,
                20.769153000000074
              ],
              [
                106.64951300000007,
                20.769282000000032
              ],
              [
                106.64987000000008,
                20.769518000000062
              ],
              [
                106.65003800000005,
                20.769641000000036
              ],
              [
                106.65031500000003,
                20.769892000000027
              ],
              [
                106.65043700000007,
                20.770025000000032
              ],
              [
                106.65059200000007,
                20.770177000000047
              ],
              [
                106.65083200000004,
                20.770516000000043
              ],
              [
                106.65093800000005,
                20.770673000000045
              ],
              [
                106.65118300000006,
                20.771088000000077
              ],
              [
                106.65143100000006,
                20.771537000000023
              ],
              [
                106.65172500000006,
                20.772051000000033
              ],
              [
                106.65198200000003,
                20.772537000000057
              ],
              [
                106.65222100000005,
                20.772897000000057
              ],
              [
                106.65235700000005,
                20.773138000000074
              ],
              [
                106.65258100000005,
                20.773558000000037
              ],
              [
                106.65275100000008,
                20.773817000000065
              ],
              [
                106.65289900000005,
                20.77404000000007
              ],
              [
                106.65299000000005,
                20.774171000000024
              ],
              [
                106.65311200000008,
                20.77433700000006
              ],
              [
                106.65324000000004,
                20.77445300000005
              ],
              [
                106.65338000000008,
                20.77457000000004
              ],
              [
                106.65350300000006,
                20.774681000000044
              ],
              [
                106.65354200000007,
                20.77471600000007
              ],
              [
                106.65388500000006,
                20.774829000000068
              ],
              [
                106.65438500000005,
                20.77494800000005
              ],
              [
                106.65510500000005,
                20.774846000000025
              ],
              [
                106.65572300000008,
                20.774620000000027
              ],
              [
                106.65662200000008,
                20.77406600000006
              ],
              [
                106.65819800000008,
                20.77316200000007
              ],
              [
                106.65918800000009,
                20.772636000000034
              ],
              [
                106.65972100000005,
                20.772553000000073
              ],
              [
                106.65989300000007,
                20.772551000000078
              ],
              [
                106.66012300000006,
                20.772579000000064
              ],
              [
                106.66028500000004,
                20.772673000000054
              ],
              [
                106.66040800000007,
                20.772766000000047
              ],
              [
                106.66048600000005,
                20.77288500000003
              ],
              [
                106.66052200000007,
                20.773048000000074
              ],
              [
                106.66054500000007,
                20.773239000000046
              ],
              [
                106.66052500000006,
                20.773406000000023
              ],
              [
                106.66049600000008,
                20.77357600000005
              ],
              [
                106.66041700000005,
                20.77379300000007
              ],
              [
                106.66029500000008,
                20.774050000000045
              ],
              [
                106.66008000000005,
                20.774391000000037
              ],
              [
                106.65919300000007,
                20.775607000000036
              ],
              [
                106.65855900000008,
                20.77648700000003
              ],
              [
                106.65790600000008,
                20.777319000000034
              ],
              [
                106.65730000000008,
                20.778121000000056
              ],
              [
                106.65699000000006,
                20.778743000000077
              ],
              [
                106.65681100000006,
                20.779193000000078
              ],
              [
                106.65677600000004,
                20.779851000000065
              ],
              [
                106.65708700000005,
                20.780398000000048
              ],
              [
                106.65797100000009,
                20.78104600000006
              ],
              [
                106.65753700000005,
                20.781472000000065
              ],
              [
                106.65725500000008,
                20.781749000000048
              ],
              [
                106.65647200000006,
                20.782313000000045
              ],
              [
                106.65605200000005,
                20.782704000000024
              ],
              [
                106.65569200000004,
                20.78303900000003
              ],
              [
                106.65560500000004,
                20.782951000000025
              ],
              [
                106.65555700000004,
                20.78290400000003
              ],
              [
                106.65523500000006,
                20.783196000000032
              ],
              [
                106.65484900000007,
                20.783546000000058
              ],
              [
                106.65496700000006,
                20.783664000000044
              ],
              [
                106.65620200000006,
                20.784898000000055
              ],
              [
                106.65669600000007,
                20.78538800000007
              ],
              [
                106.65763900000007,
                20.786342000000047
              ],
              [
                106.65839100000005,
                20.78710200000006
              ],
              [
                106.65844200000004,
                20.787153000000046
              ],
              [
                106.65816900000004,
                20.78747500000003
              ],
              [
                106.65804200000008,
                20.787631000000033
              ],
              [
                106.65746200000007,
                20.788267000000076
              ],
              [
                106.65624100000008,
                20.789596000000074
              ],
              [
                106.65560300000004,
                20.790276000000063
              ],
              [
                106.65536200000008,
                20.790542000000073
              ],
              [
                106.65514100000007,
                20.790828000000033
              ],
              [
                106.65508500000004,
                20.790923000000078
              ],
              [
                106.65505600000006,
                20.791041000000064
              ],
              [
                106.65504000000004,
                20.79108300000007
              ],
              [
                106.65500600000007,
                20.791176000000064
              ],
              [
                106.65496500000006,
                20.79124500000006
              ],
              [
                106.65484500000008,
                20.79133100000007
              ],
              [
                106.65455100000008,
                20.791520000000048
              ],
              [
                106.65385200000009,
                20.791981000000078
              ],
              [
                106.65325900000005,
                20.79240200000004
              ],
              [
                106.65238700000003,
                20.793021000000067
              ],
              [
                106.65195100000005,
                20.79333500000007
              ],
              [
                106.65090200000009,
                20.794054000000074
              ],
              [
                106.65044200000006,
                20.794366000000025
              ],
              [
                106.64937600000007,
                20.795053000000053
              ],
              [
                106.64906300000007,
                20.79526100000004
              ],
              [
                106.64854700000006,
                20.795610000000067
              ],
              [
                106.64834600000006,
                20.795761000000027
              ],
              [
                106.64826500000004,
                20.795862000000056
              ],
              [
                106.64817400000004,
                20.79609700000003
              ],
              [
                106.64808400000004,
                20.796489000000065
              ],
              [
                106.64803900000004,
                20.796752000000026
              ],
              [
                106.64803500000005,
                20.796871000000067
              ],
              [
                106.64804300000009,
                20.79694900000004
              ],
              [
                106.64806400000003,
                20.797075000000063
              ],
              [
                106.64809400000007,
                20.797182000000078
              ],
              [
                106.64816500000006,
                20.79739100000006
              ],
              [
                106.64829500000008,
                20.797724000000073
              ],
              [
                106.64856800000007,
                20.79840500000006
              ],
              [
                106.64856900000007,
                20.798406000000057
              ],
              [
                106.64919600000007,
                20.80014300000005
              ],
              [
                106.64964200000009,
                20.801326000000074
              ],
              [
                106.64996100000008,
                20.80214600000005
              ],
              [
                106.65046000000007,
                20.80355600000007
              ],
              [
                106.65058000000005,
                20.80385300000006
              ],
              [
                106.65067700000009,
                20.80384300000003
              ],
              [
                106.65121900000008,
                20.803702000000044
              ],
              [
                106.65182600000009,
                20.80356800000004
              ],
              [
                106.65222300000005,
                20.80350500000003
              ],
              [
                106.65222900000003,
                20.80350500000003
              ],
              [
                106.65448800000007,
                20.803262000000075
              ],
              [
                106.65462000000008,
                20.803226000000052
              ],
              [
                106.65462900000006,
                20.80335400000007
              ],
              [
                106.65476100000006,
                20.803338000000053
              ],
              [
                106.65585900000008,
                20.803203000000053
              ],
              [
                106.65589300000005,
                20.803199000000063
              ],
              [
                106.65722800000009,
                20.803027000000043
              ],
              [
                106.65726900000004,
                20.803022000000055
              ],
              [
                106.65785000000005,
                20.802947000000074
              ],
              [
                106.65785100000005,
                20.80295200000006
              ],
              [
                106.65787800000004,
                20.80326800000006
              ],
              [
                106.65788100000009,
                20.803570000000036
              ],
              [
                106.65788200000009,
                20.803589000000045
              ],
              [
                106.65790200000004,
                20.804062000000044
              ],
              [
                106.65790400000009,
                20.804243000000042
              ],
              [
                106.65792400000004,
                20.804718000000037
              ],
              [
                106.65793500000007,
                20.80490700000007
              ],
              [
                106.65796600000004,
                20.805409000000054
              ],
              [
                106.65797700000007,
                20.805549000000042
              ],
              [
                106.65797900000007,
                20.805574000000036
              ],
              [
                106.65799800000008,
                20.805894000000023
              ],
              [
                106.65799700000008,
                20.806249000000037
              ],
              [
                106.65801000000005,
                20.80667900000003
              ],
              [
                106.65801600000009,
                20.806903000000034
              ],
              [
                106.65802600000006,
                20.80737400000004
              ],
              [
                106.65802900000006,
                20.807577000000038
              ],
              [
                106.65805100000006,
                20.808040000000062
              ],
              [
                106.65804500000007,
                20.80824300000006
              ],
              [
                106.65805000000006,
                20.808348000000024
              ],
              [
                106.65805100000006,
                20.808350000000075
              ],
              [
                106.65802500000007,
                20.808398000000068
              ],
              [
                106.65794900000009,
                20.808452000000045
              ],
              [
                106.65781500000008,
                20.808497000000045
              ],
              [
                106.65774300000004,
                20.808523000000037
              ],
              [
                106.65771400000006,
                20.808543000000043
              ],
              [
                106.65769900000004,
                20.808565000000044
              ],
              [
                106.65777600000007,
                20.808681000000036
              ],
              [
                106.65842100000003,
                20.80923800000005
              ],
              [
                106.65997500000009,
                20.810587000000055
              ],
              [
                106.65998400000007,
                20.81060700000006
              ],
              [
                106.65998500000006,
                20.810625000000073
              ],
              [
                106.65998200000007,
                20.810629000000063
              ],
              [
                106.65989500000006,
                20.81064800000007
              ],
              [
                106.65983800000004,
                20.810647000000074
              ],
              [
                106.65981400000004,
                20.810646000000077
              ],
              [
                106.65938300000005,
                20.810640000000035
              ],
              [
                106.65866400000004,
                20.810625000000073
              ],
              [
                106.65851000000004,
                20.810624000000075
              ],
              [
                106.65806100000003,
                20.81062000000003
              ],
              [
                106.65805100000006,
                20.81062000000003
              ],
              [
                106.65816800000005,
                20.811089000000038
              ],
              [
                106.65819100000004,
                20.811185000000023
              ],
              [
                106.65823600000004,
                20.811375000000055
              ],
              [
                106.65826600000008,
                20.811502000000075
              ],
              [
                106.65836200000007,
                20.81192100000004
              ],
              [
                106.65853100000004,
                20.812651000000074
              ],
              [
                106.65882500000004,
                20.81376700000004
              ],
              [
                106.65884900000003,
                20.81385700000004
              ],
              [
                106.65900100000005,
                20.81375600000007
              ],
              [
                106.65917800000005,
                20.813697000000047
              ],
              [
                106.65924900000005,
                20.813668000000064
              ],
              [
                106.65938400000005,
                20.813523000000032
              ],
              [
                106.65953600000006,
                20.81341100000003
              ],
              [
                106.66012200000006,
                20.81313300000005
              ],
              [
                106.66069800000008,
                20.81276900000006
              ],
              [
                106.66135900000006,
                20.812342000000058
              ],
              [
                106.66169700000006,
                20.81212400000004
              ],
              [
                106.66203600000006,
                20.812441000000035
              ],
              [
                106.66301200000004,
                20.813296000000037
              ],
              [
                106.66361300000005,
                20.813864000000024
              ],
              [
                106.66547800000006,
                20.81547000000006
              ],
              [
                106.66562600000009,
                20.81542600000006
              ],
              [
                106.66601400000008,
                20.815308000000073
              ],
              [
                106.66653600000006,
                20.81514500000003
              ],
              [
                106.66824400000007,
                20.814580000000035
              ],
              [
                106.66911600000009,
                20.814292000000023
              ],
              [
                106.66948700000006,
                20.814167000000054
              ],
              [
                106.67029700000006,
                20.81389500000006
              ],
              [
                106.67060900000007,
                20.81379000000004
              ],
              [
                106.67077600000005,
                20.813734000000068
              ],
              [
                106.67201000000006,
                20.813314000000048
              ],
              [
                106.67221300000006,
                20.813244000000054
              ],
              [
                106.67242000000005,
                20.813173000000063
              ],
              [
                106.67250400000006,
                20.81311900000003
              ],
              [
                106.67264100000006,
                20.81309200000004
              ],
              [
                106.67278900000008,
                20.81308000000007
              ],
              [
                106.67336100000006,
                20.813100000000077
              ],
              [
                106.67429600000008,
                20.81314800000007
              ],
              [
                106.67438000000004,
                20.81315900000004
              ],
              [
                106.67456700000008,
                20.813185000000033
              ],
              [
                106.67478800000004,
                20.81323100000003
              ],
              [
                106.67487700000004,
                20.81325000000004
              ],
              [
                106.67549600000007,
                20.813391000000024
              ],
              [
                106.67592200000007,
                20.813477000000034
              ],
              [
                106.67741400000006,
                20.813781000000063
              ],
              [
                106.67659400000008,
                20.815439000000026
              ],
              [
                106.67674700000003,
                20.816006000000073
              ],
              [
                106.67679000000004,
                20.81614600000006
              ],
              [
                106.67683200000005,
                20.816283000000055
              ],
              [
                106.67693800000006,
                20.816711000000055
              ],
              [
                106.67624800000004,
                20.816873000000044
              ],
              [
                106.67589000000004,
                20.816977000000065
              ],
              [
                106.67426200000006,
                20.817427000000066
              ],
              [
                106.67378100000008,
                20.817567000000054
              ],
              [
                106.67273000000006,
                20.81796600000007
              ],
              [
                106.67184600000007,
                20.818444000000056
              ],
              [
                106.67097400000006,
                20.819052000000056
              ],
              [
                106.67019000000005,
                20.819766000000072
              ],
              [
                106.66982000000007,
                20.82026200000007
              ],
              [
                106.66957400000007,
                20.820929000000035
              ],
              [
                106.66949400000004,
                20.821583000000032
              ],
              [
                106.66949500000004,
                20.821611000000075
              ],
              [
                106.66950100000008,
                20.821755000000053
              ],
              [
                106.66917100000006,
                20.821751000000063
              ],
              [
                106.66849000000008,
                20.821743000000026
              ],
              [
                106.66630700000007,
                20.821724000000074
              ],
              [
                106.66608800000006,
                20.821732000000054
              ]
            ]
          ]
        ]
      }
    }
  ]
}