{
  "type": "FeatureCollection",
  "name": "gis.vn",
  "features": [
    {
      "type": "Feature",
      "properties": {
        "ma_xa": "11581",
        "ten_xa": "An Dương",
        "sap_nhap": "Nam Sơn (quận An Dương), An Hải (1 phần), Lê Lợi (1 phần), Đồng Thái (1 phần), Tân Tiến (1 phần), An Hưng (1 phần)",
        "tru_so": "đang cập nhật",
        "loai": "Phường",
        "cap": 2,
        "stt": 22,
        "dtich_km2": 31.23,
        "dan_so": 76879,
        "matdo_km2": 2461.7,
        "ma_tinh": "31",
        "ten_tinh": "Hải Phòng",
        "mau_sac": "#00FFFF"
      },
      "geometry": {
        "type": "MultiPolygon",
        "coordinates": [
          [
            [
              [
                106.57600900000006,
                20.90405000000004
              ],
              [
                106.57462800000008,
                20.905924000000027
              ],
              [
                106.57425300000006,
                20.906432000000052
              ],
              [
                106.57348300000007,
                20.907539000000043
              ],
              [
                106.57319800000005,
                20.907917000000054
              ],
              [
                106.57306800000003,
                20.90788900000007
              ],
              [
                106.57294900000005,
                20.907863000000077
              ],
              [
                106.57262900000006,
                20.90781400000003
              ],
              [
                106.57186000000007,
                20.90769700000004
              ],
              [
                106.57152100000008,
                20.90764500000006
              ],
              [
                106.57122400000009,
                20.90760000000006
              ],
              [
                106.57162800000003,
                20.906989000000067
              ],
              [
                106.57165500000008,
                20.90695500000004
              ],
              [
                106.57151100000004,
                20.906854000000067
              ],
              [
                106.57144400000004,
                20.90681500000005
              ],
              [
                106.57141700000005,
                20.906754000000035
              ],
              [
                106.57126500000004,
                20.906319000000053
              ],
              [
                106.57119000000006,
                20.90611400000006
              ],
              [
                106.57116500000006,
                20.903693000000032
              ],
              [
                106.57117600000004,
                20.90359200000006
              ],
              [
                106.57075200000008,
                20.903657000000067
              ],
              [
                106.56955300000004,
                20.903838000000064
              ],
              [
                106.56935200000004,
                20.90361000000007
              ],
              [
                106.56929200000008,
                20.90340800000007
              ],
              [
                106.56917500000009,
                20.90330700000004
              ],
              [
                106.56907600000005,
                20.903022000000078
              ],
              [
                106.56779100000006,
                20.902990000000045
              ],
              [
                106.56752900000004,
                20.90314200000006
              ],
              [
                106.56728500000008,
                20.903284000000042
              ],
              [
                106.56722700000006,
                20.902604000000053
              ],
              [
                106.56726100000009,
                20.902209000000028
              ],
              [
                106.56740200000007,
                20.901748000000055
              ],
              [
                106.56768700000003,
                20.900974000000076
              ],
              [
                106.56800500000008,
                20.900392000000068
              ],
              [
                106.56843100000003,
                20.899609000000055
              ],
              [
                106.56850000000009,
                20.89949900000005
              ],
              [
                106.56858900000009,
                20.899343000000044
              ],
              [
                106.56862400000006,
                20.899244000000067
              ],
              [
                106.56866700000006,
                20.89916400000004
              ],
              [
                106.56870600000008,
                20.89913000000007
              ],
              [
                106.56875800000006,
                20.899069000000054
              ],
              [
                106.56880600000005,
                20.89903000000004
              ],
              [
                106.56914800000004,
                20.899059000000022
              ],
              [
                106.56953700000008,
                20.899077000000034
              ],
              [
                106.56978100000003,
                20.899046000000055
              ],
              [
                106.56992600000007,
                20.89899500000007
              ],
              [
                106.56998600000009,
                20.898915000000045
              ],
              [
                106.57003800000007,
                20.898822000000052
              ],
              [
                106.57006800000005,
                20.89871400000004
              ],
              [
                106.57015700000005,
                20.898321000000067
              ],
              [
                106.57016700000008,
                20.898202000000026
              ],
              [
                106.57018600000004,
                20.89805400000006
              ],
              [
                106.57019600000007,
                20.897974000000033
              ],
              [
                106.57024000000007,
                20.897849000000065
              ],
              [
                106.57029100000005,
                20.897714000000065
              ],
              [
                106.57033400000006,
                20.897657000000038
              ],
              [
                106.57040900000004,
                20.897573000000023
              ],
              [
                106.57059600000008,
                20.89736300000004
              ],
              [
                106.57078200000007,
                20.897181000000046
              ],
              [
                106.57108400000004,
                20.896874000000025
              ],
              [
                106.57125300000007,
                20.89658600000007
              ],
              [
                106.57132000000007,
                20.89634600000005
              ],
              [
                106.57138300000008,
                20.896055000000047
              ],
              [
                106.57138300000008,
                20.895547000000022
              ],
              [
                106.57137300000005,
                20.895182000000034
              ],
              [
                106.57137300000005,
                20.89492800000005
              ],
              [
                106.57138200000009,
                20.894742000000065
              ],
              [
                106.57141800000005,
                20.894469000000072
              ],
              [
                106.57144700000003,
                20.894264000000078
              ],
              [
                106.57149500000008,
                20.89407600000004
              ],
              [
                106.57184200000006,
                20.893324000000064
              ],
              [
                106.57211000000007,
                20.892784000000063
              ],
              [
                106.57230300000003,
                20.89239900000007
              ],
              [
                106.57254400000005,
                20.89175800000004
              ],
              [
                106.57272700000004,
                20.89105100000006
              ],
              [
                106.57286300000004,
                20.89067300000005
              ],
              [
                106.57300000000004,
                20.890373000000068
              ],
              [
                106.57315000000006,
                20.89013300000005
              ],
              [
                106.57341000000008,
                20.889744000000064
              ],
              [
                106.57368600000007,
                20.889505000000042
              ],
              [
                106.57397800000007,
                20.889261000000033
              ],
              [
                106.57427500000006,
                20.889027000000056
              ],
              [
                106.57448300000004,
                20.888846000000058
              ],
              [
                106.57474700000006,
                20.888580000000047
              ],
              [
                106.57483200000007,
                20.888495000000034
              ],
              [
                106.57506000000006,
                20.888208000000077
              ],
              [
                106.57523500000008,
                20.88790000000006
              ],
              [
                106.57540400000005,
                20.887579000000073
              ],
              [
                106.57549300000005,
                20.887327000000028
              ],
              [
                106.57554500000003,
                20.887154000000066
              ],
              [
                106.57558200000005,
                20.88698100000005
              ],
              [
                106.57566800000006,
                20.88650800000005
              ],
              [
                106.57571600000006,
                20.88625600000006
              ],
              [
                106.57579300000003,
                20.885794000000033
              ],
              [
                106.57585600000004,
                20.88543100000004
              ],
              [
                106.57592900000009,
                20.885087000000055
              ],
              [
                106.57601400000004,
                20.884736000000032
              ],
              [
                106.57610300000005,
                20.884389000000056
              ],
              [
                106.57618600000006,
                20.884029000000055
              ],
              [
                106.57627500000007,
                20.88368200000008
              ],
              [
                106.57642700000008,
                20.883079000000066
              ],
              [
                106.57652400000006,
                20.88271000000003
              ],
              [
                106.57663400000007,
                20.88227100000006
              ],
              [
                106.57672300000007,
                20.881940000000043
              ],
              [
                106.57679800000005,
                20.88168100000007
              ],
              [
                106.57682700000004,
                20.881578000000047
              ],
              [
                106.57691900000003,
                20.88122400000003
              ],
              [
                106.57696400000003,
                20.881071000000077
              ],
              [
                106.57699400000007,
                20.880997000000036
              ],
              [
                106.57704700000005,
                20.880896000000064
              ],
              [
                106.57717400000007,
                20.880674000000056
              ],
              [
                106.57731100000007,
                20.88042500000006
              ],
              [
                106.57743600000003,
                20.880130000000065
              ],
              [
                106.57753600000007,
                20.879910000000052
              ],
              [
                106.57768600000009,
                20.87957300000005
              ],
              [
                106.57783200000006,
                20.879247000000078
              ],
              [
                106.57796500000006,
                20.87891200000007
              ],
              [
                106.57811200000003,
                20.878573000000074
              ],
              [
                106.57826200000005,
                20.878247000000044
              ],
              [
                106.57832400000007,
                20.87811000000005
              ],
              [
                106.57863500000008,
                20.877621000000033
              ],
              [
                106.57896000000005,
                20.877334000000076
              ],
              [
                106.57927300000006,
                20.87711900000005
              ],
              [
                106.57936800000004,
                20.877077000000043
              ],
              [
                106.57946000000004,
                20.877064000000075
              ],
              [
                106.57951700000007,
                20.877063000000078
              ],
              [
                106.57957100000004,
                20.877075000000048
              ],
              [
                106.57962200000009,
                20.877098000000046
              ],
              [
                106.58108300000004,
                20.875928000000044
              ],
              [
                106.58179800000005,
                20.875262000000077
              ],
              [
                106.58200800000009,
                20.87493500000005
              ],
              [
                106.58205700000008,
                20.874676000000022
              ],
              [
                106.58196200000003,
                20.874371000000053
              ],
              [
                106.58177700000005,
                20.874014000000045
              ],
              [
                106.58150200000006,
                20.873579000000063
              ],
              [
                106.58125500000006,
                20.873366000000033
              ],
              [
                106.58084100000008,
                20.873169000000075
              ],
              [
                106.58010500000006,
                20.872817000000055
              ],
              [
                106.58001100000007,
                20.872708000000046
              ],
              [
                106.57975000000005,
                20.872404000000074
              ],
              [
                106.57953300000008,
                20.872048000000063
              ],
              [
                106.57946600000008,
                20.871547000000078
              ],
              [
                106.57947600000006,
                20.871030000000076
              ],
              [
                106.57943900000004,
                20.87034200000005
              ],
              [
                106.57932600000004,
                20.869770000000074
              ],
              [
                106.57927400000005,
                20.869197000000042
              ],
              [
                106.57931800000006,
                20.869053000000065
              ],
              [
                106.57952900000004,
                20.868778000000077
              ],
              [
                106.57981500000005,
                20.868446000000063
              ],
              [
                106.57986400000004,
                20.868370000000027
              ],
              [
                106.57978700000007,
                20.868292000000054
              ],
              [
                106.57948400000004,
                20.867989000000023
              ],
              [
                106.57943500000005,
                20.867939000000035
              ],
              [
                106.57933700000007,
                20.867844000000048
              ],
              [
                106.57929000000007,
                20.86779800000005
              ],
              [
                106.57923700000003,
                20.867746000000068
              ],
              [
                106.57911100000007,
                20.867623000000037
              ],
              [
                106.57891300000006,
                20.86743000000007
              ],
              [
                106.57835600000004,
                20.866868000000068
              ],
              [
                106.57797200000005,
                20.86648100000008
              ],
              [
                106.57728500000007,
                20.865751000000046
              ],
              [
                106.57713900000005,
                20.865581000000077
              ],
              [
                106.57678500000009,
                20.864981000000057
              ],
              [
                106.57664400000004,
                20.864590000000078
              ],
              [
                106.57649700000007,
                20.864180000000033
              ],
              [
                106.57641400000006,
                20.863867000000027
              ],
              [
                106.57635400000004,
                20.863646000000074
              ],
              [
                106.57631100000003,
                20.86330300000003
              ],
              [
                106.57623900000004,
                20.862734000000046
              ],
              [
                106.57594500000005,
                20.861830000000054
              ],
              [
                106.57547800000003,
                20.860992000000067
              ],
              [
                106.57535000000007,
                20.860853000000077
              ],
              [
                106.57514900000007,
                20.86063800000005
              ],
              [
                106.57497000000006,
                20.86041000000006
              ],
              [
                106.57376900000008,
                20.859106000000054
              ],
              [
                106.57362500000005,
                20.85895000000005
              ],
              [
                106.57306900000003,
                20.85836000000006
              ],
              [
                106.57268900000008,
                20.857957000000056
              ],
              [
                106.57188900000006,
                20.857109000000037
              ],
              [
                106.57163900000006,
                20.856844000000024
              ],
              [
                106.57069200000007,
                20.85585800000007
              ],
              [
                106.57059800000007,
                20.855760000000032
              ],
              [
                106.56956200000008,
                20.85467200000005
              ],
              [
                106.56921700000004,
                20.854309000000057
              ],
              [
                106.56721700000008,
                20.852144000000067
              ],
              [
                106.56659800000006,
                20.85144900000006
              ],
              [
                106.56609400000008,
                20.850708000000054
              ],
              [
                106.56545800000004,
                20.849743000000046
              ],
              [
                106.56537600000007,
                20.849618000000078
              ],
              [
                106.56526900000006,
                20.849451000000045
              ],
              [
                106.56479300000007,
                20.848707000000047
              ],
              [
                106.56450600000005,
                20.84826400000003
              ],
              [
                106.56432600000005,
                20.84798600000005
              ],
              [
                106.56437200000005,
                20.847969000000035
              ],
              [
                106.56472200000007,
                20.84783900000002
              ],
              [
                106.56500100000005,
                20.847788000000037
              ],
              [
                106.56523000000004,
                20.847765000000038
              ],
              [
                106.56564700000007,
                20.84777900000006
              ],
              [
                106.56606300000004,
                20.847878000000037
              ],
              [
                106.56676400000003,
                20.84802200000007
              ],
              [
                106.56805300000008,
                20.848337000000072
              ],
              [
                106.56836300000003,
                20.848422000000028
              ],
              [
                106.56840600000004,
                20.848431000000062
              ],
              [
                106.56863200000004,
                20.848483000000044
              ],
              [
                106.57082300000008,
                20.848918000000026
              ],
              [
                106.57228900000007,
                20.849249000000043
              ],
              [
                106.57371000000006,
                20.849579000000062
              ],
              [
                106.57448000000005,
                20.849767000000043
              ],
              [
                106.57567200000005,
                20.850186000000065
              ],
              [
                106.57796700000006,
                20.850739000000033
              ],
              [
                106.57886000000008,
                20.850838000000067
              ],
              [
                106.57960800000006,
                20.85086000000007
              ],
              [
                106.58057600000006,
                20.85080800000003
              ],
              [
                106.58083500000004,
                20.85076300000003
              ],
              [
                106.58120700000006,
                20.850630000000024
              ],
              [
                106.58164000000005,
                20.85044000000005
              ],
              [
                106.58188800000005,
                20.85030100000006
              ],
              [
                106.58192100000008,
                20.85028200000005
              ],
              [
                106.58200400000004,
                20.850236000000052
              ],
              [
                106.58222400000005,
                20.850090000000023
              ],
              [
                106.58246600000007,
                20.84982700000006
              ],
              [
                106.58259400000009,
                20.849503000000027
              ],
              [
                106.58265700000004,
                20.849226000000044
              ],
              [
                106.58269200000007,
                20.848943000000077
              ],
              [
                106.58263900000009,
                20.84822900000006
              ],
              [
                106.58248000000003,
                20.84760700000004
              ],
              [
                106.58212800000007,
                20.84677800000003
              ],
              [
                106.58203100000009,
                20.846249000000057
              ],
              [
                106.58207200000004,
                20.84504400000003
              ],
              [
                106.58224000000007,
                20.844339000000048
              ],
              [
                106.58264900000006,
                20.843353000000036
              ],
              [
                106.58321500000005,
                20.84207900000007
              ],
              [
                106.58345100000008,
                20.841548000000046
              ],
              [
                106.58377100000007,
                20.840690000000052
              ],
              [
                106.58422000000007,
                20.839383000000055
              ],
              [
                106.58442600000006,
                20.83883600000007
              ],
              [
                106.58469300000007,
                20.837916000000064
              ],
              [
                106.58477500000004,
                20.837579000000062
              ],
              [
                106.58481900000004,
                20.83727200000004
              ],
              [
                106.58486600000003,
                20.836944000000074
              ],
              [
                106.58486100000005,
                20.836441000000036
              ],
              [
                106.58486400000004,
                20.836141000000055
              ],
              [
                106.58487500000007,
                20.834979000000033
              ],
              [
                106.58485400000006,
                20.834177000000068
              ],
              [
                106.58482000000004,
                20.833766000000026
              ],
              [
                106.58477000000005,
                20.833093000000076
              ],
              [
                106.58473500000008,
                20.83239100000003
              ],
              [
                106.58475500000009,
                20.831776000000048
              ],
              [
                106.58478600000007,
                20.830908000000022
              ],
              [
                106.58480800000007,
                20.830550000000073
              ],
              [
                106.58487200000008,
                20.830235000000073
              ],
              [
                106.58499900000004,
                20.82970700000004
              ],
              [
                106.58521200000007,
                20.828985000000046
              ],
              [
                106.58560400000005,
                20.82822900000008
              ],
              [
                106.58610900000008,
                20.82743000000005
              ],
              [
                106.58635600000008,
                20.827053000000035
              ],
              [
                106.58703200000008,
                20.82604800000007
              ],
              [
                106.58755800000006,
                20.825369000000023
              ],
              [
                106.58816300000007,
                20.82484800000003
              ],
              [
                106.58931500000006,
                20.824134000000072
              ],
              [
                106.59022500000003,
                20.823681000000022
              ],
              [
                106.59144100000009,
                20.82328300000006
              ],
              [
                106.59271900000005,
                20.822955000000036
              ],
              [
                106.59544300000005,
                20.822371000000032
              ],
              [
                106.59883900000005,
                20.821866000000057
              ],
              [
                106.60213400000004,
                20.82144100000005
              ],
              [
                106.60295700000006,
                20.82127900000006
              ],
              [
                106.60649800000004,
                20.820693000000063
              ],
              [
                106.60699700000004,
                20.820611000000042
              ],
              [
                106.60796000000005,
                20.82241300000004
              ],
              [
                106.60813700000006,
                20.82234200000005
              ],
              [
                106.60826900000006,
                20.822275000000047
              ],
              [
                106.60836700000004,
                20.82225600000004
              ],
              [
                106.60851800000006,
                20.822613000000047
              ],
              [
                106.60808000000009,
                20.82281000000006
              ],
              [
                106.60854700000004,
                20.823626000000047
              ],
              [
                106.60901100000007,
                20.82341800000006
              ],
              [
                106.60916900000007,
                20.82374200000004
              ],
              [
                106.60855100000003,
                20.824080000000038
              ],
              [
                106.60896500000007,
                20.82479100000006
              ],
              [
                106.60940000000005,
                20.824640000000045
              ],
              [
                106.60949900000008,
                20.824868000000038
              ],
              [
                106.60916900000007,
                20.82498300000003
              ],
              [
                106.60931500000004,
                20.825282000000072
              ],
              [
                106.60946400000006,
                20.825427000000047
              ],
              [
                106.61032400000005,
                20.82679100000007
              ],
              [
                106.60987800000004,
                20.827087000000063
              ],
              [
                106.60973500000006,
                20.827357000000063
              ],
              [
                106.61045400000006,
                20.828446000000042
              ],
              [
                106.61019700000008,
                20.828643000000056
              ],
              [
                106.61052200000006,
                20.82911100000007
              ],
              [
                106.61116500000009,
                20.82873100000006
              ],
              [
                106.61133300000006,
                20.829095000000052
              ],
              [
                106.61111000000005,
                20.829211000000043
              ],
              [
                106.61119900000006,
                20.829518000000064
              ],
              [
                106.61098400000009,
                20.829601000000025
              ],
              [
                106.61122300000005,
                20.83009400000003
              ],
              [
                106.61143000000004,
                20.830076000000076
              ],
              [
                106.61195600000008,
                20.83092400000004
              ],
              [
                106.61330700000008,
                20.83285900000004
              ],
              [
                106.61216500000006,
                20.833532000000048
              ],
              [
                106.61240800000007,
                20.833864000000062
              ],
              [
                106.61365100000006,
                20.835668000000055
              ],
              [
                106.61409300000008,
                20.83635000000004
              ],
              [
                106.61380400000007,
                20.83655600000003
              ],
              [
                106.61376400000006,
                20.836824000000036
              ],
              [
                106.61381700000004,
                20.83694500000007
              ],
              [
                106.61398800000006,
                20.837226000000044
              ],
              [
                106.61440400000004,
                20.837388000000033
              ],
              [
                106.61437100000006,
                20.837886000000026
              ],
              [
                106.61379600000004,
                20.837793000000033
              ],
              [
                106.61378900000005,
                20.837860000000035
              ],
              [
                106.61378200000007,
                20.837924000000044
              ],
              [
                106.61377000000005,
                20.838037000000043
              ],
              [
                106.61444000000006,
                20.83821800000004
              ],
              [
                106.61497200000008,
                20.838455000000067
              ],
              [
                106.61525700000004,
                20.83871000000005
              ],
              [
                106.61526700000007,
                20.838940000000036
              ],
              [
                106.61613400000005,
                20.839331000000072
              ],
              [
                106.61614900000006,
                20.839378000000067
              ],
              [
                106.61622200000005,
                20.840115000000026
              ],
              [
                106.61634400000008,
                20.840485000000058
              ],
              [
                106.61649800000004,
                20.840588000000025
              ],
              [
                106.61671300000006,
                20.840680000000077
              ],
              [
                106.61737800000009,
                20.84120800000005
              ],
              [
                106.61871400000007,
                20.842268000000047
              ],
              [
                106.62058100000007,
                20.843758000000037
              ],
              [
                106.62036800000004,
                20.844265000000064
              ],
              [
                106.62012300000004,
                20.844844000000023
              ],
              [
                106.62010700000008,
                20.844881000000044
              ],
              [
                106.62009600000005,
                20.84490900000003
              ],
              [
                106.62006900000006,
                20.844974000000036
              ],
              [
                106.62000300000005,
                20.845137000000022
              ],
              [
                106.61993700000005,
                20.845300000000066
              ],
              [
                106.61990700000007,
                20.84537400000005
              ],
              [
                106.61990100000008,
                20.845390000000066
              ],
              [
                106.61980800000003,
                20.845679000000075
              ],
              [
                106.61947600000008,
                20.84640600000006
              ],
              [
                106.61920500000008,
                20.84702500000003
              ],
              [
                106.61917500000004,
                20.847094000000027
              ],
              [
                106.61913400000009,
                20.847173000000055
              ],
              [
                106.61909200000008,
                20.847253000000023
              ],
              [
                106.61893400000008,
                20.847639000000072
              ],
              [
                106.61889000000008,
                20.847747000000027
              ],
              [
                106.61842900000005,
                20.848895000000027
              ],
              [
                106.61766100000006,
                20.850543000000073
              ],
              [
                106.61763400000007,
                20.85060500000003
              ],
              [
                106.61730100000005,
                20.85136200000005
              ],
              [
                106.61706900000007,
                20.852072000000078
              ],
              [
                106.61671300000006,
                20.85313000000008
              ],
              [
                106.61653500000006,
                20.853684000000044
              ],
              [
                106.61651900000004,
                20.85373100000004
              ],
              [
                106.61629500000004,
                20.854418000000067
              ],
              [
                106.61598000000004,
                20.855282000000045
              ],
              [
                106.61581800000005,
                20.855795000000057
              ],
              [
                106.61575500000004,
                20.855995000000064
              ],
              [
                106.61559300000005,
                20.856546000000037
              ],
              [
                106.61508500000008,
                20.858116000000052
              ],
              [
                106.61496900000009,
                20.85846200000003
              ],
              [
                106.61485100000004,
                20.85881500000005
              ],
              [
                106.61453700000004,
                20.859754000000066
              ],
              [
                106.61451600000004,
                20.859818000000075
              ],
              [
                106.61422100000004,
                20.86111100000005
              ],
              [
                106.61415700000003,
                20.861417000000074
              ],
              [
                106.61408900000004,
                20.861717000000056
              ],
              [
                106.61406000000005,
                20.861863000000028
              ],
              [
                106.61396200000007,
                20.862474000000077
              ],
              [
                106.61393700000008,
                20.862739000000033
              ],
              [
                106.61387600000006,
                20.863383000000056
              ],
              [
                106.61386400000004,
                20.86356500000005
              ],
              [
                106.61483000000004,
                20.863459000000034
              ],
              [
                106.61661000000004,
                20.86326500000007
              ],
              [
                106.61815100000007,
                20.863103000000024
              ],
              [
                106.61809200000005,
                20.86388100000005
              ],
              [
                106.61802200000005,
                20.864416000000062
              ],
              [
                106.61794400000008,
                20.865328000000034
              ],
              [
                106.61787400000009,
                20.865902000000062
              ],
              [
                106.61776500000008,
                20.86676700000004
              ],
              [
                106.61762000000004,
                20.867766000000074
              ],
              [
                106.61780000000005,
                20.867787000000078
              ],
              [
                106.61802100000006,
                20.867800000000045
              ],
              [
                106.61875400000008,
                20.867836000000068
              ],
              [
                106.62032600000003,
                20.867864000000054
              ],
              [
                106.62069900000006,
                20.867857000000072
              ],
              [
                106.62089300000008,
                20.867834000000073
              ],
              [
                106.62098600000007,
                20.86812800000007
              ],
              [
                106.62108400000005,
                20.868434000000036
              ],
              [
                106.62136300000009,
                20.869328000000053
              ],
              [
                106.62179300000008,
                20.870795000000044
              ],
              [
                106.62187100000006,
                20.871064000000047
              ],
              [
                106.62190500000008,
                20.871201000000042
              ],
              [
                106.62192400000004,
                20.87131000000005
              ],
              [
                106.62190100000004,
                20.871593000000075
              ],
              [
                106.62189600000005,
                20.871654000000035
              ],
              [
                106.62182100000007,
                20.871844000000067
              ],
              [
                106.62175100000007,
                20.872024000000067
              ],
              [
                106.62207300000006,
                20.872132000000022
              ],
              [
                106.62243300000006,
                20.872227000000066
              ],
              [
                106.62278000000003,
                20.87228600000003
              ],
              [
                106.62309200000004,
                20.872298000000058
              ],
              [
                106.62332600000008,
                20.872292000000073
              ],
              [
                106.62338100000005,
                20.872945000000072
              ],
              [
                106.62287000000003,
                20.872994000000062
              ],
              [
                106.62267100000008,
                20.873012000000074
              ],
              [
                106.62263200000007,
                20.873016000000064
              ],
              [
                106.62261600000005,
                20.873384000000044
              ],
              [
                106.62264800000008,
                20.873872000000063
              ],
              [
                106.62268500000005,
                20.874005000000068
              ],
              [
                106.62274500000007,
                20.87424100000004
              ],
              [
                106.62320000000005,
                20.87407600000006
              ],
              [
                106.62319900000006,
                20.87408300000004
              ],
              [
                106.62306200000006,
                20.87495800000005
              ],
              [
                106.62291700000009,
                20.875869000000023
              ],
              [
                106.62287900000007,
                20.876183000000026
              ],
              [
                106.62284300000005,
                20.876483000000064
              ],
              [
                106.62277700000004,
                20.87708800000007
              ],
              [
                106.62266200000005,
                20.87822200000005
              ],
              [
                106.62258400000007,
                20.879079000000047
              ],
              [
                106.62251700000007,
                20.879831000000024
              ],
              [
                106.62250900000004,
                20.879913000000045
              ],
              [
                106.62250500000005,
                20.880003000000045
              ],
              [
                106.62243000000007,
                20.880026000000043
              ],
              [
                106.62185900000009,
                20.88020000000006
              ],
              [
                106.62124000000006,
                20.880389000000037
              ],
              [
                106.62087400000007,
                20.880499000000043
              ],
              [
                106.62037700000008,
                20.880648000000065
              ],
              [
                106.61996200000004,
                20.880776000000026
              ],
              [
                106.61950300000007,
                20.880918000000065
              ],
              [
                106.61932300000007,
                20.88097300000004
              ],
              [
                106.61862800000006,
                20.881188000000066
              ],
              [
                106.61838700000004,
                20.881267000000037
              ],
              [
                106.61769700000008,
                20.881494000000032
              ],
              [
                106.61719000000005,
                20.881695000000036
              ],
              [
                106.61702100000008,
                20.881762000000037
              ],
              [
                106.61699300000004,
                20.881774000000064
              ],
              [
                106.61694500000004,
                20.88179400000007
              ],
              [
                106.61646100000007,
                20.881998000000067
              ],
              [
                106.61585100000008,
                20.882254000000046
              ],
              [
                106.61508400000008,
                20.882569000000046
              ],
              [
                106.61425900000006,
                20.882889000000034
              ],
              [
                106.61348000000004,
                20.883162000000027
              ],
              [
                106.61260500000009,
                20.88339200000007
              ],
              [
                106.61213300000009,
                20.883465000000058
              ],
              [
                106.61181100000005,
                20.883500000000026
              ],
              [
                106.61148900000006,
                20.88353600000005
              ],
              [
                106.61043700000005,
                20.883606000000043
              ],
              [
                106.60976700000003,
                20.883662000000072
              ],
              [
                106.60926700000005,
                20.883703000000025
              ],
              [
                106.60873900000007,
                20.88374600000003
              ],
              [
                106.60874500000006,
                20.884024000000068
              ],
              [
                106.60802100000006,
                20.884227000000067
              ],
              [
                106.60777400000006,
                20.884368000000052
              ],
              [
                106.60760800000008,
                20.884556000000032
              ],
              [
                106.60746300000005,
                20.884829000000025
              ],
              [
                106.60738900000007,
                20.885064000000057
              ],
              [
                106.60736600000007,
                20.885227000000043
              ],
              [
                106.60738200000009,
                20.88535100000007
              ],
              [
                106.60741500000006,
                20.885561000000052
              ],
              [
                106.60763900000006,
                20.88649900000007
              ],
              [
                106.60765400000008,
                20.886569000000065
              ],
              [
                106.60773900000004,
                20.886892000000046
              ],
              [
                106.60776200000004,
                20.887088000000062
              ],
              [
                106.60772800000007,
                20.887222000000065
              ],
              [
                106.60763300000008,
                20.88738500000005
              ],
              [
                106.60747600000008,
                20.88750600000003
              ],
              [
                106.60729400000008,
                20.88758400000006
              ],
              [
                106.60702000000003,
                20.887644000000023
              ],
              [
                106.60676600000005,
                20.887647000000072
              ],
              [
                106.60648500000008,
                20.887582000000066
              ],
              [
                106.60619400000007,
                20.887418000000025
              ],
              [
                106.60576800000007,
                20.887054000000035
              ],
              [
                106.60533100000004,
                20.886690000000044
              ],
              [
                106.60499800000008,
                20.886468000000036
              ],
              [
                106.60480900000005,
                20.886389000000065
              ],
              [
                106.60452600000008,
                20.886341000000073
              ],
              [
                106.60438100000005,
                20.886343000000068
              ],
              [
                106.60425900000007,
                20.88636900000006
              ],
              [
                106.60414800000007,
                20.88644800000003
              ],
              [
                106.60403900000006,
                20.886563000000024
              ],
              [
                106.60394800000006,
                20.886703000000068
              ],
              [
                106.60391100000004,
                20.886777000000052
              ],
              [
                106.60384000000005,
                20.887004000000047
              ],
              [
                106.60383100000007,
                20.88724700000006
              ],
              [
                106.60384800000008,
                20.887319000000048
              ],
              [
                106.60387100000008,
                20.887392000000034
              ],
              [
                106.60391900000008,
                20.88747200000006
              ],
              [
                106.60398400000008,
                20.887538000000063
              ],
              [
                106.60404200000005,
                20.887597000000028
              ],
              [
                106.60407700000007,
                20.887665000000027
              ],
              [
                106.60409900000008,
                20.887793000000045
              ],
              [
                106.60405500000007,
                20.887887000000035
              ],
              [
                106.60393200000004,
                20.888145000000065
              ],
              [
                106.60388400000005,
                20.88826000000006
              ],
              [
                106.60377400000004,
                20.88841800000006
              ],
              [
                106.60358500000007,
                20.888586000000032
              ],
              [
                106.60340000000008,
                20.88865400000003
              ],
              [
                106.60329500000006,
                20.88867300000004
              ],
              [
                106.60317700000007,
                20.888672000000042
              ],
              [
                106.60308500000008,
                20.888648000000046
              ],
              [
                106.60292300000003,
                20.888569000000075
              ],
              [
                106.60280900000004,
                20.88851500000004
              ],
              [
                106.60277200000007,
                20.888513000000046
              ],
              [
                106.60271500000005,
                20.888529000000062
              ],
              [
                106.60267500000003,
                20.888566000000026
              ],
              [
                106.60255900000004,
                20.88862000000006
              ],
              [
                106.60247600000008,
                20.88865000000004
              ],
              [
                106.60239900000005,
                20.888656000000026
              ],
              [
                106.60232200000007,
                20.888649000000044
              ],
              [
                106.60212900000005,
                20.888621000000057
              ],
              [
                106.60204100000004,
                20.888621000000057
              ],
              [
                106.60196500000006,
                20.88865100000004
              ],
              [
                106.60178300000007,
                20.888749000000075
              ],
              [
                106.60167000000007,
                20.88887900000003
              ],
              [
                106.60146600000007,
                20.88911100000007
              ],
              [
                106.60123200000004,
                20.889335000000074
              ],
              [
                106.60098600000003,
                20.88950600000004
              ],
              [
                106.60082400000005,
                20.889669000000026
              ],
              [
                106.60059400000006,
                20.88981300000006
              ],
              [
                106.60035100000005,
                20.88989900000007
              ],
              [
                106.60010000000005,
                20.889957000000038
              ],
              [
                106.59984800000007,
                20.889980000000037
              ],
              [
                106.59939800000006,
                20.889959000000033
              ],
              [
                106.59949800000004,
                20.890458000000024
              ],
              [
                106.59955800000006,
                20.890801000000067
              ],
              [
                106.59955900000006,
                20.890806000000055
              ],
              [
                106.59949800000004,
                20.890815000000032
              ],
              [
                106.59944800000005,
                20.89082200000007
              ],
              [
                106.59907800000008,
                20.89087100000006
              ],
              [
                106.59871300000003,
                20.890931000000023
              ],
              [
                106.59847600000006,
                20.891001000000074
              ],
              [
                106.59845300000006,
                20.891008000000056
              ],
              [
                106.59801100000004,
                20.891179000000022
              ],
              [
                106.59787300000005,
                20.89123200000006
              ],
              [
                106.59756800000008,
                20.891365000000064
              ],
              [
                106.59747100000004,
                20.89140800000007
              ],
              [
                106.59731600000003,
                20.89147500000007
              ],
              [
                106.59688400000005,
                20.891665000000046
              ],
              [
                106.59686100000005,
                20.891674000000023
              ],
              [
                106.59678500000007,
                20.891710000000046
              ],
              [
                106.59551000000005,
                20.892300000000034
              ],
              [
                106.59545200000008,
                20.892318000000046
              ],
              [
                106.59518000000008,
                20.892404000000056
              ],
              [
                106.59509700000007,
                20.892418000000077
              ],
              [
                106.59500200000008,
                20.892434000000037
              ],
              [
                106.59496700000005,
                20.892440000000022
              ],
              [
                106.59463500000004,
                20.89249600000005
              ],
              [
                106.59414200000003,
                20.89257800000007
              ],
              [
                106.59408500000006,
                20.892657000000042
              ],
              [
                106.59366700000004,
                20.893072000000075
              ],
              [
                106.59357600000004,
                20.893147000000056
              ],
              [
                106.59335400000003,
                20.89333300000004
              ],
              [
                106.59278100000006,
                20.893631000000028
              ],
              [
                106.59273700000006,
                20.893654000000026
              ],
              [
                106.59268600000007,
                20.89367500000003
              ],
              [
                106.59191100000004,
                20.893996000000072
              ],
              [
                106.59156500000006,
                20.894129000000078
              ],
              [
                106.59142000000008,
                20.89418500000005
              ],
              [
                106.59132400000004,
                20.89422200000007
              ],
              [
                106.59128500000008,
                20.894237000000032
              ],
              [
                106.59108900000007,
                20.894314000000065
              ],
              [
                106.59019400000005,
                20.894667000000027
              ],
              [
                106.58984300000009,
                20.89481200000006
              ],
              [
                106.58900400000005,
                20.895156000000043
              ],
              [
                106.58711400000004,
                20.89588100000003
              ],
              [
                106.58631400000007,
                20.89618500000006
              ],
              [
                106.58537600000005,
                20.89650000000006
              ],
              [
                106.58515500000004,
                20.89658600000007
              ],
              [
                106.58459300000004,
                20.896806000000026
              ],
              [
                106.58406500000007,
                20.897053000000028
              ],
              [
                106.58353700000004,
                20.89730000000003
              ],
              [
                106.58285400000005,
                20.897703000000035
              ],
              [
                106.58247500000004,
                20.897925000000043
              ],
              [
                106.58170700000005,
                20.898401000000035
              ],
              [
                106.58168800000004,
                20.898412000000064
              ],
              [
                106.58110700000009,
                20.898771000000067
              ],
              [
                106.58106500000008,
                20.89879700000006
              ],
              [
                106.58061100000003,
                20.89907800000003
              ],
              [
                106.58049700000004,
                20.899155000000064
              ],
              [
                106.57982700000008,
                20.899609000000055
              ],
              [
                106.57956600000006,
                20.899785000000065
              ],
              [
                106.57951900000006,
                20.89981700000004
              ],
              [
                106.57914000000005,
                20.90014700000006
              ],
              [
                106.57890100000009,
                20.900355000000047
              ],
              [
                106.57839800000005,
                20.900867000000062
              ],
              [
                106.57816700000006,
                20.901154000000076
              ],
              [
                106.57808100000005,
                20.901261000000034
              ],
              [
                106.57798000000008,
                20.901388000000054
              ],
              [
                106.57792600000005,
                20.901454000000058
              ],
              [
                106.57776400000006,
                20.90165600000006
              ],
              [
                106.57761400000004,
                20.90186300000005
              ],
              [
                106.57747500000005,
                20.902054000000078
              ],
              [
                106.57708900000006,
                20.902586000000042
              ],
              [
                106.57689900000008,
                20.902847000000065
              ],
              [
                106.57600900000006,
                20.90405000000004
              ]
            ]
          ]
        ]
      }
    }
  ]
}