{
  "type": "FeatureCollection",
  "name": "gis.vn",
  "features": [
    {
      "type": "Feature",
      "properties": {
        "ma_xa": "11617",
        "ten_xa": "An Hải",
        "sap_nhap": "An Đồng, Hồng Thái, Lê Lợi (1 phần), An Hải (1 phần), Đồng Thái (1 phần)",
        "tru_so": "đang cập nhật",
        "loai": "Phường",
        "cap": 2,
        "stt": 23,
        "dtich_km2": 19.96,
        "dan_so": 77086,
        "matdo_km2": 3862.02,
        "ma_tinh": "31",
        "ten_tinh": "Hải Phòng",
        "mau_sac": "#FF0055"
      },
      "geometry": {
        "type": "MultiPolygon",
        "coordinates": [
          [
            [
              [
                106.62332600000008,
                20.872292000000073
              ],
              [
                106.62309200000004,
                20.872298000000058
              ],
              [
                106.62278000000003,
                20.87228600000003
              ],
              [
                106.62243300000006,
                20.872227000000066
              ],
              [
                106.62207300000006,
                20.872132000000022
              ],
              [
                106.62175100000007,
                20.872024000000067
              ],
              [
                106.62182100000007,
                20.871844000000067
              ],
              [
                106.62189600000005,
                20.871654000000035
              ],
              [
                106.62190100000004,
                20.871593000000075
              ],
              [
                106.62192400000004,
                20.87131000000005
              ],
              [
                106.62190500000008,
                20.871201000000042
              ],
              [
                106.62187100000006,
                20.871064000000047
              ],
              [
                106.62179300000008,
                20.870795000000044
              ],
              [
                106.62136300000009,
                20.869328000000053
              ],
              [
                106.62108400000005,
                20.868434000000036
              ],
              [
                106.62098600000007,
                20.86812800000007
              ],
              [
                106.62089300000008,
                20.867834000000073
              ],
              [
                106.62069900000006,
                20.867857000000072
              ],
              [
                106.62032600000003,
                20.867864000000054
              ],
              [
                106.61875400000008,
                20.867836000000068
              ],
              [
                106.61802100000006,
                20.867800000000045
              ],
              [
                106.61780000000005,
                20.867787000000078
              ],
              [
                106.61762000000004,
                20.867766000000074
              ],
              [
                106.61776500000008,
                20.86676700000004
              ],
              [
                106.61787400000009,
                20.865902000000062
              ],
              [
                106.61794400000008,
                20.865328000000034
              ],
              [
                106.61802200000005,
                20.864416000000062
              ],
              [
                106.61809200000005,
                20.86388100000005
              ],
              [
                106.61815100000007,
                20.863103000000024
              ],
              [
                106.61661000000004,
                20.86326500000007
              ],
              [
                106.61483000000004,
                20.863459000000034
              ],
              [
                106.61386400000004,
                20.86356500000005
              ],
              [
                106.61387600000006,
                20.863383000000056
              ],
              [
                106.61393700000008,
                20.862739000000033
              ],
              [
                106.61396200000007,
                20.862474000000077
              ],
              [
                106.61406000000005,
                20.861863000000028
              ],
              [
                106.61408900000004,
                20.861717000000056
              ],
              [
                106.61415700000003,
                20.861417000000074
              ],
              [
                106.61422100000004,
                20.86111100000005
              ],
              [
                106.61451600000004,
                20.859818000000075
              ],
              [
                106.61453700000004,
                20.859754000000066
              ],
              [
                106.61485100000004,
                20.85881500000005
              ],
              [
                106.61496900000009,
                20.85846200000003
              ],
              [
                106.61508500000008,
                20.858116000000052
              ],
              [
                106.61559300000005,
                20.856546000000037
              ],
              [
                106.61575500000004,
                20.855995000000064
              ],
              [
                106.61581800000005,
                20.855795000000057
              ],
              [
                106.61598000000004,
                20.855282000000045
              ],
              [
                106.61629500000004,
                20.854418000000067
              ],
              [
                106.61651900000004,
                20.85373100000004
              ],
              [
                106.61653500000006,
                20.853684000000044
              ],
              [
                106.61671300000006,
                20.85313000000008
              ],
              [
                106.61706900000007,
                20.852072000000078
              ],
              [
                106.61730100000005,
                20.85136200000005
              ],
              [
                106.61763400000007,
                20.85060500000003
              ],
              [
                106.61766100000006,
                20.850543000000073
              ],
              [
                106.61842900000005,
                20.848895000000027
              ],
              [
                106.61889000000008,
                20.847747000000027
              ],
              [
                106.61893400000008,
                20.847639000000072
              ],
              [
                106.61909200000008,
                20.847253000000023
              ],
              [
                106.61913400000009,
                20.847173000000055
              ],
              [
                106.61917500000004,
                20.847094000000027
              ],
              [
                106.61920500000008,
                20.84702500000003
              ],
              [
                106.61947600000008,
                20.84640600000006
              ],
              [
                106.61980800000003,
                20.845679000000075
              ],
              [
                106.61990100000008,
                20.845390000000066
              ],
              [
                106.61990700000007,
                20.84537400000005
              ],
              [
                106.61993700000005,
                20.845300000000066
              ],
              [
                106.62000300000005,
                20.845137000000022
              ],
              [
                106.62006900000006,
                20.844974000000036
              ],
              [
                106.62009600000005,
                20.84490900000003
              ],
              [
                106.62010700000008,
                20.844881000000044
              ],
              [
                106.62012300000004,
                20.844844000000023
              ],
              [
                106.62036800000004,
                20.844265000000064
              ],
              [
                106.62058100000007,
                20.843758000000037
              ],
              [
                106.61871400000007,
                20.842268000000047
              ],
              [
                106.61737800000009,
                20.84120800000005
              ],
              [
                106.61671300000006,
                20.840680000000077
              ],
              [
                106.61649800000004,
                20.840588000000025
              ],
              [
                106.61634400000008,
                20.840485000000058
              ],
              [
                106.61622200000005,
                20.840115000000026
              ],
              [
                106.61614900000006,
                20.839378000000067
              ],
              [
                106.61613400000005,
                20.839331000000072
              ],
              [
                106.61526700000007,
                20.838940000000036
              ],
              [
                106.61525700000004,
                20.83871000000005
              ],
              [
                106.61497200000008,
                20.838455000000067
              ],
              [
                106.61444000000006,
                20.83821800000004
              ],
              [
                106.61377000000005,
                20.838037000000043
              ],
              [
                106.61378200000007,
                20.837924000000044
              ],
              [
                106.61378900000005,
                20.837860000000035
              ],
              [
                106.61379600000004,
                20.837793000000033
              ],
              [
                106.61437100000006,
                20.837886000000026
              ],
              [
                106.61440400000004,
                20.837388000000033
              ],
              [
                106.61398800000006,
                20.837226000000044
              ],
              [
                106.61381700000004,
                20.83694500000007
              ],
              [
                106.61376400000006,
                20.836824000000036
              ],
              [
                106.61380400000007,
                20.83655600000003
              ],
              [
                106.61409300000008,
                20.83635000000004
              ],
              [
                106.61365100000006,
                20.835668000000055
              ],
              [
                106.61240800000007,
                20.833864000000062
              ],
              [
                106.61216500000006,
                20.833532000000048
              ],
              [
                106.61330700000008,
                20.83285900000004
              ],
              [
                106.61195600000008,
                20.83092400000004
              ],
              [
                106.61143000000004,
                20.830076000000076
              ],
              [
                106.61122300000005,
                20.83009400000003
              ],
              [
                106.61098400000009,
                20.829601000000025
              ],
              [
                106.61119900000006,
                20.829518000000064
              ],
              [
                106.61111000000005,
                20.829211000000043
              ],
              [
                106.61133300000006,
                20.829095000000052
              ],
              [
                106.61116500000009,
                20.82873100000006
              ],
              [
                106.61052200000006,
                20.82911100000007
              ],
              [
                106.61019700000008,
                20.828643000000056
              ],
              [
                106.61045400000006,
                20.828446000000042
              ],
              [
                106.60973500000006,
                20.827357000000063
              ],
              [
                106.60987800000004,
                20.827087000000063
              ],
              [
                106.61032400000005,
                20.82679100000007
              ],
              [
                106.60946400000006,
                20.825427000000047
              ],
              [
                106.60931500000004,
                20.825282000000072
              ],
              [
                106.60916900000007,
                20.82498300000003
              ],
              [
                106.60949900000008,
                20.824868000000038
              ],
              [
                106.60940000000005,
                20.824640000000045
              ],
              [
                106.60896500000007,
                20.82479100000006
              ],
              [
                106.60855100000003,
                20.824080000000038
              ],
              [
                106.60916900000007,
                20.82374200000004
              ],
              [
                106.60901100000007,
                20.82341800000006
              ],
              [
                106.60854700000004,
                20.823626000000047
              ],
              [
                106.60808000000009,
                20.82281000000006
              ],
              [
                106.60851800000006,
                20.822613000000047
              ],
              [
                106.60836700000004,
                20.82225600000004
              ],
              [
                106.60826900000006,
                20.822275000000047
              ],
              [
                106.60813700000006,
                20.82234200000005
              ],
              [
                106.60796000000005,
                20.82241300000004
              ],
              [
                106.60699700000004,
                20.820611000000042
              ],
              [
                106.60733400000004,
                20.82055500000007
              ],
              [
                106.60763500000007,
                20.820505000000026
              ],
              [
                106.60947100000004,
                20.820080000000075
              ],
              [
                106.61066300000005,
                20.819710000000043
              ],
              [
                106.61123900000007,
                20.819530000000043
              ],
              [
                106.61487300000005,
                20.818112000000042
              ],
              [
                106.61596400000008,
                20.81766700000003
              ],
              [
                106.61666100000008,
                20.81738800000005
              ],
              [
                106.61714300000006,
                20.81719300000003
              ],
              [
                106.61728300000004,
                20.817136000000062
              ],
              [
                106.61781100000007,
                20.816921000000036
              ],
              [
                106.61860200000007,
                20.81659200000007
              ],
              [
                106.61904000000004,
                20.81645000000003
              ],
              [
                106.61924900000008,
                20.816382000000033
              ],
              [
                106.61960100000005,
                20.816324000000066
              ],
              [
                106.61998400000004,
                20.81628500000005
              ],
              [
                106.62013300000007,
                20.816273000000024
              ],
              [
                106.62058900000005,
                20.816286000000048
              ],
              [
                106.62113700000003,
                20.816299000000072
              ],
              [
                106.62121300000007,
                20.816301000000067
              ],
              [
                106.62125700000007,
                20.816302000000064
              ],
              [
                106.62143100000009,
                20.816333000000043
              ],
              [
                106.62201500000003,
                20.81643900000006
              ],
              [
                106.62362700000006,
                20.81705800000003
              ],
              [
                106.62386100000003,
                20.81714800000003
              ],
              [
                106.62613900000008,
                20.818331000000057
              ],
              [
                106.62687100000005,
                20.818775000000073
              ],
              [
                106.62741100000005,
                20.819173000000035
              ],
              [
                106.62789100000003,
                20.81962500000003
              ],
              [
                106.62839500000007,
                20.820070000000044
              ],
              [
                106.62855900000005,
                20.820294000000047
              ],
              [
                106.62874300000004,
                20.820557000000065
              ],
              [
                106.62927800000006,
                20.821248000000026
              ],
              [
                106.63004200000006,
                20.822339000000056
              ],
              [
                106.63066700000007,
                20.822988000000066
              ],
              [
                106.63166600000005,
                20.823960000000056
              ],
              [
                106.63210300000009,
                20.824335000000076
              ],
              [
                106.63271100000009,
                20.824730000000045
              ],
              [
                106.63356600000009,
                20.82526100000007
              ],
              [
                106.63491600000003,
                20.825930000000028
              ],
              [
                106.63614800000005,
                20.82651800000008
              ],
              [
                106.63753300000008,
                20.827331000000072
              ],
              [
                106.63790800000004,
                20.82757300000003
              ],
              [
                106.63853700000004,
                20.82800100000003
              ],
              [
                106.63904500000007,
                20.828292000000033
              ],
              [
                106.63994800000006,
                20.82875800000005
              ],
              [
                106.64095200000008,
                20.829139000000055
              ],
              [
                106.64183000000008,
                20.82937400000003
              ],
              [
                106.64217200000007,
                20.829421000000025
              ],
              [
                106.64260000000007,
                20.829485000000034
              ],
              [
                106.64383700000008,
                20.82967000000008
              ],
              [
                106.64402700000005,
                20.82967700000006
              ],
              [
                106.64436900000004,
                20.82968900000003
              ],
              [
                106.64479500000004,
                20.829646000000025
              ],
              [
                106.64539400000007,
                20.829574000000036
              ],
              [
                106.64634600000005,
                20.829267000000073
              ],
              [
                106.64750900000007,
                20.82868300000007
              ],
              [
                106.64834200000007,
                20.828157000000033
              ],
              [
                106.64905300000004,
                20.827642000000026
              ],
              [
                106.65042600000004,
                20.826647000000037
              ],
              [
                106.65124500000007,
                20.826197000000036
              ],
              [
                106.65206800000004,
                20.825938000000065
              ],
              [
                106.65290600000009,
                20.825822000000073
              ],
              [
                106.65350400000005,
                20.825924000000043
              ],
              [
                106.65393000000006,
                20.826088000000027
              ],
              [
                106.65432000000004,
                20.826284000000044
              ],
              [
                106.65439200000009,
                20.826337000000024
              ],
              [
                106.65453100000008,
                20.826441000000045
              ],
              [
                106.65463900000009,
                20.82652100000007
              ],
              [
                106.65468300000003,
                20.826553000000047
              ],
              [
                106.65517800000003,
                20.82707300000004
              ],
              [
                106.65537400000005,
                20.827322000000038
              ],
              [
                106.65570400000007,
                20.827740000000063
              ],
              [
                106.65579800000006,
                20.827980000000025
              ],
              [
                106.65592900000007,
                20.82831200000004
              ],
              [
                106.65604700000006,
                20.828806000000043
              ],
              [
                106.65615000000008,
                20.829705000000047
              ],
              [
                106.65612700000008,
                20.830429000000038
              ],
              [
                106.65593500000006,
                20.83132500000005
              ],
              [
                106.65563400000008,
                20.83193200000005
              ],
              [
                106.65524600000003,
                20.83233000000007
              ],
              [
                106.65452700000009,
                20.83298700000006
              ],
              [
                106.65376000000003,
                20.833582000000035
              ],
              [
                106.65330600000004,
                20.83393300000006
              ],
              [
                106.65193300000004,
                20.834951000000046
              ],
              [
                106.65128900000008,
                20.835493000000042
              ],
              [
                106.65081800000007,
                20.835982000000058
              ],
              [
                106.65042100000005,
                20.83639500000004
              ],
              [
                106.65002700000008,
                20.836974000000055
              ],
              [
                106.64975800000008,
                20.837642000000073
              ],
              [
                106.64966100000004,
                20.838497000000075
              ],
              [
                106.64965700000005,
                20.83886700000005
              ],
              [
                106.64977800000008,
                20.839619000000027
              ],
              [
                106.64993500000008,
                20.84003800000005
              ],
              [
                106.65008200000005,
                20.840431000000024
              ],
              [
                106.65069800000003,
                20.841572000000042
              ],
              [
                106.65123300000005,
                20.842231000000027
              ],
              [
                106.65188200000006,
                20.84297600000008
              ],
              [
                106.65220800000009,
                20.843226000000072
              ],
              [
                106.65254200000004,
                20.843398000000036
              ],
              [
                106.65300700000006,
                20.843586000000073
              ],
              [
                106.65373400000004,
                20.843823000000043
              ],
              [
                106.65423300000003,
                20.843943000000024
              ],
              [
                106.65476900000004,
                20.84399700000006
              ],
              [
                106.65581100000009,
                20.843905000000063
              ],
              [
                106.65695200000005,
                20.84364400000004
              ],
              [
                106.65765900000008,
                20.843403000000023
              ],
              [
                106.65791600000006,
                20.843904000000066
              ],
              [
                106.65827100000007,
                20.844595000000027
              ],
              [
                106.65908300000007,
                20.84583800000007
              ],
              [
                106.65968600000008,
                20.846835000000056
              ],
              [
                106.66062100000005,
                20.848382000000072
              ],
              [
                106.66118700000004,
                20.84929500000004
              ],
              [
                106.66202200000004,
                20.85053700000003
              ],
              [
                106.66207900000006,
                20.85064600000004
              ],
              [
                106.66268800000006,
                20.851572000000033
              ],
              [
                106.66320100000007,
                20.852044000000035
              ],
              [
                106.66367900000006,
                20.85256000000004
              ],
              [
                106.66392400000007,
                20.85301000000004
              ],
              [
                106.66375200000004,
                20.85298000000006
              ],
              [
                106.66368100000005,
                20.852990000000034
              ],
              [
                106.66348300000004,
                20.853018000000077
              ],
              [
                106.66306900000006,
                20.853146000000038
              ],
              [
                106.66255200000006,
                20.85329500000006
              ],
              [
                106.66224300000005,
                20.85340800000006
              ],
              [
                106.66205700000006,
                20.85348300000004
              ],
              [
                106.66185500000006,
                20.853598000000034
              ],
              [
                106.66148900000007,
                20.85382100000004
              ],
              [
                106.66122200000007,
                20.85399300000006
              ],
              [
                106.66105200000004,
                20.854111000000046
              ],
              [
                106.66083200000008,
                20.85432000000003
              ],
              [
                106.66059300000006,
                20.85455600000006
              ],
              [
                106.66052500000006,
                20.854638000000023
              ],
              [
                106.66046900000003,
                20.854711000000066
              ],
              [
                106.65985800000004,
                20.85554200000007
              ],
              [
                106.65971700000006,
                20.855916000000036
              ],
              [
                106.65966000000009,
                20.85624000000007
              ],
              [
                106.65971700000006,
                20.856547000000035
              ],
              [
                106.65995800000007,
                20.85701800000004
              ],
              [
                106.66033800000008,
                20.857545000000073
              ],
              [
                106.66051000000004,
                20.857902000000024
              ],
              [
                106.66074500000008,
                20.85849500000006
              ],
              [
                106.66087400000004,
                20.859096000000022
              ],
              [
                106.66100400000005,
                20.85986900000006
              ],
              [
                106.66094600000008,
                20.860171000000037
              ],
              [
                106.66083500000008,
                20.86047300000007
              ],
              [
                106.66059500000006,
                20.86084100000005
              ],
              [
                106.66024100000004,
                20.861260000000073
              ],
              [
                106.65975800000007,
                20.861681000000033
              ],
              [
                106.65910900000006,
                20.861962000000062
              ],
              [
                106.65867700000007,
                20.862010000000055
              ],
              [
                106.65845300000007,
                20.86204200000003
              ],
              [
                106.65790200000004,
                20.862062000000037
              ],
              [
                106.65727600000008,
                20.86210200000005
              ],
              [
                106.65653800000007,
                20.862111000000027
              ],
              [
                106.65620400000006,
                20.86208300000004
              ],
              [
                106.65573800000004,
                20.86199000000005
              ],
              [
                106.65525700000006,
                20.86184600000007
              ],
              [
                106.65499200000005,
                20.86173400000007
              ],
              [
                106.65478100000007,
                20.86163300000004
              ],
              [
                106.65432200000004,
                20.861395000000073
              ],
              [
                106.65385900000007,
                20.861147000000074
              ],
              [
                106.65347900000006,
                20.86093500000004
              ],
              [
                106.65339400000005,
                20.860903000000064
              ],
              [
                106.65308500000003,
                20.860779000000036
              ],
              [
                106.65277300000008,
                20.86066100000005
              ],
              [
                106.65259600000007,
                20.860592000000054
              ],
              [
                106.65228300000007,
                20.860509000000036
              ],
              [
                106.65196000000009,
                20.860433000000057
              ],
              [
                106.65176300000007,
                20.86038700000006
              ],
              [
                106.65143700000004,
                20.860314000000074
              ],
              [
                106.65065900000008,
                20.860086000000024
              ],
              [
                106.65060700000004,
                20.86007600000005
              ],
              [
                106.65050900000006,
                20.860056000000043
              ],
              [
                106.65048500000006,
                20.860050000000058
              ],
              [
                106.65036500000008,
                20.860017000000028
              ],
              [
                106.65010500000005,
                20.859947000000034
              ],
              [
                106.64978800000006,
                20.859871000000055
              ],
              [
                106.64955400000008,
                20.859821000000068
              ],
              [
                106.64935300000008,
                20.859772000000078
              ],
              [
                106.64927200000005,
                20.859739000000047
              ],
              [
                106.64914600000009,
                20.859728000000075
              ],
              [
                106.64893500000005,
                20.859736000000055
              ],
              [
                106.64881200000008,
                20.85976100000005
              ],
              [
                106.64870600000006,
                20.859789000000035
              ],
              [
                106.64844300000004,
                20.859973000000025
              ],
              [
                106.64805300000006,
                20.86045000000007
              ],
              [
                106.64749900000004,
                20.86119300000007
              ],
              [
                106.64703900000006,
                20.861766000000046
              ],
              [
                106.64691200000004,
                20.861935000000074
              ],
              [
                106.64671200000004,
                20.862167000000056
              ],
              [
                106.64662900000008,
                20.862275000000068
              ],
              [
                106.64651900000007,
                20.862416000000053
              ],
              [
                106.64641600000004,
                20.86250300000006
              ],
              [
                106.64625800000005,
                20.86263500000007
              ],
              [
                106.64592200000004,
                20.862914000000046
              ],
              [
                106.64558500000004,
                20.86318700000004
              ],
              [
                106.64527000000004,
                20.863448000000062
              ],
              [
                106.64507400000008,
                20.863616000000036
              ],
              [
                106.64483400000006,
                20.863784000000066
              ],
              [
                106.64458700000006,
                20.863942000000065
              ],
              [
                106.64434700000004,
                20.86409100000003
              ],
              [
                106.64407000000006,
                20.86421400000006
              ],
              [
                106.64381400000008,
                20.864337000000035
              ],
              [
                106.64341000000007,
                20.86446200000006
              ],
              [
                106.64288400000004,
                20.864611000000025
              ],
              [
                106.64248100000003,
                20.864711000000057
              ],
              [
                106.64202100000006,
                20.864806000000044
              ],
              [
                106.64147500000007,
                20.86483400000003
              ],
              [
                106.64117500000003,
                20.864851000000044
              ],
              [
                106.64083100000005,
                20.864835000000028
              ],
              [
                106.64051800000004,
                20.86480700000004
              ],
              [
                106.64026600000005,
                20.864761000000044
              ],
              [
                106.64005900000006,
                20.864708000000064
              ],
              [
                106.63984500000004,
                20.86463200000003
              ],
              [
                106.63949500000007,
                20.864514000000042
              ],
              [
                106.63912900000008,
                20.864373000000057
              ],
              [
                106.63892100000004,
                20.86430400000006
              ],
              [
                106.63853400000005,
                20.864179000000036
              ],
              [
                106.63813000000005,
                20.86404200000004
              ],
              [
                106.63767000000007,
                20.863900000000058
              ],
              [
                106.63728800000007,
                20.863804000000073
              ],
              [
                106.63656400000008,
                20.86367800000005
              ],
              [
                106.63572000000005,
                20.863609000000054
              ],
              [
                106.63494600000007,
                20.863578000000075
              ],
              [
                106.63420500000007,
                20.863691000000074
              ],
              [
                106.63323200000008,
                20.863987000000066
              ],
              [
                106.63249400000007,
                20.86444300000005
              ],
              [
                106.63203000000004,
                20.864820000000066
              ],
              [
                106.63142600000003,
                20.86537100000004
              ],
              [
                106.63092600000004,
                20.866131000000053
              ],
              [
                106.63037900000006,
                20.867341000000067
              ],
              [
                106.63010300000008,
                20.868146000000024
              ],
              [
                106.62985000000003,
                20.868634000000043
              ],
              [
                106.62975700000004,
                20.86876600000005
              ],
              [
                106.62945300000007,
                20.86917100000005
              ],
              [
                106.62899900000008,
                20.869687000000056
              ],
              [
                106.62872700000008,
                20.869979000000058
              ],
              [
                106.62847600000003,
                20.870218000000023
              ],
              [
                106.62825000000004,
                20.87040200000007
              ],
              [
                106.62808500000006,
                20.870538000000067
              ],
              [
                106.62784800000009,
                20.870738000000074
              ],
              [
                106.62770400000005,
                20.870836000000054
              ],
              [
                106.62747100000007,
                20.870956000000035
              ],
              [
                106.62694600000003,
                20.87120600000003
              ],
              [
                106.62687200000005,
                20.87123500000007
              ],
              [
                106.62679100000008,
                20.87125100000003
              ],
              [
                106.62668600000006,
                20.87129600000003
              ],
              [
                106.62646300000006,
                20.871369000000072
              ],
              [
                106.62557700000008,
                20.87173400000006
              ],
              [
                106.62443900000005,
                20.87208000000004
              ],
              [
                106.62401500000004,
                20.872172000000035
              ],
              [
                106.62350800000007,
                20.872265000000027
              ],
              [
                106.62332600000008,
                20.872292000000073
              ]
            ]
          ]
        ]
      }
    }
  ]
}