{
  "type": "FeatureCollection",
  "name": "gis.vn",
  "features": [
    {
      "type": "Feature",
      "properties": {
        "ma_xa": "11593",
        "ten_xa": "An Phong",
        "sap_nhap": "An Hòa, Hồng Phong, Đại Bản (1 phần), Lê Thiện (1 phần), Tân Tiến (1 phần), Lê Lợi (1 phần)",
        "tru_so": "đang cập nhật",
        "loai": "Phường",
        "cap": 2,
        "stt": 24,
        "dtich_km2": 27.92,
        "dan_so": 44660,
        "matdo_km2": 1599.57,
        "ma_tinh": "31",
        "ten_tinh": "Hải Phòng",
        "mau_sac": "#00FF00"
      },
      "geometry": {
        "type": "MultiPolygon",
        "coordinates": [
          [
            [
              [
                106.57237200000009,
                20.931785000000048
              ],
              [
                106.57176700000008,
                20.932293000000072
              ],
              [
                106.57118300000008,
                20.93288300000006
              ],
              [
                106.57092400000005,
                20.933189000000027
              ],
              [
                106.57066300000008,
                20.93364900000006
              ],
              [
                106.57040800000004,
                20.93419300000005
              ],
              [
                106.57030100000009,
                20.934627000000035
              ],
              [
                106.57026700000006,
                20.934907000000067
              ],
              [
                106.57025800000008,
                20.935144000000037
              ],
              [
                106.57028700000006,
                20.935420000000022
              ],
              [
                106.57032400000008,
                20.935534000000075
              ],
              [
                106.57061100000004,
                20.93628300000006
              ],
              [
                106.57080900000005,
                20.936712000000057
              ],
              [
                106.57101100000006,
                20.937114000000065
              ],
              [
                106.57104800000008,
                20.93718700000005
              ],
              [
                106.57145800000006,
                20.937547000000052
              ],
              [
                106.57172000000008,
                20.93774700000006
              ],
              [
                106.57230600000008,
                20.938048000000038
              ],
              [
                106.57442600000007,
                20.939291000000026
              ],
              [
                106.57553200000007,
                20.93995300000006
              ],
              [
                106.57670400000006,
                20.940922000000057
              ],
              [
                106.57762300000007,
                20.941726000000074
              ],
              [
                106.57804800000008,
                20.942308000000025
              ],
              [
                106.57805800000006,
                20.942322000000047
              ],
              [
                106.57851200000005,
                20.94328500000006
              ],
              [
                106.57871200000005,
                20.944164000000058
              ],
              [
                106.57877300000007,
                20.94506300000006
              ],
              [
                106.57858000000004,
                20.94587800000005
              ],
              [
                106.57822500000009,
                20.946650000000034
              ],
              [
                106.57756600000005,
                20.94774700000005
              ],
              [
                106.57686400000006,
                20.948517000000038
              ],
              [
                106.57574300000005,
                20.949447000000077
              ],
              [
                106.57448400000004,
                20.950294000000042
              ],
              [
                106.57327200000009,
                20.951039000000037
              ],
              [
                106.57145800000006,
                20.951738000000034
              ],
              [
                106.57029800000004,
                20.95187100000004
              ],
              [
                106.56930300000005,
                20.951761000000033
              ],
              [
                106.56863400000009,
                20.95140800000007
              ],
              [
                106.56799000000007,
                20.950933000000077
              ],
              [
                106.56795300000005,
                20.950860000000034
              ],
              [
                106.56767200000007,
                20.950298000000032
              ],
              [
                106.56754000000006,
                20.94952100000006
              ],
              [
                106.56763300000006,
                20.948942000000045
              ],
              [
                106.56773700000008,
                20.948298000000023
              ],
              [
                106.56807500000008,
                20.946851000000038
              ],
              [
                106.56844000000007,
                20.945017000000064
              ],
              [
                106.56859400000008,
                20.94340600000004
              ],
              [
                106.56870200000009,
                20.941815000000076
              ],
              [
                106.56859800000007,
                20.940548000000035
              ],
              [
                106.56833200000005,
                20.939321000000064
              ],
              [
                106.56787800000006,
                20.938378000000057
              ],
              [
                106.56696700000003,
                20.93650400000007
              ],
              [
                106.56696100000005,
                20.93649700000003
              ],
              [
                106.56603400000006,
                20.935414000000037
              ],
              [
                106.56514700000008,
                20.934682000000066
              ],
              [
                106.56437300000005,
                20.93412500000005
              ],
              [
                106.56400000000008,
                20.93389200000007
              ],
              [
                106.56292200000007,
                20.933294000000046
              ],
              [
                106.56111800000008,
                20.93236200000007
              ],
              [
                106.56036000000006,
                20.93209100000007
              ],
              [
                106.55916700000006,
                20.931790000000035
              ],
              [
                106.55840700000005,
                20.931704000000025
              ],
              [
                106.55797800000005,
                20.931707000000074
              ],
              [
                106.55754900000005,
                20.931710000000066
              ],
              [
                106.55717900000008,
                20.93180200000006
              ],
              [
                106.55703800000003,
                20.931887000000074
              ],
              [
                106.55702200000007,
                20.93189700000005
              ],
              [
                106.55632500000007,
                20.93231600000007
              ],
              [
                106.55577800000003,
                20.933016000000066
              ],
              [
                106.55552800000004,
                20.933821000000023
              ],
              [
                106.55543200000005,
                20.93476000000004
              ],
              [
                106.55556000000007,
                20.93537800000007
              ],
              [
                106.55574700000005,
                20.936503000000073
              ],
              [
                106.55577200000005,
                20.93686800000006
              ],
              [
                106.55585800000006,
                20.93766400000004
              ],
              [
                106.55594000000008,
                20.938380000000052
              ],
              [
                106.55602200000004,
                20.93904800000007
              ],
              [
                106.55608600000005,
                20.939505000000054
              ],
              [
                106.55619200000007,
                20.94039300000003
              ],
              [
                106.55622800000003,
                20.940841000000034
              ],
              [
                106.55622300000005,
                20.94145800000007
              ],
              [
                106.55620100000004,
                20.942187000000047
              ],
              [
                106.55614300000008,
                20.942994000000056
              ],
              [
                106.55607100000009,
                20.943734000000063
              ],
              [
                106.55600500000008,
                20.944173000000035
              ],
              [
                106.55590600000005,
                20.944831000000022
              ],
              [
                106.55583300000006,
                20.945288000000062
              ],
              [
                106.55579600000004,
                20.94558500000005
              ],
              [
                106.55573600000008,
                20.94604300000003
              ],
              [
                106.55566300000004,
                20.946503000000064
              ],
              [
                106.55558100000007,
                20.946954000000062
              ],
              [
                106.55550300000004,
                20.947414000000038
              ],
              [
                106.55547300000006,
                20.947542000000055
              ],
              [
                106.55542000000008,
                20.947637000000043
              ],
              [
                106.55518100000006,
                20.947959000000026
              ],
              [
                106.55499300000008,
                20.94819700000005
              ],
              [
                106.55457400000006,
                20.948357000000044
              ],
              [
                106.55390700000004,
                20.948529000000065
              ],
              [
                106.55322800000005,
                20.948513000000048
              ],
              [
                106.55232600000005,
                20.948185000000024
              ],
              [
                106.55115600000005,
                20.947555000000023
              ],
              [
                106.54988600000007,
                20.94695900000005
              ],
              [
                106.54921100000007,
                20.94673000000006
              ],
              [
                106.54854600000004,
                20.946642000000054
              ],
              [
                106.54771700000003,
                20.946758000000045
              ],
              [
                106.54690500000004,
                20.94711600000005
              ],
              [
                106.54652100000004,
                20.947512000000074
              ],
              [
                106.54629400000005,
                20.947884000000045
              ],
              [
                106.54610400000007,
                20.948343000000023
              ],
              [
                106.54555400000004,
                20.947421000000077
              ],
              [
                106.54442000000006,
                20.945952000000034
              ],
              [
                106.54463500000008,
                20.945619000000022
              ],
              [
                106.54329600000005,
                20.944342000000063
              ],
              [
                106.54332100000005,
                20.944318000000067
              ],
              [
                106.54362300000008,
                20.94398700000005
              ],
              [
                106.54380700000007,
                20.94378400000005
              ],
              [
                106.54392400000006,
                20.943655000000035
              ],
              [
                106.54388400000005,
                20.94341000000003
              ],
              [
                106.54341200000005,
                20.94051600000006
              ],
              [
                106.54314600000004,
                20.938645000000065
              ],
              [
                106.54300900000004,
                20.937674000000072
              ],
              [
                106.54296200000005,
                20.93734900000004
              ],
              [
                106.54319600000008,
                20.93681900000007
              ],
              [
                106.54332000000005,
                20.936442000000056
              ],
              [
                106.54342300000008,
                20.93598700000007
              ],
              [
                106.54344600000007,
                20.93570600000004
              ],
              [
                106.54346500000008,
                20.935520000000054
              ],
              [
                106.54348000000005,
                20.935365000000047
              ],
              [
                106.54345900000004,
                20.935156000000063
              ],
              [
                106.54338000000007,
                20.934894000000043
              ],
              [
                106.54313900000005,
                20.93429800000007
              ],
              [
                106.54296700000003,
                20.933978000000025
              ],
              [
                106.54238100000003,
                20.932997000000057
              ],
              [
                106.54205600000006,
                20.93232400000005
              ],
              [
                106.54189800000006,
                20.931734000000063
              ],
              [
                106.54185000000007,
                20.931430000000034
              ],
              [
                106.54181600000004,
                20.93122100000005
              ],
              [
                106.54181300000005,
                20.930916000000025
              ],
              [
                106.54184700000008,
                20.930558000000076
              ],
              [
                106.54193800000007,
                20.930109000000073
              ],
              [
                106.54206700000009,
                20.92967100000004
              ],
              [
                106.54231100000004,
                20.929215000000056
              ],
              [
                106.54259300000007,
                20.928878000000054
              ],
              [
                106.54330000000004,
                20.928236000000027
              ],
              [
                106.54384900000008,
                20.92787400000003
              ],
              [
                106.54414300000008,
                20.927657000000067
              ],
              [
                106.54428600000006,
                20.927456000000063
              ],
              [
                106.54431700000004,
                20.927310000000034
              ],
              [
                106.54428000000007,
                20.927099000000055
              ],
              [
                106.54413600000004,
                20.92685000000006
              ],
              [
                106.54387600000007,
                20.92652700000008
              ],
              [
                106.54346200000003,
                20.92604700000004
              ],
              [
                106.54303800000008,
                20.925549000000046
              ],
              [
                106.54274000000004,
                20.92513400000007
              ],
              [
                106.54249100000004,
                20.92469200000005
              ],
              [
                106.54235200000005,
                20.924380000000042
              ],
              [
                106.54229900000007,
                20.923875000000066
              ],
              [
                106.54238000000004,
                20.923482000000035
              ],
              [
                106.54254900000007,
                20.923190000000034
              ],
              [
                106.54271700000004,
                20.922953000000064
              ],
              [
                106.54292100000004,
                20.922787000000028
              ],
              [
                106.54327800000004,
                20.922631000000024
              ],
              [
                106.54345000000006,
                20.922582000000034
              ],
              [
                106.54376500000006,
                20.922517000000028
              ],
              [
                106.54401400000006,
                20.92248600000005
              ],
              [
                106.54424800000004,
                20.922522000000072
              ],
              [
                106.54432700000007,
                20.922555000000045
              ],
              [
                106.54451400000005,
                20.922634000000073
              ],
              [
                106.54462100000006,
                20.922665000000052
              ],
              [
                106.54485600000004,
                20.922732000000053
              ],
              [
                106.54540700000007,
                20.922889000000055
              ],
              [
                106.54577400000005,
                20.922972000000073
              ],
              [
                106.54601900000006,
                20.923032000000035
              ],
              [
                106.54627800000009,
                20.923029000000042
              ],
              [
                106.54655300000007,
                20.923013000000026
              ],
              [
                106.54683200000005,
                20.92296200000004
              ],
              [
                106.54710100000005,
                20.922874000000036
              ],
              [
                106.54742500000003,
                20.922689000000048
              ],
              [
                106.54783900000007,
                20.922456000000068
              ],
              [
                106.54813700000005,
                20.922205000000076
              ],
              [
                106.54838300000006,
                20.921920000000057
              ],
              [
                106.54847800000005,
                20.92174700000004
              ],
              [
                106.54855200000009,
                20.92152200000004
              ],
              [
                106.54859000000005,
                20.921273000000042
              ],
              [
                106.54860300000007,
                20.921005000000036
              ],
              [
                106.54859900000008,
                20.920671000000027
              ],
              [
                106.54856100000006,
                20.92035100000004
              ],
              [
                106.54852700000004,
                20.92006900000007
              ],
              [
                106.54841800000008,
                20.91985500000004
              ],
              [
                106.54829400000006,
                20.919636000000025
              ],
              [
                106.54810900000007,
                20.919437000000073
              ],
              [
                106.54777300000006,
                20.919186000000025
              ],
              [
                106.54763500000007,
                20.919126000000063
              ],
              [
                106.54747800000007,
                20.919092000000035
              ],
              [
                106.54724900000008,
                20.919065000000046
              ],
              [
                106.54705100000007,
                20.919092000000035
              ],
              [
                106.54681000000005,
                20.91910800000005
              ],
              [
                106.54657900000007,
                20.919197000000054
              ],
              [
                106.54634700000008,
                20.91933800000004
              ],
              [
                106.54612400000008,
                20.919534000000056
              ],
              [
                106.54593600000004,
                20.919772000000023
              ],
              [
                106.54560900000007,
                20.92032000000006
              ],
              [
                106.54522000000009,
                20.921016000000066
              ],
              [
                106.54494900000009,
                20.921416000000022
              ],
              [
                106.54465800000008,
                20.921673000000055
              ],
              [
                106.54438900000008,
                20.921823000000074
              ],
              [
                106.54395200000005,
                20.921954000000028
              ],
              [
                106.54381300000006,
                20.921988000000056
              ],
              [
                106.54331600000006,
                20.922011000000055
              ],
              [
                106.54293100000007,
                20.922002000000077
              ],
              [
                106.54250300000007,
                20.921925000000044
              ],
              [
                106.54186200000004,
                20.921691000000067
              ],
              [
                106.54146400000008,
                20.92146800000006
              ],
              [
                106.54119300000008,
                20.921264000000065
              ],
              [
                106.54096200000004,
                20.921033000000023
              ],
              [
                106.54073600000004,
                20.920637000000056
              ],
              [
                106.54067000000003,
                20.920435000000055
              ],
              [
                106.54062500000003,
                20.920086000000026
              ],
              [
                106.54067700000007,
                20.919693000000052
              ],
              [
                106.54089800000008,
                20.919081000000062
              ],
              [
                106.54093800000004,
                20.918944000000067
              ],
              [
                106.54091500000004,
                20.91882000000004
              ],
              [
                106.54083800000006,
                20.91864400000003
              ],
              [
                106.54069100000004,
                20.918506000000036
              ],
              [
                106.53982100000007,
                20.918062000000077
              ],
              [
                106.53904500000004,
                20.917722000000026
              ],
              [
                106.53902500000004,
                20.917718000000036
              ],
              [
                106.53877200000005,
                20.917707000000064
              ],
              [
                106.53840200000008,
                20.917685000000063
              ],
              [
                106.53814800000004,
                20.917701000000022
              ],
              [
                106.53693000000004,
                20.917778000000055
              ],
              [
                106.53634400000004,
                20.917688000000055
              ],
              [
                106.53601200000008,
                20.91755900000004
              ],
              [
                106.53541000000007,
                20.917147000000057
              ],
              [
                106.53506200000004,
                20.916719000000057
              ],
              [
                106.53472400000004,
                20.915946000000076
              ],
              [
                106.53451500000006,
                20.91539800000004
              ],
              [
                106.53436500000004,
                20.91446700000006
              ],
              [
                106.53430200000008,
                20.913362000000063
              ],
              [
                106.53418900000008,
                20.91289400000005
              ],
              [
                106.53402700000004,
                20.91252600000007
              ],
              [
                106.53376800000007,
                20.912157000000036
              ],
              [
                106.53360400000008,
                20.911991000000057
              ],
              [
                106.53340000000009,
                20.911879000000056
              ],
              [
                106.53318600000006,
                20.91182200000003
              ],
              [
                106.53303000000005,
                20.911803000000077
              ],
              [
                106.53278700000004,
                20.91179100000005
              ],
              [
                106.53255300000006,
                20.911826000000076
              ],
              [
                106.53207300000008,
                20.912005000000022
              ],
              [
                106.53159300000004,
                20.912285000000054
              ],
              [
                106.53112100000004,
                20.91268400000007
              ],
              [
                106.53087500000004,
                20.91296600000004
              ],
              [
                106.53072600000007,
                20.91324000000003
              ],
              [
                106.53053400000005,
                20.91391600000003
              ],
              [
                106.53041300000007,
                20.914428000000044
              ],
              [
                106.53025700000006,
                20.91487600000005
              ],
              [
                106.53007800000006,
                20.91521300000005
              ],
              [
                106.52988200000004,
                20.915413000000058
              ],
              [
                106.52962200000007,
                20.915576000000044
              ],
              [
                106.52929900000004,
                20.91566400000005
              ],
              [
                106.52894300000008,
                20.91571600000003
              ],
              [
                106.52835900000008,
                20.915684000000056
              ],
              [
                106.52782400000007,
                20.915505000000053
              ],
              [
                106.52779500000008,
                20.915496000000076
              ],
              [
                106.52770200000003,
                20.915426000000025
              ],
              [
                106.52757300000007,
                20.915329000000042
              ],
              [
                106.52741800000007,
                20.915144000000055
              ],
              [
                106.52735300000006,
                20.914869000000067
              ],
              [
                106.52739500000007,
                20.914521000000036
              ],
              [
                106.52762400000006,
                20.91404700000004
              ],
              [
                106.52783300000004,
                20.91360000000003
              ],
              [
                106.52793400000007,
                20.913298000000054
              ],
              [
                106.52803500000005,
                20.91286800000006
              ],
              [
                106.52809100000007,
                20.91262100000006
              ],
              [
                106.52809400000007,
                20.912365000000023
              ],
              [
                106.52807800000005,
                20.91197100000005
              ],
              [
                106.52802800000006,
                20.911091000000056
              ],
              [
                106.52805100000006,
                20.91071500000004
              ],
              [
                106.52817200000004,
                20.91035000000005
              ],
              [
                106.52832200000006,
                20.90999400000004
              ],
              [
                106.52838300000008,
                20.909655000000043
              ],
              [
                106.52838200000008,
                20.909280000000024
              ],
              [
                106.52829700000007,
                20.90905900000007
              ],
              [
                106.52807500000006,
                20.908828000000028
              ],
              [
                106.52777400000008,
                20.908642000000043
              ],
              [
                106.52743400000008,
                20.908520000000067
              ],
              [
                106.52716400000008,
                20.90831600000007
              ],
              [
                106.52706800000004,
                20.908160000000066
              ],
              [
                106.52705000000009,
                20.907967000000042
              ],
              [
                106.52709100000004,
                20.907729000000074
              ],
              [
                106.52723000000009,
                20.907492000000047
              ],
              [
                106.52746600000006,
                20.90731100000005
              ],
              [
                106.52779400000009,
                20.907158000000038
              ],
              [
                106.52842900000007,
                20.906962000000078
              ],
              [
                106.52896600000008,
                20.906829000000073
              ],
              [
                106.52955200000008,
                20.90677000000005
              ],
              [
                106.53005800000005,
                20.90675600000003
              ],
              [
                106.53060400000004,
                20.90677900000003
              ],
              [
                106.53094500000009,
                20.906791000000055
              ],
              [
                106.53117900000007,
                20.90676600000006
              ],
              [
                106.53137500000008,
                20.90665800000005
              ],
              [
                106.53152300000005,
                20.906503000000043
              ],
              [
                106.53155400000009,
                20.90633900000006
              ],
              [
                106.53151700000006,
                20.906127000000026
              ],
              [
                106.53130600000009,
                20.905732000000057
              ],
              [
                106.53105700000003,
                20.905345000000068
              ],
              [
                106.53087400000004,
                20.905114000000026
              ],
              [
                106.53080700000004,
                20.904903000000047
              ],
              [
                106.53080900000003,
                20.904738000000066
              ],
              [
                106.53087800000009,
                20.904629000000057
              ],
              [
                106.53102500000006,
                20.904566000000045
              ],
              [
                106.53137600000008,
                20.90456000000006
              ],
              [
                106.53171600000007,
                20.90465400000005
              ],
              [
                106.53195800000009,
                20.904803000000072
              ],
              [
                106.53220000000005,
                20.90500600000007
              ],
              [
                106.53250900000006,
                20.90526600000004
              ],
              [
                106.53275100000008,
                20.90544200000005
              ],
              [
                106.53303300000005,
                20.905545000000075
              ],
              [
                106.53326700000008,
                20.905556000000047
              ],
              [
                106.53352000000007,
                20.905503000000067
              ],
              [
                106.53359800000004,
                20.905458000000067
              ],
              [
                106.53373600000003,
                20.905377000000044
              ],
              [
                106.53392300000007,
                20.90514900000005
              ],
              [
                106.53404200000006,
                20.904940000000067
              ],
              [
                106.53408300000007,
                20.904757000000075
              ],
              [
                106.53407500000009,
                20.904629000000057
              ],
              [
                106.53397000000007,
                20.90432500000003
              ],
              [
                106.53377900000004,
                20.903966000000025
              ],
              [
                106.53361700000005,
                20.903580000000034
              ],
              [
                106.53354300000007,
                20.903140000000064
              ],
              [
                106.53358500000007,
                20.90288400000003
              ],
              [
                106.53370400000006,
                20.902701000000036
              ],
              [
                106.53393900000003,
                20.90253800000005
              ],
              [
                106.53439900000006,
                20.902359000000047
              ],
              [
                106.53476100000006,
                20.902188000000024
              ],
              [
                106.53519300000005,
                20.901880000000062
              ],
              [
                106.53568500000006,
                20.901362000000063
              ],
              [
                106.53591600000004,
                20.901181000000065
              ],
              [
                106.53616100000005,
                20.901064000000076
              ],
              [
                106.53649300000006,
                20.90100300000006
              ],
              [
                106.53685300000006,
                20.901006000000052
              ],
              [
                106.53775900000005,
                20.901023000000066
              ],
              [
                106.53834400000005,
                20.900973000000022
              ],
              [
                106.53903800000006,
                20.90082300000006
              ],
              [
                106.53957500000007,
                20.900653000000034
              ],
              [
                106.53992800000009,
                20.900482000000068
              ],
              [
                106.54016300000006,
                20.900319000000025
              ],
              [
                106.54027200000007,
                20.90013700000003
              ],
              [
                106.54030200000005,
                20.900027000000023
              ],
              [
                106.54026500000003,
                20.89988100000005
              ],
              [
                106.54010100000005,
                20.89974200000006
              ],
              [
                106.53974100000005,
                20.89959200000004
              ],
              [
                106.53912900000006,
                20.89939400000003
              ],
              [
                106.53863400000006,
                20.899207000000047
              ],
              [
                106.53831400000007,
                20.899076000000036
              ],
              [
                106.53815000000009,
                20.89892800000007
              ],
              [
                106.53803500000004,
                20.898753000000056
              ],
              [
                106.53797800000007,
                20.898569000000066
              ],
              [
                106.53797000000009,
                20.898368000000062
              ],
              [
                106.53810400000003,
                20.898085000000037
              ],
              [
                106.53837000000004,
                20.897830000000056
              ],
              [
                106.53866300000004,
                20.89770500000003
              ],
              [
                106.53910200000007,
                20.897663000000023
              ],
              [
                106.54001700000003,
                20.897808000000055
              ],
              [
                106.54064000000005,
                20.89787700000005
              ],
              [
                106.54100100000005,
                20.897853000000055
              ],
              [
                106.54125500000004,
                20.897718000000054
              ],
              [
                106.54138400000005,
                20.897545000000036
              ],
              [
                106.54143400000004,
                20.897371000000078
              ],
              [
                106.54144600000006,
                20.897124000000076
              ],
              [
                106.54134300000004,
                20.896765000000073
              ],
              [
                106.54111200000006,
                20.89638800000006
              ],
              [
                106.54081400000007,
                20.89604600000007
              ],
              [
                106.54059200000006,
                20.89577900000006
              ],
              [
                106.54039000000006,
                20.895484000000067
              ],
              [
                106.54022300000008,
                20.895143000000076
              ],
              [
                106.54011800000006,
                20.894877000000065
              ],
              [
                106.54009200000007,
                20.894556000000023
              ],
              [
                106.54013400000008,
                20.894318000000055
              ],
              [
                106.54033100000004,
                20.89403600000003
              ],
              [
                106.54054700000006,
                20.893863000000067
              ],
              [
                106.54083100000008,
                20.893747000000076
              ],
              [
                106.54126000000008,
                20.89368600000006
              ],
              [
                106.54181600000004,
                20.89368200000007
              ],
              [
                106.54238100000003,
                20.893705000000068
              ],
              [
                106.54276100000004,
                20.89370800000006
              ],
              [
                106.54311100000007,
                20.89372000000003
              ],
              [
                106.54341400000004,
                20.89362200000005
              ],
              [
                106.54362100000009,
                20.893432000000075
              ],
              [
                106.54377900000009,
                20.893204000000026
              ],
              [
                106.54386900000009,
                20.892948000000047
              ],
              [
                106.54388200000005,
                20.89260900000005
              ],
              [
                106.54381100000006,
                20.892370000000028
              ],
              [
                106.54364000000004,
                20.892002000000048
              ],
              [
                106.54344700000007,
                20.89173500000004
              ],
              [
                106.54322500000006,
                20.891550000000052
              ],
              [
                106.54298300000005,
                20.89137400000004
              ],
              [
                106.54259500000006,
                20.891224000000022
              ],
              [
                106.54231300000004,
                20.891157000000078
              ],
              [
                106.54186500000009,
                20.891099000000054
              ],
              [
                106.54144600000006,
                20.891095000000064
              ],
              [
                106.54107600000003,
                20.891083000000037
              ],
              [
                106.54086800000005,
                20.89104100000003
              ],
              [
                106.54079700000005,
                20.891013000000044
              ],
              [
                106.54063800000006,
                20.890948000000037
              ],
              [
                106.54051500000008,
                20.890820000000076
              ],
              [
                106.54043100000007,
                20.890596000000073
              ],
              [
                106.54045300000007,
                20.890252000000032
              ],
              [
                106.54062000000005,
                20.88961900000004
              ],
              [
                106.54066300000005,
                20.88940400000007
              ],
              [
                106.54067700000007,
                20.88924600000007
              ],
              [
                106.54064000000005,
                20.889079000000038
              ],
              [
                106.54054100000008,
                20.88891700000005
              ],
              [
                106.54036600000006,
                20.888713000000052
              ],
              [
                106.54000900000005,
                20.888535000000047
              ],
              [
                106.53968600000007,
                20.888370000000066
              ],
              [
                106.53947600000004,
                20.888210000000072
              ],
              [
                106.53934100000004,
                20.887915000000078
              ],
              [
                106.53931300000005,
                20.887623000000076
              ],
              [
                106.53937100000007,
                20.887360000000058
              ],
              [
                106.53958100000006,
                20.887009000000035
              ],
              [
                106.54006300000009,
                20.88651100000004
              ],
              [
                106.54034400000006,
                20.886202000000026
              ],
              [
                106.54068000000007,
                20.885710000000074
              ],
              [
                106.54104400000006,
                20.885264000000063
              ],
              [
                106.54124100000007,
                20.885092000000043
              ],
              [
                106.54151600000006,
                20.884906000000058
              ],
              [
                106.54171400000007,
                20.88482300000004
              ],
              [
                106.54196100000007,
                20.884794000000056
              ],
              [
                106.54221500000006,
                20.884874000000025
              ],
              [
                106.54262300000005,
                20.885132000000056
              ],
              [
                106.54325200000005,
                20.885555000000068
              ],
              [
                106.54367800000006,
                20.885729000000026
              ],
              [
                106.54402300000004,
                20.885793000000035
              ],
              [
                106.54473000000007,
                20.885807000000057
              ],
              [
                106.54528100000005,
                20.885781000000065
              ],
              [
                106.54597300000006,
                20.885663000000022
              ],
              [
                106.54656600000004,
                20.885583000000054
              ],
              [
                106.54687000000007,
                20.885524000000032
              ],
              [
                106.54715900000008,
                20.885410000000036
              ],
              [
                106.54742400000003,
                20.88526600000006
              ],
              [
                106.54768100000007,
                20.88503600000007
              ],
              [
                106.54790500000007,
                20.884775000000047
              ],
              [
                106.54792500000008,
                20.88474700000006
              ],
              [
                106.54820800000005,
                20.88439500000004
              ],
              [
                106.54828900000007,
                20.884259000000043
              ],
              [
                106.54831300000006,
                20.884086000000025
              ],
              [
                106.54829200000006,
                20.88393700000006
              ],
              [
                106.54823600000009,
                20.883722000000034
              ],
              [
                106.54807500000004,
                20.883482000000072
              ],
              [
                106.54794600000008,
                20.88331500000004
              ],
              [
                106.54771600000004,
                20.88308500000005
              ],
              [
                106.54706200000004,
                20.88264900000007
              ],
              [
                106.54701800000004,
                20.88247300000006
              ],
              [
                106.54701800000004,
                20.88239200000004
              ],
              [
                106.54703200000006,
                20.88230600000003
              ],
              [
                106.54708200000005,
                20.882210000000043
              ],
              [
                106.54717700000003,
                20.88211300000006
              ],
              [
                106.54735400000004,
                20.882011000000034
              ],
              [
                106.54738300000008,
                20.881872000000044
              ],
              [
                106.54736800000006,
                20.881623000000047
              ],
              [
                106.54727700000007,
                20.881376000000046
              ],
              [
                106.54711800000007,
                20.881249000000025
              ],
              [
                106.54692900000003,
                20.881226000000026
              ],
              [
                106.54652300000004,
                20.881278000000066
              ],
              [
                106.54622300000005,
                20.88126600000004
              ],
              [
                106.54600900000008,
                20.88122500000003
              ],
              [
                106.54586500000005,
                20.88113100000004
              ],
              [
                106.54552100000006,
                20.880741000000057
              ],
              [
                106.54546200000004,
                20.880688000000077
              ],
              [
                106.54494500000004,
                20.880188000000032
              ],
              [
                106.54467500000004,
                20.879939000000036
              ],
              [
                106.54442200000005,
                20.879699000000073
              ],
              [
                106.54423700000007,
                20.879402000000027
              ],
              [
                106.54416200000009,
                20.879188000000056
              ],
              [
                106.54415400000005,
                20.87901800000003
              ],
              [
                106.54418400000009,
                20.878899000000047
              ],
              [
                106.54439600000006,
                20.87864600000006
              ],
              [
                106.54470200000009,
                20.87845500000003
              ],
              [
                106.54500700000006,
                20.87835700000005
              ],
              [
                106.54537700000009,
                20.878368000000023
              ],
              [
                106.54608300000007,
                20.878490000000056
              ],
              [
                106.54683700000004,
                20.87871300000006
              ],
              [
                106.54737800000004,
                20.878880000000038
              ],
              [
                106.54785400000009,
                20.878953000000024
              ],
              [
                106.54829000000007,
                20.87895700000007
              ],
              [
                106.54886300000004,
                20.87883000000005
              ],
              [
                106.54940800000008,
                20.878580000000056
              ],
              [
                106.55030100000005,
                20.877984000000026
              ],
              [
                106.55110400000007,
                20.877411000000052
              ],
              [
                106.55219100000005,
                20.876855000000035
              ],
              [
                106.55307400000004,
                20.876700000000028
              ],
              [
                106.55306600000006,
                20.876641000000063
              ],
              [
                106.55293500000005,
                20.87571500000007
              ],
              [
                106.55288100000007,
                20.875325000000032
              ],
              [
                106.55283800000007,
                20.87501400000008
              ],
              [
                106.55280900000008,
                20.874806000000035
              ],
              [
                106.55275500000005,
                20.87441400000006
              ],
              [
                106.55272500000007,
                20.874015000000043
              ],
              [
                106.55271600000003,
                20.87372700000003
              ],
              [
                106.55231800000007,
                20.87372400000004
              ],
              [
                106.55219000000005,
                20.873619000000076
              ],
              [
                106.55214600000005,
                20.87352100000004
              ],
              [
                106.55211700000007,
                20.873471000000052
              ],
              [
                106.55206900000007,
                20.87341900000007
              ],
              [
                106.55201600000004,
                20.873368000000028
              ],
              [
                106.55191600000006,
                20.873304000000076
              ],
              [
                106.55173200000007,
                20.873225000000048
              ],
              [
                106.55156600000004,
                20.873154000000056
              ],
              [
                106.55132500000008,
                20.87308100000007
              ],
              [
                106.55098100000004,
                20.873051000000032
              ],
              [
                106.55066500000004,
                20.873033000000078
              ],
              [
                106.55050400000005,
                20.87299500000006
              ],
              [
                106.55044600000008,
                20.872966000000076
              ],
              [
                106.55041200000005,
                20.87293100000005
              ],
              [
                106.55039200000004,
                20.872881000000064
              ],
              [
                106.55038400000007,
                20.872816000000057
              ],
              [
                106.55037900000008,
                20.87268700000004
              ],
              [
                106.55037300000004,
                20.87245800000005
              ],
              [
                106.55035800000007,
                20.872132000000022
              ],
              [
                106.55030500000004,
                20.871856000000037
              ],
              [
                106.55018300000006,
                20.87144900000004
              ],
              [
                106.55008800000007,
                20.871141000000023
              ],
              [
                106.55000200000006,
                20.870873000000074
              ],
              [
                106.54991900000005,
                20.87068400000004
              ],
              [
                106.54962400000005,
                20.870319000000052
              ],
              [
                106.54954100000003,
                20.870241000000078
              ],
              [
                106.54946700000005,
                20.870201000000066
              ],
              [
                106.54938800000008,
                20.870168000000035
              ],
              [
                106.54921900000005,
                20.87014800000003
              ],
              [
                106.54883500000005,
                20.87010900000007
              ],
              [
                106.54872500000005,
                20.870081000000027
              ],
              [
                106.54859100000004,
                20.869928000000073
              ],
              [
                106.54811000000007,
                20.86930700000005
              ],
              [
                106.54798700000003,
                20.869199000000037
              ],
              [
                106.54786100000007,
                20.86911800000007
              ],
              [
                106.54749700000008,
                20.868967000000055
              ],
              [
                106.54726900000009,
                20.86887900000005
              ],
              [
                106.54675600000007,
                20.868628000000058
              ],
              [
                106.54746700000004,
                20.868167000000028
              ],
              [
                106.54791700000004,
                20.867670000000032
              ],
              [
                106.54822700000005,
                20.86721300000005
              ],
              [
                106.54846800000007,
                20.866698000000042
              ],
              [
                106.54860300000007,
                20.866272000000038
              ],
              [
                106.54870500000004,
                20.865649000000076
              ],
              [
                106.54876000000007,
                20.86532100000005
              ],
              [
                106.54901000000007,
                20.86390300000005
              ],
              [
                106.54905500000007,
                20.862820000000056
              ],
              [
                106.54901600000005,
                20.862352000000044
              ],
              [
                106.54874200000006,
                20.860880000000066
              ],
              [
                106.54820100000006,
                20.859029000000078
              ],
              [
                106.54769100000004,
                20.85762900000003
              ],
              [
                106.54722500000008,
                20.85613100000006
              ],
              [
                106.54706400000003,
                20.855604000000028
              ],
              [
                106.54701600000004,
                20.855226000000073
              ],
              [
                106.54706300000004,
                20.854833000000042
              ],
              [
                106.54724200000004,
                20.854366000000027
              ],
              [
                106.54734400000007,
                20.85419100000007
              ],
              [
                106.54762200000005,
                20.85381600000005
              ],
              [
                106.54798900000009,
                20.853489000000025
              ],
              [
                106.54829900000004,
                20.85337400000003
              ],
              [
                106.54855200000009,
                20.853360000000066
              ],
              [
                106.54919000000007,
                20.85329900000005
              ],
              [
                106.54958200000004,
                20.853360000000066
              ],
              [
                106.55033000000009,
                20.853654000000063
              ],
              [
                106.55111100000005,
                20.85408700000005
              ],
              [
                106.55271500000003,
                20.855234000000053
              ],
              [
                106.55381700000004,
                20.85594100000003
              ],
              [
                106.55474000000004,
                20.85647700000004
              ],
              [
                106.55476300000004,
                20.856490000000065
              ],
              [
                106.55637900000005,
                20.857218000000046
              ],
              [
                106.55664000000007,
                20.85736000000003
              ],
              [
                106.55684900000006,
                20.85741100000007
              ],
              [
                106.55713700000007,
                20.85743800000006
              ],
              [
                106.55758300000008,
                20.85736000000003
              ],
              [
                106.55913200000003,
                20.856872000000067
              ],
              [
                106.55972900000006,
                20.856565000000046
              ],
              [
                106.56025600000004,
                20.85622500000005
              ],
              [
                106.56103900000005,
                20.85555000000005
              ],
              [
                106.56162100000006,
                20.85489800000005
              ],
              [
                106.56202800000005,
                20.854360000000042
              ],
              [
                106.56203300000004,
                20.854351000000065
              ],
              [
                106.56220100000007,
                20.854085000000055
              ],
              [
                106.56227200000006,
                20.853973000000053
              ],
              [
                106.56240900000006,
                20.853756000000033
              ],
              [
                106.56263200000006,
                20.85317500000008
              ],
              [
                106.56275100000005,
                20.85259300000007
              ],
              [
                106.56275200000005,
                20.851600000000076
              ],
              [
                106.56275700000003,
                20.851099000000033
              ],
              [
                106.56279000000006,
                20.850344000000064
              ],
              [
                106.56294500000007,
                20.849681000000032
              ],
              [
                106.56323900000007,
                20.849010000000078
              ],
              [
                106.56351400000005,
                20.848528000000044
              ],
              [
                106.56381400000004,
                20.84825100000006
              ],
              [
                106.56413000000003,
                20.84805700000004
              ],
              [
                106.56432600000005,
                20.84798600000005
              ],
              [
                106.56450600000005,
                20.84826400000003
              ],
              [
                106.56479300000007,
                20.848707000000047
              ],
              [
                106.56526900000006,
                20.849451000000045
              ],
              [
                106.56537600000007,
                20.849618000000078
              ],
              [
                106.56545800000004,
                20.849743000000046
              ],
              [
                106.56609400000008,
                20.850708000000054
              ],
              [
                106.56659800000006,
                20.85144900000006
              ],
              [
                106.56721700000008,
                20.852144000000067
              ],
              [
                106.56921700000004,
                20.854309000000057
              ],
              [
                106.56956200000008,
                20.85467200000005
              ],
              [
                106.57059800000007,
                20.855760000000032
              ],
              [
                106.57069200000007,
                20.85585800000007
              ],
              [
                106.57163900000006,
                20.856844000000024
              ],
              [
                106.57188900000006,
                20.857109000000037
              ],
              [
                106.57268900000008,
                20.857957000000056
              ],
              [
                106.57306900000003,
                20.85836000000006
              ],
              [
                106.57362500000005,
                20.85895000000005
              ],
              [
                106.57376900000008,
                20.859106000000054
              ],
              [
                106.57497000000006,
                20.86041000000006
              ],
              [
                106.57514900000007,
                20.86063800000005
              ],
              [
                106.57535000000007,
                20.860853000000077
              ],
              [
                106.57547800000003,
                20.860992000000067
              ],
              [
                106.57594500000005,
                20.861830000000054
              ],
              [
                106.57623900000004,
                20.862734000000046
              ],
              [
                106.57631100000003,
                20.86330300000003
              ],
              [
                106.57635400000004,
                20.863646000000074
              ],
              [
                106.57641400000006,
                20.863867000000027
              ],
              [
                106.57649700000007,
                20.864180000000033
              ],
              [
                106.57664400000004,
                20.864590000000078
              ],
              [
                106.57678500000009,
                20.864981000000057
              ],
              [
                106.57713900000005,
                20.865581000000077
              ],
              [
                106.57728500000007,
                20.865751000000046
              ],
              [
                106.57797200000005,
                20.86648100000008
              ],
              [
                106.57835600000004,
                20.866868000000068
              ],
              [
                106.57891300000006,
                20.86743000000007
              ],
              [
                106.57911100000007,
                20.867623000000037
              ],
              [
                106.57923700000003,
                20.867746000000068
              ],
              [
                106.57929000000007,
                20.86779800000005
              ],
              [
                106.57933700000007,
                20.867844000000048
              ],
              [
                106.57943500000005,
                20.867939000000035
              ],
              [
                106.57948400000004,
                20.867989000000023
              ],
              [
                106.57978700000007,
                20.868292000000054
              ],
              [
                106.57986400000004,
                20.868370000000027
              ],
              [
                106.57981500000005,
                20.868446000000063
              ],
              [
                106.57952900000004,
                20.868778000000077
              ],
              [
                106.57931800000006,
                20.869053000000065
              ],
              [
                106.57927400000005,
                20.869197000000042
              ],
              [
                106.57932600000004,
                20.869770000000074
              ],
              [
                106.57943900000004,
                20.87034200000005
              ],
              [
                106.57947600000006,
                20.871030000000076
              ],
              [
                106.57946600000008,
                20.871547000000078
              ],
              [
                106.57953300000008,
                20.872048000000063
              ],
              [
                106.57975000000005,
                20.872404000000074
              ],
              [
                106.58001100000007,
                20.872708000000046
              ],
              [
                106.58010500000006,
                20.872817000000055
              ],
              [
                106.58084100000008,
                20.873169000000075
              ],
              [
                106.58125500000006,
                20.873366000000033
              ],
              [
                106.58150200000006,
                20.873579000000063
              ],
              [
                106.58177700000005,
                20.874014000000045
              ],
              [
                106.58196200000003,
                20.874371000000053
              ],
              [
                106.58205700000008,
                20.874676000000022
              ],
              [
                106.58200800000009,
                20.87493500000005
              ],
              [
                106.58179800000005,
                20.875262000000077
              ],
              [
                106.58108300000004,
                20.875928000000044
              ],
              [
                106.57962200000009,
                20.877098000000046
              ],
              [
                106.57957100000004,
                20.877075000000048
              ],
              [
                106.57951700000007,
                20.877063000000078
              ],
              [
                106.57946000000004,
                20.877064000000075
              ],
              [
                106.57936800000004,
                20.877077000000043
              ],
              [
                106.57927300000006,
                20.87711900000005
              ],
              [
                106.57896000000005,
                20.877334000000076
              ],
              [
                106.57863500000008,
                20.877621000000033
              ],
              [
                106.57832400000007,
                20.87811000000005
              ],
              [
                106.57826200000005,
                20.878247000000044
              ],
              [
                106.57811200000003,
                20.878573000000074
              ],
              [
                106.57796500000006,
                20.87891200000007
              ],
              [
                106.57783200000006,
                20.879247000000078
              ],
              [
                106.57768600000009,
                20.87957300000005
              ],
              [
                106.57753600000007,
                20.879910000000052
              ],
              [
                106.57743600000003,
                20.880130000000065
              ],
              [
                106.57731100000007,
                20.88042500000006
              ],
              [
                106.57717400000007,
                20.880674000000056
              ],
              [
                106.57704700000005,
                20.880896000000064
              ],
              [
                106.57699400000007,
                20.880997000000036
              ],
              [
                106.57696400000003,
                20.881071000000077
              ],
              [
                106.57691900000003,
                20.88122400000003
              ],
              [
                106.57682700000004,
                20.881578000000047
              ],
              [
                106.57679800000005,
                20.88168100000007
              ],
              [
                106.57672300000007,
                20.881940000000043
              ],
              [
                106.57663400000007,
                20.88227100000006
              ],
              [
                106.57652400000006,
                20.88271000000003
              ],
              [
                106.57642700000008,
                20.883079000000066
              ],
              [
                106.57627500000007,
                20.88368200000008
              ],
              [
                106.57618600000006,
                20.884029000000055
              ],
              [
                106.57610300000005,
                20.884389000000056
              ],
              [
                106.57601400000004,
                20.884736000000032
              ],
              [
                106.57592900000009,
                20.885087000000055
              ],
              [
                106.57585600000004,
                20.88543100000004
              ],
              [
                106.57579300000003,
                20.885794000000033
              ],
              [
                106.57571600000006,
                20.88625600000006
              ],
              [
                106.57566800000006,
                20.88650800000005
              ],
              [
                106.57558200000005,
                20.88698100000005
              ],
              [
                106.57554500000003,
                20.887154000000066
              ],
              [
                106.57549300000005,
                20.887327000000028
              ],
              [
                106.57540400000005,
                20.887579000000073
              ],
              [
                106.57523500000008,
                20.88790000000006
              ],
              [
                106.57506000000006,
                20.888208000000077
              ],
              [
                106.57483200000007,
                20.888495000000034
              ],
              [
                106.57474700000006,
                20.888580000000047
              ],
              [
                106.57448300000004,
                20.888846000000058
              ],
              [
                106.57427500000006,
                20.889027000000056
              ],
              [
                106.57397800000007,
                20.889261000000033
              ],
              [
                106.57368600000007,
                20.889505000000042
              ],
              [
                106.57341000000008,
                20.889744000000064
              ],
              [
                106.57315000000006,
                20.89013300000005
              ],
              [
                106.57300000000004,
                20.890373000000068
              ],
              [
                106.57286300000004,
                20.89067300000005
              ],
              [
                106.57272700000004,
                20.89105100000006
              ],
              [
                106.57254400000005,
                20.89175800000004
              ],
              [
                106.57230300000003,
                20.89239900000007
              ],
              [
                106.57211000000007,
                20.892784000000063
              ],
              [
                106.57184200000006,
                20.893324000000064
              ],
              [
                106.57149500000008,
                20.89407600000004
              ],
              [
                106.57144700000003,
                20.894264000000078
              ],
              [
                106.57141800000005,
                20.894469000000072
              ],
              [
                106.57138200000009,
                20.894742000000065
              ],
              [
                106.57137300000005,
                20.89492800000005
              ],
              [
                106.57137300000005,
                20.895182000000034
              ],
              [
                106.57138300000008,
                20.895547000000022
              ],
              [
                106.57138300000008,
                20.896055000000047
              ],
              [
                106.57132000000007,
                20.89634600000005
              ],
              [
                106.57125300000007,
                20.89658600000007
              ],
              [
                106.57108400000004,
                20.896874000000025
              ],
              [
                106.57078200000007,
                20.897181000000046
              ],
              [
                106.57059600000008,
                20.89736300000004
              ],
              [
                106.57040900000004,
                20.897573000000023
              ],
              [
                106.57033400000006,
                20.897657000000038
              ],
              [
                106.57029100000005,
                20.897714000000065
              ],
              [
                106.57024000000007,
                20.897849000000065
              ],
              [
                106.57019600000007,
                20.897974000000033
              ],
              [
                106.57018600000004,
                20.89805400000006
              ],
              [
                106.57016700000008,
                20.898202000000026
              ],
              [
                106.57015700000005,
                20.898321000000067
              ],
              [
                106.57006800000005,
                20.89871400000004
              ],
              [
                106.57003800000007,
                20.898822000000052
              ],
              [
                106.56998600000009,
                20.898915000000045
              ],
              [
                106.56992600000007,
                20.89899500000007
              ],
              [
                106.56978100000003,
                20.899046000000055
              ],
              [
                106.56953700000008,
                20.899077000000034
              ],
              [
                106.56914800000004,
                20.899059000000022
              ],
              [
                106.56880600000005,
                20.89903000000004
              ],
              [
                106.56875800000006,
                20.899069000000054
              ],
              [
                106.56870600000008,
                20.89913000000007
              ],
              [
                106.56866700000006,
                20.89916400000004
              ],
              [
                106.56862400000006,
                20.899244000000067
              ],
              [
                106.56858900000009,
                20.899343000000044
              ],
              [
                106.56850000000009,
                20.89949900000005
              ],
              [
                106.56843100000003,
                20.899609000000055
              ],
              [
                106.56800500000008,
                20.900392000000068
              ],
              [
                106.56768700000003,
                20.900974000000076
              ],
              [
                106.56740200000007,
                20.901748000000055
              ],
              [
                106.56726100000009,
                20.902209000000028
              ],
              [
                106.56722700000006,
                20.902604000000053
              ],
              [
                106.56728500000008,
                20.903284000000042
              ],
              [
                106.56752900000004,
                20.90314200000006
              ],
              [
                106.56779100000006,
                20.902990000000045
              ],
              [
                106.56907600000005,
                20.903022000000078
              ],
              [
                106.56917500000009,
                20.90330700000004
              ],
              [
                106.56929200000008,
                20.90340800000007
              ],
              [
                106.56935200000004,
                20.90361000000007
              ],
              [
                106.56955300000004,
                20.903838000000064
              ],
              [
                106.57075200000008,
                20.903657000000067
              ],
              [
                106.57117600000004,
                20.90359200000006
              ],
              [
                106.57116500000006,
                20.903693000000032
              ],
              [
                106.57119000000006,
                20.90611400000006
              ],
              [
                106.57126500000004,
                20.906319000000053
              ],
              [
                106.57141700000005,
                20.906754000000035
              ],
              [
                106.57144400000004,
                20.90681500000005
              ],
              [
                106.57151100000004,
                20.906854000000067
              ],
              [
                106.57165500000008,
                20.90695500000004
              ],
              [
                106.57162800000003,
                20.906989000000067
              ],
              [
                106.57122400000009,
                20.90760000000006
              ],
              [
                106.57152100000008,
                20.90764500000006
              ],
              [
                106.57186000000007,
                20.90769700000004
              ],
              [
                106.57262900000006,
                20.90781400000003
              ],
              [
                106.57294900000005,
                20.907863000000077
              ],
              [
                106.57306800000003,
                20.90788900000007
              ],
              [
                106.57319800000005,
                20.907917000000054
              ],
              [
                106.57298100000008,
                20.90820700000006
              ],
              [
                106.57292200000006,
                20.908267000000023
              ],
              [
                106.57239000000004,
                20.90881600000006
              ],
              [
                106.57232900000008,
                20.90886500000005
              ],
              [
                106.57206000000008,
                20.909084000000064
              ],
              [
                106.57143100000008,
                20.909595000000024
              ],
              [
                106.57026000000008,
                20.910676000000024
              ],
              [
                106.56830700000006,
                20.91244400000005
              ],
              [
                106.56772100000006,
                20.91299200000003
              ],
              [
                106.56760400000007,
                20.91310100000004
              ],
              [
                106.56775600000009,
                20.91320500000006
              ],
              [
                106.56780400000008,
                20.91358500000007
              ],
              [
                106.56785800000006,
                20.914011000000073
              ],
              [
                106.56797100000006,
                20.914864000000023
              ],
              [
                106.56812800000006,
                20.915466000000038
              ],
              [
                106.56838800000008,
                20.916175000000067
              ],
              [
                106.56858600000004,
                20.916687000000024
              ],
              [
                106.56901200000004,
                20.917376000000047
              ],
              [
                106.56934300000006,
                20.91788500000007
              ],
              [
                106.56954600000006,
                20.918198000000075
              ],
              [
                106.57060600000005,
                20.918311000000074
              ],
              [
                106.57132800000005,
                20.91841500000004
              ],
              [
                106.57151500000003,
                20.919106000000056
              ],
              [
                106.57165600000008,
                20.919535000000053
              ],
              [
                106.57165400000008,
                20.91998700000005
              ],
              [
                106.57167100000004,
                20.92025600000005
              ],
              [
                106.57168100000007,
                20.920424000000025
              ],
              [
                106.57175000000007,
                20.921226000000047
              ],
              [
                106.57183400000008,
                20.921914000000072
              ],
              [
                106.57190000000008,
                20.92235100000005
              ],
              [
                106.57180600000004,
                20.922975000000065
              ],
              [
                106.57284700000008,
                20.923084000000074
              ],
              [
                106.57394800000009,
                20.92316900000003
              ],
              [
                106.57537200000007,
                20.923182000000054
              ],
              [
                106.57562500000006,
                20.92322400000006
              ],
              [
                106.57598500000006,
                20.923379000000068
              ],
              [
                106.57874100000004,
                20.924931000000072
              ],
              [
                106.57956400000006,
                20.92538600000006
              ],
              [
                106.58110600000003,
                20.926258000000075
              ],
              [
                106.58384900000004,
                20.927819000000056
              ],
              [
                106.58448200000004,
                20.92817800000006
              ],
              [
                106.58622400000007,
                20.92916400000007
              ],
              [
                106.58656200000007,
                20.929372000000058
              ],
              [
                106.58686400000005,
                20.928464000000076
              ],
              [
                106.58723200000009,
                20.927388000000064
              ],
              [
                106.58753100000007,
                20.92662100000007
              ],
              [
                106.58881800000006,
                20.922837000000072
              ],
              [
                106.58899500000007,
                20.921993000000043
              ],
              [
                106.59001200000006,
                20.922443000000044
              ],
              [
                106.59014700000006,
                20.92249300000003
              ],
              [
                106.59006600000004,
                20.922912000000053
              ],
              [
                106.59012000000007,
                20.922915000000046
              ],
              [
                106.59063100000009,
                20.922945000000027
              ],
              [
                106.59093100000007,
                20.922947000000022
              ],
              [
                106.59101800000008,
                20.922961000000043
              ],
              [
                106.59129400000006,
                20.92313000000007
              ],
              [
                106.59148000000005,
                20.923252000000048
              ],
              [
                106.59174700000005,
                20.923426000000063
              ],
              [
                106.59254900000008,
                20.923950000000048
              ],
              [
                106.59259500000007,
                20.92399000000006
              ],
              [
                106.59271900000005,
                20.924097000000074
              ],
              [
                106.59283200000004,
                20.924263000000053
              ],
              [
                106.59294400000005,
                20.924376000000052
              ],
              [
                106.59304300000008,
                20.924476000000027
              ],
              [
                106.59317200000004,
                20.92463300000003
              ],
              [
                106.59317300000004,
                20.924634000000026
              ],
              [
                106.59325800000005,
                20.924739000000045
              ],
              [
                106.59326500000009,
                20.924747000000025
              ],
              [
                106.59333200000003,
                20.92480800000004
              ],
              [
                106.59335600000009,
                20.92482300000006
              ],
              [
                106.59349500000008,
                20.92490200000003
              ],
              [
                106.59360300000009,
                20.924968000000035
              ],
              [
                106.59365000000008,
                20.925102000000038
              ],
              [
                106.59369600000008,
                20.925217000000032
              ],
              [
                106.59373400000004,
                20.925311000000022
              ],
              [
                106.59378500000008,
                20.92534900000004
              ],
              [
                106.59401000000008,
                20.92540400000007
              ],
              [
                106.59436800000009,
                20.925497000000064
              ],
              [
                106.59481600000004,
                20.925612000000058
              ],
              [
                106.59521900000004,
                20.925707000000045
              ],
              [
                106.59553500000004,
                20.925782000000027
              ],
              [
                106.59573100000006,
                20.925887000000046
              ],
              [
                106.59584200000006,
                20.925946000000067
              ],
              [
                106.59615400000007,
                20.92609200000004
              ],
              [
                106.59643100000005,
                20.92632800000007
              ],
              [
                106.59652800000003,
                20.92638500000004
              ],
              [
                106.59653300000008,
                20.926386000000036
              ],
              [
                106.59723500000007,
                20.926574000000073
              ],
              [
                106.59727800000007,
                20.926585000000046
              ],
              [
                106.59837600000009,
                20.926848000000064
              ],
              [
                106.59864700000008,
                20.926893000000064
              ],
              [
                106.59964100000008,
                20.927059000000042
              ],
              [
                106.60002100000008,
                20.92709700000006
              ],
              [
                106.60082700000004,
                20.927170000000046
              ],
              [
                106.60164500000008,
                20.92719900000003
              ],
              [
                106.60169600000006,
                20.92769500000003
              ],
              [
                106.60200800000007,
                20.92980300000005
              ],
              [
                106.60240300000004,
                20.932421000000033
              ],
              [
                106.60242500000004,
                20.93450000000007
              ],
              [
                106.60217000000006,
                20.936338000000035
              ],
              [
                106.60177200000004,
                20.93773200000004
              ],
              [
                106.60056400000008,
                20.939895000000035
              ],
              [
                106.59965100000005,
                20.94134900000006
              ],
              [
                106.59841700000004,
                20.94256800000005
              ],
              [
                106.59757100000007,
                20.943185000000028
              ],
              [
                106.59601700000007,
                20.944180000000074
              ],
              [
                106.59351500000008,
                20.945745000000045
              ],
              [
                106.59127500000005,
                20.946587000000022
              ],
              [
                106.59126800000007,
                20.946582000000035
              ],
              [
                106.59042800000009,
                20.945980000000077
              ],
              [
                106.58918400000005,
                20.944900000000075
              ],
              [
                106.58892500000007,
                20.94468100000006
              ],
              [
                106.58764200000007,
                20.943201000000045
              ],
              [
                106.58615800000007,
                20.94086100000004
              ],
              [
                106.58492700000005,
                20.938667000000066
              ],
              [
                106.58492000000007,
                20.938649000000055
              ],
              [
                106.58409000000006,
                20.93650400000007
              ],
              [
                106.58406500000007,
                20.936465000000055
              ],
              [
                106.58284600000007,
                20.93457200000006
              ],
              [
                106.58182100000005,
                20.933187000000032
              ],
              [
                106.58089500000006,
                20.932177000000024
              ],
              [
                106.58031800000003,
                20.931704000000025
              ],
              [
                106.57936700000005,
                20.93118400000003
              ],
              [
                106.57806200000005,
                20.93064400000003
              ],
              [
                106.57711400000005,
                20.930427000000066
              ],
              [
                106.57654500000007,
                20.930372000000034
              ],
              [
                106.57598900000005,
                20.930395000000033
              ],
              [
                106.57542200000006,
                20.930484000000035
              ],
              [
                106.57440700000006,
                20.93071800000007
              ],
              [
                106.57368600000007,
                20.93099200000006
              ],
              [
                106.57314600000007,
                20.93127400000003
              ],
              [
                106.57237200000009,
                20.931785000000048
              ]
            ]
          ]
        ]
      }
    }
  ]
}