{
  "type": "FeatureCollection",
  "name": "gis.vn",
  "features": [
    {
      "type": "Feature",
      "properties": {
        "ma_xa": "11602",
        "ten_xa": "Hồng An",
        "sap_nhap": "Quán Toan, An Hồng, An Hưng (1 phần), Đại Bản (1 phần), Lê Thiện (1 phần), Tân Tiến (1 phần)",
        "tru_so": "đang cập nhật",
        "loai": "Phường",
        "cap": 2,
        "stt": 9,
        "dtich_km2": 27.64,
        "dan_so": 64771,
        "matdo_km2": 2343.38,
        "ma_tinh": "31",
        "ten_tinh": "Hải Phòng",
        "mau_sac": "#FFFFFF"
      },
      "geometry": {
        "type": "MultiPolygon",
        "coordinates": [
          [
            [
              [
                106.58881800000006,
                20.922837000000072
              ],
              [
                106.58753100000007,
                20.92662100000007
              ],
              [
                106.58723200000009,
                20.927388000000064
              ],
              [
                106.58686400000005,
                20.928464000000076
              ],
              [
                106.58656200000007,
                20.929372000000058
              ],
              [
                106.58622400000007,
                20.92916400000007
              ],
              [
                106.58448200000004,
                20.92817800000006
              ],
              [
                106.58384900000004,
                20.927819000000056
              ],
              [
                106.58110600000003,
                20.926258000000075
              ],
              [
                106.57956400000006,
                20.92538600000006
              ],
              [
                106.57874100000004,
                20.924931000000072
              ],
              [
                106.57598500000006,
                20.923379000000068
              ],
              [
                106.57562500000006,
                20.92322400000006
              ],
              [
                106.57537200000007,
                20.923182000000054
              ],
              [
                106.57394800000009,
                20.92316900000003
              ],
              [
                106.57284700000008,
                20.923084000000074
              ],
              [
                106.57180600000004,
                20.922975000000065
              ],
              [
                106.57190000000008,
                20.92235100000005
              ],
              [
                106.57183400000008,
                20.921914000000072
              ],
              [
                106.57175000000007,
                20.921226000000047
              ],
              [
                106.57168100000007,
                20.920424000000025
              ],
              [
                106.57167100000004,
                20.92025600000005
              ],
              [
                106.57165400000008,
                20.91998700000005
              ],
              [
                106.57165600000008,
                20.919535000000053
              ],
              [
                106.57151500000003,
                20.919106000000056
              ],
              [
                106.57132800000005,
                20.91841500000004
              ],
              [
                106.57060600000005,
                20.918311000000074
              ],
              [
                106.56954600000006,
                20.918198000000075
              ],
              [
                106.56934300000006,
                20.91788500000007
              ],
              [
                106.56901200000004,
                20.917376000000047
              ],
              [
                106.56858600000004,
                20.916687000000024
              ],
              [
                106.56838800000008,
                20.916175000000067
              ],
              [
                106.56812800000006,
                20.915466000000038
              ],
              [
                106.56797100000006,
                20.914864000000023
              ],
              [
                106.56785800000006,
                20.914011000000073
              ],
              [
                106.56780400000008,
                20.91358500000007
              ],
              [
                106.56775600000009,
                20.91320500000006
              ],
              [
                106.56760400000007,
                20.91310100000004
              ],
              [
                106.56772100000006,
                20.91299200000003
              ],
              [
                106.56830700000006,
                20.91244400000005
              ],
              [
                106.57026000000008,
                20.910676000000024
              ],
              [
                106.57143100000008,
                20.909595000000024
              ],
              [
                106.57206000000008,
                20.909084000000064
              ],
              [
                106.57232900000008,
                20.90886500000005
              ],
              [
                106.57239000000004,
                20.90881600000006
              ],
              [
                106.57292200000006,
                20.908267000000023
              ],
              [
                106.57298100000008,
                20.90820700000006
              ],
              [
                106.57319800000005,
                20.907917000000054
              ],
              [
                106.57348300000007,
                20.907539000000043
              ],
              [
                106.57425300000006,
                20.906432000000052
              ],
              [
                106.57462800000008,
                20.905924000000027
              ],
              [
                106.57600900000006,
                20.90405000000004
              ],
              [
                106.57689900000008,
                20.902847000000065
              ],
              [
                106.57708900000006,
                20.902586000000042
              ],
              [
                106.57747500000005,
                20.902054000000078
              ],
              [
                106.57761400000004,
                20.90186300000005
              ],
              [
                106.57776400000006,
                20.90165600000006
              ],
              [
                106.57792600000005,
                20.901454000000058
              ],
              [
                106.57798000000008,
                20.901388000000054
              ],
              [
                106.57808100000005,
                20.901261000000034
              ],
              [
                106.57816700000006,
                20.901154000000076
              ],
              [
                106.57839800000005,
                20.900867000000062
              ],
              [
                106.57890100000009,
                20.900355000000047
              ],
              [
                106.57914000000005,
                20.90014700000006
              ],
              [
                106.57951900000006,
                20.89981700000004
              ],
              [
                106.57956600000006,
                20.899785000000065
              ],
              [
                106.57982700000008,
                20.899609000000055
              ],
              [
                106.58049700000004,
                20.899155000000064
              ],
              [
                106.58061100000003,
                20.89907800000003
              ],
              [
                106.58106500000008,
                20.89879700000006
              ],
              [
                106.58110700000009,
                20.898771000000067
              ],
              [
                106.58168800000004,
                20.898412000000064
              ],
              [
                106.58170700000005,
                20.898401000000035
              ],
              [
                106.58247500000004,
                20.897925000000043
              ],
              [
                106.58285400000005,
                20.897703000000035
              ],
              [
                106.58353700000004,
                20.89730000000003
              ],
              [
                106.58406500000007,
                20.897053000000028
              ],
              [
                106.58459300000004,
                20.896806000000026
              ],
              [
                106.58515500000004,
                20.89658600000007
              ],
              [
                106.58537600000005,
                20.89650000000006
              ],
              [
                106.58631400000007,
                20.89618500000006
              ],
              [
                106.58711400000004,
                20.89588100000003
              ],
              [
                106.58900400000005,
                20.895156000000043
              ],
              [
                106.58984300000009,
                20.89481200000006
              ],
              [
                106.59019400000005,
                20.894667000000027
              ],
              [
                106.59108900000007,
                20.894314000000065
              ],
              [
                106.59128500000008,
                20.894237000000032
              ],
              [
                106.59132400000004,
                20.89422200000007
              ],
              [
                106.59142000000008,
                20.89418500000005
              ],
              [
                106.59156500000006,
                20.894129000000078
              ],
              [
                106.59191100000004,
                20.893996000000072
              ],
              [
                106.59268600000007,
                20.89367500000003
              ],
              [
                106.59273700000006,
                20.893654000000026
              ],
              [
                106.59278100000006,
                20.893631000000028
              ],
              [
                106.59335400000003,
                20.89333300000004
              ],
              [
                106.59357600000004,
                20.893147000000056
              ],
              [
                106.59366700000004,
                20.893072000000075
              ],
              [
                106.59408500000006,
                20.892657000000042
              ],
              [
                106.59414200000003,
                20.89257800000007
              ],
              [
                106.59463500000004,
                20.89249600000005
              ],
              [
                106.59496700000005,
                20.892440000000022
              ],
              [
                106.59500200000008,
                20.892434000000037
              ],
              [
                106.59509700000007,
                20.892418000000077
              ],
              [
                106.59518000000008,
                20.892404000000056
              ],
              [
                106.59545200000008,
                20.892318000000046
              ],
              [
                106.59551000000005,
                20.892300000000034
              ],
              [
                106.59678500000007,
                20.891710000000046
              ],
              [
                106.59686100000005,
                20.891674000000023
              ],
              [
                106.59688400000005,
                20.891665000000046
              ],
              [
                106.59731600000003,
                20.89147500000007
              ],
              [
                106.59747100000004,
                20.89140800000007
              ],
              [
                106.59756800000008,
                20.891365000000064
              ],
              [
                106.59787300000005,
                20.89123200000006
              ],
              [
                106.59801100000004,
                20.891179000000022
              ],
              [
                106.59845300000006,
                20.891008000000056
              ],
              [
                106.59847600000006,
                20.891001000000074
              ],
              [
                106.59871300000003,
                20.890931000000023
              ],
              [
                106.59907800000008,
                20.89087100000006
              ],
              [
                106.59944800000005,
                20.89082200000007
              ],
              [
                106.59949800000004,
                20.890815000000032
              ],
              [
                106.59955900000006,
                20.890806000000055
              ],
              [
                106.59955800000006,
                20.890801000000067
              ],
              [
                106.59949800000004,
                20.890458000000024
              ],
              [
                106.59939800000006,
                20.889959000000033
              ],
              [
                106.59984800000007,
                20.889980000000037
              ],
              [
                106.60010000000005,
                20.889957000000038
              ],
              [
                106.60035100000005,
                20.88989900000007
              ],
              [
                106.60059400000006,
                20.88981300000006
              ],
              [
                106.60082400000005,
                20.889669000000026
              ],
              [
                106.60098600000003,
                20.88950600000004
              ],
              [
                106.60123200000004,
                20.889335000000074
              ],
              [
                106.60146600000007,
                20.88911100000007
              ],
              [
                106.60167000000007,
                20.88887900000003
              ],
              [
                106.60178300000007,
                20.888749000000075
              ],
              [
                106.60196500000006,
                20.88865100000004
              ],
              [
                106.60204100000004,
                20.888621000000057
              ],
              [
                106.60212900000005,
                20.888621000000057
              ],
              [
                106.60232200000007,
                20.888649000000044
              ],
              [
                106.60239900000005,
                20.888656000000026
              ],
              [
                106.60247600000008,
                20.88865000000004
              ],
              [
                106.60255900000004,
                20.88862000000006
              ],
              [
                106.60267500000003,
                20.888566000000026
              ],
              [
                106.60271500000005,
                20.888529000000062
              ],
              [
                106.60277200000007,
                20.888513000000046
              ],
              [
                106.60280900000004,
                20.88851500000004
              ],
              [
                106.60292300000003,
                20.888569000000075
              ],
              [
                106.60308500000008,
                20.888648000000046
              ],
              [
                106.60317700000007,
                20.888672000000042
              ],
              [
                106.60329500000006,
                20.88867300000004
              ],
              [
                106.60340000000008,
                20.88865400000003
              ],
              [
                106.60358500000007,
                20.888586000000032
              ],
              [
                106.60377400000004,
                20.88841800000006
              ],
              [
                106.60388400000005,
                20.88826000000006
              ],
              [
                106.60393200000004,
                20.888145000000065
              ],
              [
                106.60405500000007,
                20.887887000000035
              ],
              [
                106.60409900000008,
                20.887793000000045
              ],
              [
                106.60407700000007,
                20.887665000000027
              ],
              [
                106.60404200000005,
                20.887597000000028
              ],
              [
                106.60398400000008,
                20.887538000000063
              ],
              [
                106.60391900000008,
                20.88747200000006
              ],
              [
                106.60387100000008,
                20.887392000000034
              ],
              [
                106.60384800000008,
                20.887319000000048
              ],
              [
                106.60383100000007,
                20.88724700000006
              ],
              [
                106.60384000000005,
                20.887004000000047
              ],
              [
                106.60391100000004,
                20.886777000000052
              ],
              [
                106.60394800000006,
                20.886703000000068
              ],
              [
                106.60403900000006,
                20.886563000000024
              ],
              [
                106.60414800000007,
                20.88644800000003
              ],
              [
                106.60425900000007,
                20.88636900000006
              ],
              [
                106.60438100000005,
                20.886343000000068
              ],
              [
                106.60452600000008,
                20.886341000000073
              ],
              [
                106.60480900000005,
                20.886389000000065
              ],
              [
                106.60499800000008,
                20.886468000000036
              ],
              [
                106.60533100000004,
                20.886690000000044
              ],
              [
                106.60576800000007,
                20.887054000000035
              ],
              [
                106.60619400000007,
                20.887418000000025
              ],
              [
                106.60648500000008,
                20.887582000000066
              ],
              [
                106.60676600000005,
                20.887647000000072
              ],
              [
                106.60702000000003,
                20.887644000000023
              ],
              [
                106.60729400000008,
                20.88758400000006
              ],
              [
                106.60747600000008,
                20.88750600000003
              ],
              [
                106.60763300000008,
                20.88738500000005
              ],
              [
                106.60772800000007,
                20.887222000000065
              ],
              [
                106.60776200000004,
                20.887088000000062
              ],
              [
                106.60773900000004,
                20.886892000000046
              ],
              [
                106.60765400000008,
                20.886569000000065
              ],
              [
                106.60763900000006,
                20.88649900000007
              ],
              [
                106.60741500000006,
                20.885561000000052
              ],
              [
                106.60738200000009,
                20.88535100000007
              ],
              [
                106.60736600000007,
                20.885227000000043
              ],
              [
                106.60738900000007,
                20.885064000000057
              ],
              [
                106.60746300000005,
                20.884829000000025
              ],
              [
                106.60760800000008,
                20.884556000000032
              ],
              [
                106.60777400000006,
                20.884368000000052
              ],
              [
                106.60802100000006,
                20.884227000000067
              ],
              [
                106.60874500000006,
                20.884024000000068
              ],
              [
                106.60873900000007,
                20.88374600000003
              ],
              [
                106.60926700000005,
                20.883703000000025
              ],
              [
                106.60976700000003,
                20.883662000000072
              ],
              [
                106.61043700000005,
                20.883606000000043
              ],
              [
                106.61148900000006,
                20.88353600000005
              ],
              [
                106.61181100000005,
                20.883500000000026
              ],
              [
                106.61213300000009,
                20.883465000000058
              ],
              [
                106.61260500000009,
                20.88339200000007
              ],
              [
                106.61348000000004,
                20.883162000000027
              ],
              [
                106.61425900000006,
                20.882889000000034
              ],
              [
                106.61508400000008,
                20.882569000000046
              ],
              [
                106.61585100000008,
                20.882254000000046
              ],
              [
                106.61646100000007,
                20.881998000000067
              ],
              [
                106.61694500000004,
                20.88179400000007
              ],
              [
                106.61699300000004,
                20.881774000000064
              ],
              [
                106.61702100000008,
                20.881762000000037
              ],
              [
                106.61719000000005,
                20.881695000000036
              ],
              [
                106.61769700000008,
                20.881494000000032
              ],
              [
                106.61838700000004,
                20.881267000000037
              ],
              [
                106.61862800000006,
                20.881188000000066
              ],
              [
                106.61932300000007,
                20.88097300000004
              ],
              [
                106.61950300000007,
                20.880918000000065
              ],
              [
                106.61996200000004,
                20.880776000000026
              ],
              [
                106.62037700000008,
                20.880648000000065
              ],
              [
                106.62087400000007,
                20.880499000000043
              ],
              [
                106.62124000000006,
                20.880389000000037
              ],
              [
                106.62185900000009,
                20.88020000000006
              ],
              [
                106.62243000000007,
                20.880026000000043
              ],
              [
                106.62250500000005,
                20.880003000000045
              ],
              [
                106.62249600000007,
                20.880186000000037
              ],
              [
                106.62249700000007,
                20.88021800000007
              ],
              [
                106.62249900000006,
                20.880328000000077
              ],
              [
                106.62251100000009,
                20.880664000000024
              ],
              [
                106.62258200000008,
                20.88081200000005
              ],
              [
                106.62280700000008,
                20.881110000000035
              ],
              [
                106.62329000000005,
                20.88174900000007
              ],
              [
                106.62306200000006,
                20.881831000000034
              ],
              [
                106.62232100000006,
                20.88229800000005
              ],
              [
                106.62178000000006,
                20.88274700000005
              ],
              [
                106.62119300000006,
                20.88343100000003
              ],
              [
                106.62081300000006,
                20.88400900000005
              ],
              [
                106.62052900000003,
                20.884578000000033
              ],
              [
                106.62031100000007,
                20.885167000000024
              ],
              [
                106.62013600000006,
                20.886002000000076
              ],
              [
                106.62000600000005,
                20.88674000000003
              ],
              [
                106.61995100000007,
                20.887320000000045
              ],
              [
                106.61994800000008,
                20.88767500000006
              ],
              [
                106.62000800000004,
                20.88841400000007
              ],
              [
                106.62016500000004,
                20.889567000000056
              ],
              [
                106.62048600000008,
                20.891346000000055
              ],
              [
                106.62050400000004,
                20.891673000000026
              ],
              [
                106.62094000000008,
                20.893685000000062
              ],
              [
                106.62197800000007,
                20.897747000000038
              ],
              [
                106.62281700000005,
                20.901698000000067
              ],
              [
                106.62284000000005,
                20.901940000000025
              ],
              [
                106.62326400000006,
                20.90549100000004
              ],
              [
                106.62349900000004,
                20.90921600000007
              ],
              [
                106.62360100000006,
                20.91119800000007
              ],
              [
                106.62360500000005,
                20.911702000000048
              ],
              [
                106.62360800000005,
                20.911785000000066
              ],
              [
                106.62361200000004,
                20.911868000000027
              ],
              [
                106.62360900000004,
                20.911911000000032
              ],
              [
                106.62353400000006,
                20.912918000000047
              ],
              [
                106.62351900000004,
                20.91312700000003
              ],
              [
                106.62327200000004,
                20.914194000000066
              ],
              [
                106.62300100000004,
                20.915051000000062
              ],
              [
                106.62226700000008,
                20.916698000000054
              ],
              [
                106.62192400000004,
                20.91735600000004
              ],
              [
                106.62141600000007,
                20.918156000000067
              ],
              [
                106.61995500000006,
                20.91937800000005
              ],
              [
                106.61992600000008,
                20.919396000000063
              ],
              [
                106.61933800000008,
                20.919781000000057
              ],
              [
                106.61835100000008,
                20.920412000000056
              ],
              [
                106.61704500000008,
                20.921073000000035
              ],
              [
                106.61656800000009,
                20.92122500000005
              ],
              [
                106.61481900000007,
                20.921721000000048
              ],
              [
                106.61344800000006,
                20.92194900000004
              ],
              [
                106.61058300000008,
                20.92230600000005
              ],
              [
                106.60698400000007,
                20.922641000000056
              ],
              [
                106.60468200000008,
                20.922877000000028
              ],
              [
                106.60378300000008,
                20.923029000000042
              ],
              [
                106.60294600000009,
                20.923252000000048
              ],
              [
                106.60265900000007,
                20.92351300000007
              ],
              [
                106.60229600000008,
                20.923803000000078
              ],
              [
                106.60192000000006,
                20.924323000000072
              ],
              [
                106.60166700000008,
                20.924956000000066
              ],
              [
                106.60156800000004,
                20.92566000000005
              ],
              [
                106.60157700000008,
                20.926549000000023
              ],
              [
                106.60164500000008,
                20.92719900000003
              ],
              [
                106.60082700000004,
                20.927170000000046
              ],
              [
                106.60002100000008,
                20.92709700000006
              ],
              [
                106.59964100000008,
                20.927059000000042
              ],
              [
                106.59864700000008,
                20.926893000000064
              ],
              [
                106.59837600000009,
                20.926848000000064
              ],
              [
                106.59727800000007,
                20.926585000000046
              ],
              [
                106.59723500000007,
                20.926574000000073
              ],
              [
                106.59653300000008,
                20.926386000000036
              ],
              [
                106.59652800000003,
                20.92638500000004
              ],
              [
                106.59643100000005,
                20.92632800000007
              ],
              [
                106.59615400000007,
                20.92609200000004
              ],
              [
                106.59584200000006,
                20.925946000000067
              ],
              [
                106.59573100000006,
                20.925887000000046
              ],
              [
                106.59553500000004,
                20.925782000000027
              ],
              [
                106.59521900000004,
                20.925707000000045
              ],
              [
                106.59481600000004,
                20.925612000000058
              ],
              [
                106.59436800000009,
                20.925497000000064
              ],
              [
                106.59401000000008,
                20.92540400000007
              ],
              [
                106.59378500000008,
                20.92534900000004
              ],
              [
                106.59373400000004,
                20.925311000000022
              ],
              [
                106.59369600000008,
                20.925217000000032
              ],
              [
                106.59365000000008,
                20.925102000000038
              ],
              [
                106.59360300000009,
                20.924968000000035
              ],
              [
                106.59349500000008,
                20.92490200000003
              ],
              [
                106.59335600000009,
                20.92482300000006
              ],
              [
                106.59333200000003,
                20.92480800000004
              ],
              [
                106.59326500000009,
                20.924747000000025
              ],
              [
                106.59325800000005,
                20.924739000000045
              ],
              [
                106.59317300000004,
                20.924634000000026
              ],
              [
                106.59317200000004,
                20.92463300000003
              ],
              [
                106.59304300000008,
                20.924476000000027
              ],
              [
                106.59294400000005,
                20.924376000000052
              ],
              [
                106.59283200000004,
                20.924263000000053
              ],
              [
                106.59271900000005,
                20.924097000000074
              ],
              [
                106.59259500000007,
                20.92399000000006
              ],
              [
                106.59254900000008,
                20.923950000000048
              ],
              [
                106.59174700000005,
                20.923426000000063
              ],
              [
                106.59148000000005,
                20.923252000000048
              ],
              [
                106.59129400000006,
                20.92313000000007
              ],
              [
                106.59101800000008,
                20.922961000000043
              ],
              [
                106.59093100000007,
                20.922947000000022
              ],
              [
                106.59063100000009,
                20.922945000000027
              ],
              [
                106.59012000000007,
                20.922915000000046
              ],
              [
                106.59006600000004,
                20.922912000000053
              ],
              [
                106.59014700000006,
                20.92249300000003
              ],
              [
                106.59001200000006,
                20.922443000000044
              ],
              [
                106.58899500000007,
                20.921993000000043
              ],
              [
                106.58881800000006,
                20.922837000000072
              ]
            ]
          ]
        ]
      }
    }
  ]
}