{
  "type": "FeatureCollection",
  "name": "gis.vn",
  "features": [
    {
      "type": "Feature",
      "properties": {
        "ma_xa": "11311",
        "ten_xa": "Hồng Bàng",
        "sap_nhap": "Hoàng Văn Thụ, Minh Khai, Phan Bội Châu, Thượng Lý, Sở Dầu, Hùng Vương, Gia Viên (1 phần)",
        "tru_so": "đang cập nhật",
        "loai": "Phường",
        "cap": 2,
        "stt": 8,
        "dtich_km2": 12.11,
        "dan_so": 113200,
        "matdo_km2": 9347.65,
        "ma_tinh": "31",
        "ten_tinh": "Hải Phòng",
        "mau_sac": "#FFD700"
      },
      "geometry": {
        "type": "MultiPolygon",
        "coordinates": [
          [
            [
              [
                106.62883400000004,
                20.880846000000076
              ],
              [
                106.62862600000005,
                20.88085300000006
              ],
              [
                106.62689700000004,
                20.880915000000073
              ],
              [
                106.62687200000005,
                20.88091600000007
              ],
              [
                106.62620900000007,
                20.881049000000075
              ],
              [
                106.62516800000009,
                20.881238000000053
              ],
              [
                106.62341300000008,
                20.881705000000068
              ],
              [
                106.62341000000004,
                20.881706000000065
              ],
              [
                106.62329000000005,
                20.88174900000007
              ],
              [
                106.62280700000008,
                20.881110000000035
              ],
              [
                106.62258200000008,
                20.88081200000005
              ],
              [
                106.62251100000009,
                20.880664000000024
              ],
              [
                106.62249900000006,
                20.880328000000077
              ],
              [
                106.62249700000007,
                20.88021800000007
              ],
              [
                106.62249600000007,
                20.880186000000037
              ],
              [
                106.62250500000005,
                20.880003000000045
              ],
              [
                106.62250900000004,
                20.879913000000045
              ],
              [
                106.62251700000007,
                20.879831000000024
              ],
              [
                106.62258400000007,
                20.879079000000047
              ],
              [
                106.62266200000005,
                20.87822200000005
              ],
              [
                106.62277700000004,
                20.87708800000007
              ],
              [
                106.62284300000005,
                20.876483000000064
              ],
              [
                106.62287900000007,
                20.876183000000026
              ],
              [
                106.62291700000009,
                20.875869000000023
              ],
              [
                106.62306200000006,
                20.87495800000005
              ],
              [
                106.62319900000006,
                20.87408300000004
              ],
              [
                106.62320000000005,
                20.87407600000006
              ],
              [
                106.62274500000007,
                20.87424100000004
              ],
              [
                106.62268500000005,
                20.874005000000068
              ],
              [
                106.62264800000008,
                20.873872000000063
              ],
              [
                106.62261600000005,
                20.873384000000044
              ],
              [
                106.62263200000007,
                20.873016000000064
              ],
              [
                106.62267100000008,
                20.873012000000074
              ],
              [
                106.62287000000003,
                20.872994000000062
              ],
              [
                106.62338100000005,
                20.872945000000072
              ],
              [
                106.62332600000008,
                20.872292000000073
              ],
              [
                106.62350800000007,
                20.872265000000027
              ],
              [
                106.62401500000004,
                20.872172000000035
              ],
              [
                106.62443900000005,
                20.87208000000004
              ],
              [
                106.62557700000008,
                20.87173400000006
              ],
              [
                106.62646300000006,
                20.871369000000072
              ],
              [
                106.62668600000006,
                20.87129600000003
              ],
              [
                106.62679100000008,
                20.87125100000003
              ],
              [
                106.62687200000005,
                20.87123500000007
              ],
              [
                106.62694600000003,
                20.87120600000003
              ],
              [
                106.62747100000007,
                20.870956000000035
              ],
              [
                106.62770400000005,
                20.870836000000054
              ],
              [
                106.62784800000009,
                20.870738000000074
              ],
              [
                106.62808500000006,
                20.870538000000067
              ],
              [
                106.62825000000004,
                20.87040200000007
              ],
              [
                106.62847600000003,
                20.870218000000023
              ],
              [
                106.62872700000008,
                20.869979000000058
              ],
              [
                106.62899900000008,
                20.869687000000056
              ],
              [
                106.62945300000007,
                20.86917100000005
              ],
              [
                106.62975700000004,
                20.86876600000005
              ],
              [
                106.62985000000003,
                20.868634000000043
              ],
              [
                106.63010300000008,
                20.868146000000024
              ],
              [
                106.63037900000006,
                20.867341000000067
              ],
              [
                106.63092600000004,
                20.866131000000053
              ],
              [
                106.63142600000003,
                20.86537100000004
              ],
              [
                106.63203000000004,
                20.864820000000066
              ],
              [
                106.63249400000007,
                20.86444300000005
              ],
              [
                106.63323200000008,
                20.863987000000066
              ],
              [
                106.63420500000007,
                20.863691000000074
              ],
              [
                106.63494600000007,
                20.863578000000075
              ],
              [
                106.63572000000005,
                20.863609000000054
              ],
              [
                106.63656400000008,
                20.86367800000005
              ],
              [
                106.63728800000007,
                20.863804000000073
              ],
              [
                106.63767000000007,
                20.863900000000058
              ],
              [
                106.63813000000005,
                20.86404200000004
              ],
              [
                106.63853400000005,
                20.864179000000036
              ],
              [
                106.63892100000004,
                20.86430400000006
              ],
              [
                106.63912900000008,
                20.864373000000057
              ],
              [
                106.63949500000007,
                20.864514000000042
              ],
              [
                106.63984500000004,
                20.86463200000003
              ],
              [
                106.64005900000006,
                20.864708000000064
              ],
              [
                106.64026600000005,
                20.864761000000044
              ],
              [
                106.64051800000004,
                20.86480700000004
              ],
              [
                106.64083100000005,
                20.864835000000028
              ],
              [
                106.64117500000003,
                20.864851000000044
              ],
              [
                106.64147500000007,
                20.86483400000003
              ],
              [
                106.64202100000006,
                20.864806000000044
              ],
              [
                106.64248100000003,
                20.864711000000057
              ],
              [
                106.64288400000004,
                20.864611000000025
              ],
              [
                106.64341000000007,
                20.86446200000006
              ],
              [
                106.64381400000008,
                20.864337000000035
              ],
              [
                106.64407000000006,
                20.86421400000006
              ],
              [
                106.64434700000004,
                20.86409100000003
              ],
              [
                106.64458700000006,
                20.863942000000065
              ],
              [
                106.64483400000006,
                20.863784000000066
              ],
              [
                106.64507400000008,
                20.863616000000036
              ],
              [
                106.64527000000004,
                20.863448000000062
              ],
              [
                106.64558500000004,
                20.86318700000004
              ],
              [
                106.64592200000004,
                20.862914000000046
              ],
              [
                106.64625800000005,
                20.86263500000007
              ],
              [
                106.64641600000004,
                20.86250300000006
              ],
              [
                106.64651900000007,
                20.862416000000053
              ],
              [
                106.64662900000008,
                20.862275000000068
              ],
              [
                106.64671200000004,
                20.862167000000056
              ],
              [
                106.64691200000004,
                20.861935000000074
              ],
              [
                106.64703900000006,
                20.861766000000046
              ],
              [
                106.64749900000004,
                20.86119300000007
              ],
              [
                106.64805300000006,
                20.86045000000007
              ],
              [
                106.64844300000004,
                20.859973000000025
              ],
              [
                106.64870600000006,
                20.859789000000035
              ],
              [
                106.64881200000008,
                20.85976100000005
              ],
              [
                106.64893500000005,
                20.859736000000055
              ],
              [
                106.64914600000009,
                20.859728000000075
              ],
              [
                106.64927200000005,
                20.859739000000047
              ],
              [
                106.64935300000008,
                20.859772000000078
              ],
              [
                106.64955400000008,
                20.859821000000068
              ],
              [
                106.64978800000006,
                20.859871000000055
              ],
              [
                106.65010500000005,
                20.859947000000034
              ],
              [
                106.65036500000008,
                20.860017000000028
              ],
              [
                106.65048500000006,
                20.860050000000058
              ],
              [
                106.65050900000006,
                20.860056000000043
              ],
              [
                106.65060700000004,
                20.86007600000005
              ],
              [
                106.65065900000008,
                20.860086000000024
              ],
              [
                106.65143700000004,
                20.860314000000074
              ],
              [
                106.65176300000007,
                20.86038700000006
              ],
              [
                106.65196000000009,
                20.860433000000057
              ],
              [
                106.65228300000007,
                20.860509000000036
              ],
              [
                106.65259600000007,
                20.860592000000054
              ],
              [
                106.65277300000008,
                20.86066100000005
              ],
              [
                106.65308500000003,
                20.860779000000036
              ],
              [
                106.65339400000005,
                20.860903000000064
              ],
              [
                106.65347900000006,
                20.86093500000004
              ],
              [
                106.65385900000007,
                20.861147000000074
              ],
              [
                106.65432200000004,
                20.861395000000073
              ],
              [
                106.65478100000007,
                20.86163300000004
              ],
              [
                106.65499200000005,
                20.86173400000007
              ],
              [
                106.65525700000006,
                20.86184600000007
              ],
              [
                106.65573800000004,
                20.86199000000005
              ],
              [
                106.65620400000006,
                20.86208300000004
              ],
              [
                106.65653800000007,
                20.862111000000027
              ],
              [
                106.65727600000008,
                20.86210200000005
              ],
              [
                106.65790200000004,
                20.862062000000037
              ],
              [
                106.65845300000007,
                20.86204200000003
              ],
              [
                106.65867700000007,
                20.862010000000055
              ],
              [
                106.65910900000006,
                20.861962000000062
              ],
              [
                106.65975800000007,
                20.861681000000033
              ],
              [
                106.66024100000004,
                20.861260000000073
              ],
              [
                106.66059500000006,
                20.86084100000005
              ],
              [
                106.66083500000008,
                20.86047300000007
              ],
              [
                106.66094600000008,
                20.860171000000037
              ],
              [
                106.66100400000005,
                20.85986900000006
              ],
              [
                106.66087400000004,
                20.859096000000022
              ],
              [
                106.66074500000008,
                20.85849500000006
              ],
              [
                106.66051000000004,
                20.857902000000024
              ],
              [
                106.66033800000008,
                20.857545000000073
              ],
              [
                106.65995800000007,
                20.85701800000004
              ],
              [
                106.65971700000006,
                20.856547000000035
              ],
              [
                106.65966000000009,
                20.85624000000007
              ],
              [
                106.65971700000006,
                20.855916000000036
              ],
              [
                106.65985800000004,
                20.85554200000007
              ],
              [
                106.66046900000003,
                20.854711000000066
              ],
              [
                106.66052500000006,
                20.854638000000023
              ],
              [
                106.66059300000006,
                20.85455600000006
              ],
              [
                106.66083200000008,
                20.85432000000003
              ],
              [
                106.66105200000004,
                20.854111000000046
              ],
              [
                106.66122200000007,
                20.85399300000006
              ],
              [
                106.66148900000007,
                20.85382100000004
              ],
              [
                106.66185500000006,
                20.853598000000034
              ],
              [
                106.66205700000006,
                20.85348300000004
              ],
              [
                106.66224300000005,
                20.85340800000006
              ],
              [
                106.66255200000006,
                20.85329500000006
              ],
              [
                106.66306900000006,
                20.853146000000038
              ],
              [
                106.66348300000004,
                20.853018000000077
              ],
              [
                106.66368100000005,
                20.852990000000034
              ],
              [
                106.66375200000004,
                20.85298000000006
              ],
              [
                106.66392400000007,
                20.85301000000004
              ],
              [
                106.66450500000008,
                20.85308200000003
              ],
              [
                106.66553100000004,
                20.853261000000032
              ],
              [
                106.66646600000007,
                20.853525000000047
              ],
              [
                106.66651900000005,
                20.85354300000006
              ],
              [
                106.66652000000005,
                20.853544000000056
              ],
              [
                106.66691700000007,
                20.85373100000004
              ],
              [
                106.66737400000005,
                20.85398200000003
              ],
              [
                106.66769400000004,
                20.85419100000007
              ],
              [
                106.66808700000007,
                20.85448400000007
              ],
              [
                106.66850900000009,
                20.854808000000048
              ],
              [
                106.66882400000009,
                20.85505900000004
              ],
              [
                106.66903200000007,
                20.855226000000073
              ],
              [
                106.66930100000008,
                20.85508500000003
              ],
              [
                106.66940500000004,
                20.855031000000054
              ],
              [
                106.66985600000004,
                20.854805000000056
              ],
              [
                106.67020900000006,
                20.854615000000024
              ],
              [
                106.67037600000003,
                20.854524000000026
              ],
              [
                106.67039200000005,
                20.854524000000026
              ],
              [
                106.67067400000008,
                20.85451800000004
              ],
              [
                106.67140600000005,
                20.85452300000003
              ],
              [
                106.67188400000003,
                20.85454500000003
              ],
              [
                106.67203000000006,
                20.854551000000072
              ],
              [
                106.67243500000006,
                20.85460500000005
              ],
              [
                106.67345800000004,
                20.854801000000066
              ],
              [
                106.67456400000003,
                20.85503300000005
              ],
              [
                106.67470000000009,
                20.85506300000003
              ],
              [
                106.67526000000004,
                20.85516000000007
              ],
              [
                106.67629200000005,
                20.85535200000004
              ],
              [
                106.67799100000008,
                20.855669000000034
              ],
              [
                106.67810700000007,
                20.855691000000036
              ],
              [
                106.67824000000007,
                20.855720000000076
              ],
              [
                106.67834000000005,
                20.855342000000064
              ],
              [
                106.67897700000009,
                20.855471000000023
              ],
              [
                106.67930200000006,
                20.85553600000003
              ],
              [
                106.67991700000005,
                20.855661000000055
              ],
              [
                106.68018000000006,
                20.855714000000035
              ],
              [
                106.68146300000006,
                20.855977000000053
              ],
              [
                106.68162000000007,
                20.85600900000003
              ],
              [
                106.68172100000004,
                20.856030000000032
              ],
              [
                106.68177300000008,
                20.85603800000007
              ],
              [
                106.68242700000008,
                20.85614400000003
              ],
              [
                106.68390700000003,
                20.85671700000006
              ],
              [
                106.68406300000004,
                20.856801000000075
              ],
              [
                106.68430900000004,
                20.856933000000026
              ],
              [
                106.68511600000005,
                20.857368000000065
              ],
              [
                106.68577300000004,
                20.857842000000062
              ],
              [
                106.68581100000006,
                20.85786900000005
              ],
              [
                106.68594000000007,
                20.857962000000043
              ],
              [
                106.68660300000005,
                20.858543000000054
              ],
              [
                106.68748900000008,
                20.859369000000072
              ],
              [
                106.68793000000005,
                20.859781000000055
              ],
              [
                106.68855000000008,
                20.860784000000024
              ],
              [
                106.68870700000008,
                20.861105000000066
              ],
              [
                106.68873100000008,
                20.86115300000006
              ],
              [
                106.68881500000003,
                20.861353000000065
              ],
              [
                106.68888800000008,
                20.86152400000003
              ],
              [
                106.68896200000006,
                20.861819000000025
              ],
              [
                106.68901400000004,
                20.862090000000023
              ],
              [
                106.68901400000004,
                20.862150000000042
              ],
              [
                106.68902300000008,
                20.862919000000034
              ],
              [
                106.68902100000008,
                20.86358800000005
              ],
              [
                106.68902000000008,
                20.86406400000004
              ],
              [
                106.68898100000007,
                20.865580000000023
              ],
              [
                106.68817100000007,
                20.86544800000007
              ],
              [
                106.68772100000007,
                20.86537400000003
              ],
              [
                106.68662600000005,
                20.865162000000055
              ],
              [
                106.68628900000004,
                20.86509700000005
              ],
              [
                106.68491300000005,
                20.86483000000004
              ],
              [
                106.68454200000008,
                20.86475900000005
              ],
              [
                106.68417000000005,
                20.864670000000046
              ],
              [
                106.68369300000006,
                20.864557000000048
              ],
              [
                106.68344800000006,
                20.864473000000032
              ],
              [
                106.68314000000004,
                20.864513000000045
              ],
              [
                106.68301800000006,
                20.864522000000022
              ],
              [
                106.68274000000008,
                20.86452500000007
              ],
              [
                106.68277300000005,
                20.865117000000055
              ],
              [
                106.68247500000007,
                20.86538100000007
              ],
              [
                106.68234200000006,
                20.865376000000026
              ],
              [
                106.68186300000008,
                20.865356000000077
              ],
              [
                106.68132200000008,
                20.865333000000078
              ],
              [
                106.68133800000004,
                20.865676000000065
              ],
              [
                106.68134800000007,
                20.865872000000024
              ],
              [
                106.68135100000006,
                20.865918000000022
              ],
              [
                106.68135300000006,
                20.865965000000074
              ],
              [
                106.68132800000006,
                20.866052000000025
              ],
              [
                106.68129400000004,
                20.866171000000065
              ],
              [
                106.68127000000004,
                20.86667300000005
              ],
              [
                106.68126700000005,
                20.866884000000027
              ],
              [
                106.68126000000007,
                20.86746800000003
              ],
              [
                106.68122700000004,
                20.867466000000036
              ],
              [
                106.67960100000005,
                20.86738500000007
              ],
              [
                106.67859600000008,
                20.867567000000065
              ],
              [
                106.67685400000005,
                20.868058000000076
              ],
              [
                106.67529500000006,
                20.86885600000005
              ],
              [
                106.67402200000004,
                20.86961400000007
              ],
              [
                106.67263300000008,
                20.870940000000076
              ],
              [
                106.67058700000007,
                20.87312000000003
              ],
              [
                106.66960400000005,
                20.87389600000006
              ],
              [
                106.66944300000006,
                20.87400400000007
              ],
              [
                106.66925700000007,
                20.87412900000004
              ],
              [
                106.66850700000003,
                20.874632000000076
              ],
              [
                106.66761400000007,
                20.875241000000074
              ],
              [
                106.66761400000007,
                20.87524200000007
              ],
              [
                106.66756000000004,
                20.875275000000045
              ],
              [
                106.66727500000007,
                20.875447000000065
              ],
              [
                106.66626100000008,
                20.87606100000005
              ],
              [
                106.66622300000006,
                20.87608400000005
              ],
              [
                106.66618300000005,
                20.876108000000045
              ],
              [
                106.66584400000005,
                20.87631300000004
              ],
              [
                106.66497900000007,
                20.876837000000023
              ],
              [
                106.66494800000004,
                20.876851000000045
              ],
              [
                106.66338300000007,
                20.877593000000047
              ],
              [
                106.66232100000008,
                20.878096000000028
              ],
              [
                106.66218400000008,
                20.87815800000004
              ],
              [
                106.66203400000006,
                20.878228000000036
              ],
              [
                106.66140900000005,
                20.878514000000052
              ],
              [
                106.65943500000009,
                20.87942000000004
              ],
              [
                106.65892000000008,
                20.879657000000066
              ],
              [
                106.65699600000005,
                20.880170000000078
              ],
              [
                106.65681300000006,
                20.880220000000065
              ],
              [
                106.65602400000006,
                20.880430000000047
              ],
              [
                106.65537700000004,
                20.880550000000028
              ],
              [
                106.65512400000006,
                20.880597000000023
              ],
              [
                106.65409600000004,
                20.880787000000055
              ],
              [
                106.65322700000007,
                20.880837000000042
              ],
              [
                106.65176300000007,
                20.880921000000058
              ],
              [
                106.65144800000007,
                20.88093900000007
              ],
              [
                106.65125000000006,
                20.880935000000022
              ],
              [
                106.65087100000005,
                20.880926000000045
              ],
              [
                106.65080000000006,
                20.88092400000005
              ],
              [
                106.65056500000009,
                20.880919000000063
              ],
              [
                106.65031400000004,
                20.880913000000078
              ],
              [
                106.65030700000005,
                20.880913000000078
              ],
              [
                106.65005900000006,
                20.880908000000034
              ],
              [
                106.64968500000003,
                20.880899000000056
              ],
              [
                106.64689600000008,
                20.880836000000045
              ],
              [
                106.64588800000007,
                20.880814000000044
              ],
              [
                106.64576900000009,
                20.88081100000005
              ],
              [
                106.64448400000003,
                20.880782000000067
              ],
              [
                106.64445400000005,
                20.88078100000007
              ],
              [
                106.64318300000008,
                20.88074400000005
              ],
              [
                106.63880300000005,
                20.880616000000032
              ],
              [
                106.63765300000006,
                20.88058200000006
              ],
              [
                106.63742500000006,
                20.880587000000048
              ],
              [
                106.63615600000008,
                20.880674000000056
              ],
              [
                106.63530200000008,
                20.880733000000077
              ],
              [
                106.63380200000006,
                20.880836000000045
              ],
              [
                106.63338800000008,
                20.880837000000042
              ],
              [
                106.63258400000007,
                20.88083800000004
              ],
              [
                106.63139200000006,
                20.880839000000037
              ],
              [
                106.63078500000006,
                20.880839000000037
              ],
              [
                106.62944100000004,
                20.880841000000032
              ],
              [
                106.62896000000006,
                20.880841000000032
              ],
              [
                106.62883400000004,
                20.880846000000076
              ]
            ]
          ]
        ]
      }
    }
  ]
}