{
  "type": "FeatureCollection",
  "name": "gis.vn",
  "features": [
    {
      "type": "Feature",
      "properties": {
        "ma_xa": "10750",
        "ten_xa": "Phú Thái",
        "sap_nhap": "Phú Thái (thị trấn), Kim Xuyên, Kim Anh, Kim Liên, Thượng Quận (1 phần)",
        "tru_so": "đang cập nhật",
        "loai": "Xã",
        "cap": 2,
        "stt": 111,
        "dtich_km2": 28.89,
        "dan_so": 46234,
        "matdo_km2": 1600.35,
        "ma_tinh": "31",
        "ten_tinh": "Hải Phòng",
        "mau_sac": "#FF1493"
      },
      "geometry": {
        "type": "MultiPolygon",
        "coordinates": [
          [
            [
              [
                106.49218700000006,
                20.97730000000007
              ],
              [
                106.49099500000005,
                20.977741000000037
              ],
              [
                106.49036400000006,
                20.978296000000057
              ],
              [
                106.49030400000004,
                20.978427000000067
              ],
              [
                106.49017100000003,
                20.97871900000007
              ],
              [
                106.48981600000008,
                20.97949600000004
              ],
              [
                106.48969800000003,
                20.980357000000026
              ],
              [
                106.48972200000009,
                20.981538000000057
              ],
              [
                106.48973700000005,
                20.982260000000053
              ],
              [
                106.48975400000006,
                20.983036000000027
              ],
              [
                106.48963300000008,
                20.983742000000063
              ],
              [
                106.48947300000003,
                20.98426900000004
              ],
              [
                106.48874200000006,
                20.98494500000004
              ],
              [
                106.48727300000007,
                20.98563900000005
              ],
              [
                106.48587600000008,
                20.986154000000056
              ],
              [
                106.48525500000005,
                20.986384000000044
              ],
              [
                106.48514800000004,
                20.986424000000056
              ],
              [
                106.47970000000004,
                20.989009000000067
              ],
              [
                106.47966200000008,
                20.988402000000065
              ],
              [
                106.47966400000007,
                20.98811900000004
              ],
              [
                106.47963900000008,
                20.987968000000023
              ],
              [
                106.47959000000009,
                20.987592000000063
              ],
              [
                106.47954200000004,
                20.987424000000033
              ],
              [
                106.47948600000007,
                20.987330000000043
              ],
              [
                106.47943000000004,
                20.987235000000055
              ],
              [
                106.47940800000003,
                20.98720000000003
              ],
              [
                106.47938300000004,
                20.987160000000074
              ],
              [
                106.47933000000006,
                20.98713900000007
              ],
              [
                106.47926100000006,
                20.987100000000055
              ],
              [
                106.47918300000003,
                20.987001000000078
              ],
              [
                106.47916000000004,
                20.98691800000006
              ],
              [
                106.47889000000004,
                20.986583000000053
              ],
              [
                106.47883000000007,
                20.98649000000006
              ],
              [
                106.47849800000006,
                20.986030000000028
              ],
              [
                106.47818600000005,
                20.985569000000055
              ],
              [
                106.47806200000008,
                20.98539100000005
              ],
              [
                106.47800600000005,
                20.98531200000008
              ],
              [
                106.47792300000003,
                20.98517400000003
              ],
              [
                106.47787000000005,
                20.98503000000005
              ],
              [
                106.47775900000005,
                20.984635000000026
              ],
              [
                106.47774400000009,
                20.984582000000046
              ],
              [
                106.47769100000005,
                20.984395000000063
              ],
              [
                106.47758000000005,
                20.984090000000037
              ],
              [
                106.47741900000005,
                20.983718000000067
              ],
              [
                106.47720700000008,
                20.983212000000037
              ],
              [
                106.47720000000004,
                20.983200000000068
              ],
              [
                106.47702100000004,
                20.982793000000072
              ],
              [
                106.47674900000004,
                20.98222000000004
              ],
              [
                106.47661700000003,
                20.98191900000006
              ],
              [
                106.47648600000008,
                20.98157100000003
              ],
              [
                106.47648300000009,
                20.981565000000046
              ],
              [
                106.47629800000004,
                20.981165000000033
              ],
              [
                106.47608500000007,
                20.98072300000007
              ],
              [
                106.47599700000006,
                20.98061800000005
              ],
              [
                106.47588500000006,
                20.980518000000075
              ],
              [
                106.47528800000003,
                20.979986000000054
              ],
              [
                106.47498100000007,
                20.97975100000008
              ],
              [
                106.47479500000009,
                20.97960800000004
              ],
              [
                106.47476100000006,
                20.979570000000024
              ],
              [
                106.47465400000004,
                20.97945100000004
              ],
              [
                106.47439700000007,
                20.979153000000053
              ],
              [
                106.47419700000006,
                20.978896000000077
              ],
              [
                106.47392800000006,
                20.978533000000027
              ],
              [
                106.47378800000007,
                20.978353000000027
              ],
              [
                106.47377200000005,
                20.978332000000023
              ],
              [
                106.47360400000008,
                20.978099000000043
              ],
              [
                106.47347900000005,
                20.977862000000073
              ],
              [
                106.47342400000008,
                20.977738000000045
              ],
              [
                106.47339200000005,
                20.977589000000023
              ],
              [
                106.47332500000005,
                20.97729700000008
              ],
              [
                106.47325200000006,
                20.97706800000003
              ],
              [
                106.47314800000004,
                20.976833000000056
              ],
              [
                106.47303000000005,
                20.976619000000028
              ],
              [
                106.47284200000007,
                20.97632200000004
              ],
              [
                106.47281200000003,
                20.976240000000075
              ],
              [
                106.47280900000004,
                20.976090000000056
              ],
              [
                106.47286000000008,
                20.97589000000005
              ],
              [
                106.47306800000007,
                20.97535300000004
              ],
              [
                106.47311500000006,
                20.975246000000027
              ],
              [
                106.47259000000008,
                20.975062000000037
              ],
              [
                106.47237800000005,
                20.975517000000025
              ],
              [
                106.47224200000005,
                20.976564000000053
              ],
              [
                106.47225600000007,
                20.977032000000065
              ],
              [
                106.47254000000004,
                20.97807300000005
              ],
              [
                106.46949000000006,
                20.978417000000036
              ],
              [
                106.46893200000005,
                20.978196000000025
              ],
              [
                106.46879300000006,
                20.978140000000053
              ],
              [
                106.46864400000004,
                20.97808100000003
              ],
              [
                106.46841600000005,
                20.978467000000023
              ],
              [
                106.46784400000007,
                20.978278000000046
              ],
              [
                106.46765100000005,
                20.979862000000026
              ],
              [
                106.46723600000007,
                20.97998000000007
              ],
              [
                106.46720900000008,
                20.979989000000046
              ],
              [
                106.46674100000007,
                20.980144000000053
              ],
              [
                106.46665800000005,
                20.98017100000004
              ],
              [
                106.46666500000003,
                20.980480000000057
              ],
              [
                106.46644700000007,
                20.980774000000054
              ],
              [
                106.46644200000009,
                20.98078000000004
              ],
              [
                106.46641900000009,
                20.98078000000004
              ],
              [
                106.46578400000004,
                20.980765000000076
              ],
              [
                106.46399300000007,
                20.98072300000007
              ],
              [
                106.46401300000008,
                20.980403000000024
              ],
              [
                106.46405300000004,
                20.98025400000006
              ],
              [
                106.46386400000006,
                20.980049000000065
              ],
              [
                106.46391300000005,
                20.979593000000023
              ],
              [
                106.46464100000009,
                20.978895000000023
              ],
              [
                106.46475800000007,
                20.978783000000078
              ],
              [
                106.46460600000006,
                20.978670000000022
              ],
              [
                106.46449400000006,
                20.978571000000045
              ],
              [
                106.46438800000004,
                20.97845200000006
              ],
              [
                106.46432900000008,
                20.978383000000065
              ],
              [
                106.46427800000004,
                20.978300000000047
              ],
              [
                106.46425400000004,
                20.978212000000042
              ],
              [
                106.46423100000004,
                20.978089000000068
              ],
              [
                106.46422100000007,
                20.97793800000005
              ],
              [
                106.46422000000007,
                20.977617000000066
              ],
              [
                106.46423300000004,
                20.977388000000076
              ],
              [
                106.46423400000003,
                20.977346000000068
              ],
              [
                106.46422700000005,
                20.976972000000046
              ],
              [
                106.46416500000004,
                20.976799000000028
              ],
              [
                106.46396000000004,
                20.976631000000054
              ],
              [
                106.46375200000006,
                20.976570000000038
              ],
              [
                106.46353900000008,
                20.97656500000005
              ],
              [
                106.46329500000007,
                20.976624000000072
              ],
              [
                106.46298400000006,
                20.97676400000006
              ],
              [
                106.46264200000007,
                20.976887000000033
              ],
              [
                106.46247300000005,
                20.976900000000057
              ],
              [
                106.46233600000005,
                20.976875000000064
              ],
              [
                106.46221200000008,
                20.976801000000023
              ],
              [
                106.46211800000003,
                20.976685000000032
              ],
              [
                106.46207500000008,
                20.976533000000074
              ],
              [
                106.46209300000004,
                20.976378000000068
              ],
              [
                106.46214600000008,
                20.976255000000037
              ],
              [
                106.46231900000004,
                20.976077000000032
              ],
              [
                106.46269500000005,
                20.97580800000003
              ],
              [
                106.46297800000008,
                20.975596000000053
              ],
              [
                106.46304200000009,
                20.975504000000058
              ],
              [
                106.46308400000004,
                20.97541700000005
              ],
              [
                106.46310700000004,
                20.97532300000006
              ],
              [
                106.46310800000003,
                20.97525600000006
              ],
              [
                106.46310900000009,
                20.975172000000043
              ],
              [
                106.46308600000003,
                20.975091000000077
              ],
              [
                106.46303500000005,
                20.975006000000064
              ],
              [
                106.46297900000008,
                20.97495900000007
              ],
              [
                106.46292800000003,
                20.97491400000007
              ],
              [
                106.46284800000006,
                20.974868000000072
              ],
              [
                106.46278000000007,
                20.97483900000003
              ],
              [
                106.46269100000006,
                20.974811000000045
              ],
              [
                106.46262200000007,
                20.974806000000058
              ],
              [
                106.46254900000008,
                20.974806000000058
              ],
              [
                106.46247500000004,
                20.97481700000003
              ],
              [
                106.46240600000004,
                20.974834000000044
              ],
              [
                106.46232300000008,
                20.974866000000077
              ],
              [
                106.46219100000008,
                20.974961000000064
              ],
              [
                106.46210800000006,
                20.975035000000048
              ],
              [
                106.46204500000005,
                20.975111000000027
              ],
              [
                106.46199600000006,
                20.97519200000005
              ],
              [
                106.46193700000003,
                20.97536400000007
              ],
              [
                106.46183300000007,
                20.975827000000038
              ],
              [
                106.46177800000004,
                20.97599800000006
              ],
              [
                106.46168000000006,
                20.97609700000004
              ],
              [
                106.46150900000004,
                20.97617400000007
              ],
              [
                106.46138200000007,
                20.97617500000007
              ],
              [
                106.46123500000004,
                20.976122000000032
              ],
              [
                106.46104900000006,
                20.97598000000005
              ],
              [
                106.46096200000005,
                20.975877000000025
              ],
              [
                106.46089700000005,
                20.975743000000023
              ],
              [
                106.46065600000009,
                20.975180000000023
              ],
              [
                106.46045300000009,
                20.974844000000076
              ],
              [
                106.46037100000007,
                20.974627000000055
              ],
              [
                106.46035700000004,
                20.974495000000047
              ],
              [
                106.46035900000004,
                20.974346000000025
              ],
              [
                106.46038900000008,
                20.974158000000045
              ],
              [
                106.46044400000005,
                20.973942000000022
              ],
              [
                106.46051100000005,
                20.97378200000003
              ],
              [
                106.46051500000004,
                20.973771000000056
              ],
              [
                106.46058800000009,
                20.97366900000003
              ],
              [
                106.46073600000005,
                20.973539000000073
              ],
              [
                106.46084600000006,
                20.973475000000064
              ],
              [
                106.46109000000007,
                20.973333000000025
              ],
              [
                106.46132100000005,
                20.973232000000053
              ],
              [
                106.46152700000005,
                20.973141000000055
              ],
              [
                106.46163100000007,
                20.97306800000007
              ],
              [
                106.46174500000006,
                20.972966000000042
              ],
              [
                106.46184500000004,
                20.97283600000003
              ],
              [
                106.46194200000008,
                20.972677000000033
              ],
              [
                106.46203600000007,
                20.972497000000033
              ],
              [
                106.46210800000006,
                20.972365000000025
              ],
              [
                106.46228700000006,
                20.97215700000004
              ],
              [
                106.46244200000007,
                20.97202500000003
              ],
              [
                106.46259800000007,
                20.97193100000004
              ],
              [
                106.46273500000007,
                20.971866000000034
              ],
              [
                106.46286000000003,
                20.971813000000054
              ],
              [
                106.46286200000009,
                20.971813000000054
              ],
              [
                106.46319900000009,
                20.971707000000038
              ],
              [
                106.46329400000008,
                20.971659000000045
              ],
              [
                106.46341400000006,
                20.971550000000036
              ],
              [
                106.46346700000004,
                20.97145400000005
              ],
              [
                106.46347400000008,
                20.971408000000054
              ],
              [
                106.46348800000004,
                20.971314000000064
              ],
              [
                106.46346700000004,
                20.971161000000052
              ],
              [
                106.46338600000007,
                20.971022000000062
              ],
              [
                106.46323500000005,
                20.970862000000068
              ],
              [
                106.46299800000008,
                20.970690000000047
              ],
              [
                106.46259800000007,
                20.970371000000057
              ],
              [
                106.46248400000007,
                20.97025700000006
              ],
              [
                106.46244700000005,
                20.970184000000074
              ],
              [
                106.46243800000008,
                20.97010800000004
              ],
              [
                106.46238800000003,
                20.969820000000027
              ],
              [
                106.46238200000005,
                20.96965000000006
              ],
              [
                106.46152500000005,
                20.969434000000035
              ],
              [
                106.46144000000004,
                20.96941300000003
              ],
              [
                106.46051200000005,
                20.96917700000006
              ],
              [
                106.46051900000003,
                20.969006000000036
              ],
              [
                106.46055600000005,
                20.968152000000032
              ],
              [
                106.46035200000006,
                20.967341000000033
              ],
              [
                106.46040300000004,
                20.96732600000007
              ],
              [
                106.46088200000008,
                20.96718000000004
              ],
              [
                106.46074400000003,
                20.96649400000007
              ],
              [
                106.46100600000005,
                20.96635500000008
              ],
              [
                106.46044400000005,
                20.965040000000045
              ],
              [
                106.46041300000007,
                20.964968000000056
              ],
              [
                106.46074300000004,
                20.96491100000003
              ],
              [
                106.46073900000005,
                20.964818000000037
              ],
              [
                106.46067600000003,
                20.96334100000007
              ],
              [
                106.46060600000004,
                20.96310100000005
              ],
              [
                106.46055200000006,
                20.96291400000007
              ],
              [
                106.46085200000005,
                20.96291300000007
              ],
              [
                106.46112400000004,
                20.962912000000074
              ],
              [
                106.46107800000004,
                20.962725000000034
              ],
              [
                106.45925100000005,
                20.955354000000057
              ],
              [
                106.45916600000004,
                20.955026000000032
              ],
              [
                106.45904300000007,
                20.95454600000005
              ],
              [
                106.45891300000005,
                20.954039000000023
              ],
              [
                106.45845000000008,
                20.952526000000034
              ],
              [
                106.45798000000008,
                20.952030000000036
              ],
              [
                106.45835200000005,
                20.952052000000037
              ],
              [
                106.45835300000005,
                20.952052000000037
              ],
              [
                106.46024200000005,
                20.95199800000006
              ],
              [
                106.46058200000004,
                20.951973000000066
              ],
              [
                106.46214100000009,
                20.951855000000023
              ],
              [
                106.46437500000008,
                20.951665000000048
              ],
              [
                106.46574500000008,
                20.951497000000074
              ],
              [
                106.46649400000007,
                20.951385000000073
              ],
              [
                106.46743600000008,
                20.951264000000037
              ],
              [
                106.46868000000006,
                20.95106000000004
              ],
              [
                106.47068900000005,
                20.950826000000063
              ],
              [
                106.47182300000009,
                20.950721000000044
              ],
              [
                106.47290400000009,
                20.950581000000057
              ],
              [
                106.47406600000005,
                20.950369000000023
              ],
              [
                106.47446900000006,
                20.950293000000045
              ],
              [
                106.47441000000003,
                20.950818000000027
              ],
              [
                106.47438200000005,
                20.951072000000067
              ],
              [
                106.47428400000007,
                20.95153700000003
              ],
              [
                106.47413600000004,
                20.95184100000006
              ],
              [
                106.47407500000008,
                20.951967000000025
              ],
              [
                106.47397500000005,
                20.952228000000048
              ],
              [
                106.47394100000008,
                20.952319000000045
              ],
              [
                106.47390300000006,
                20.95252800000003
              ],
              [
                106.47386400000005,
                20.95274100000006
              ],
              [
                106.47371800000008,
                20.953449000000035
              ],
              [
                106.47373200000004,
                20.953841000000068
              ],
              [
                106.47381700000005,
                20.954271000000062
              ],
              [
                106.47424500000005,
                20.95527100000004
              ],
              [
                106.47466900000006,
                20.95601300000004
              ],
              [
                106.47537100000005,
                20.957020000000057
              ],
              [
                106.47587700000008,
                20.957800000000077
              ],
              [
                106.47617900000006,
                20.958409000000074
              ],
              [
                106.47636700000004,
                20.95889500000004
              ],
              [
                106.47646300000008,
                20.95939100000004
              ],
              [
                106.47650100000004,
                20.96013700000003
              ],
              [
                106.47642400000007,
                20.960615000000075
              ],
              [
                106.47622100000007,
                20.961609000000067
              ],
              [
                106.47617900000006,
                20.961813000000063
              ],
              [
                106.47617700000006,
                20.961819000000048
              ],
              [
                106.47607200000004,
                20.962091000000044
              ],
              [
                106.47600400000005,
                20.962378000000058
              ],
              [
                106.47598900000008,
                20.96291400000007
              ],
              [
                106.47612000000004,
                20.96487300000007
              ],
              [
                106.47636200000005,
                20.96570200000008
              ],
              [
                106.47685900000005,
                20.96614100000005
              ],
              [
                106.47741600000006,
                20.96649000000008
              ],
              [
                106.47756200000003,
                20.966581000000076
              ],
              [
                106.47796900000009,
                20.966596000000038
              ],
              [
                106.47852800000004,
                20.96648600000003
              ],
              [
                106.47886200000005,
                20.966331000000025
              ],
              [
                106.47907400000008,
                20.966157000000067
              ],
              [
                106.47919400000006,
                20.965907000000072
              ],
              [
                106.47929200000004,
                20.965543000000025
              ],
              [
                106.47936700000008,
                20.96491100000003
              ],
              [
                106.47940800000003,
                20.963878000000022
              ],
              [
                106.47945600000008,
                20.963562000000024
              ],
              [
                106.47965500000004,
                20.963121000000058
              ],
              [
                106.48000700000006,
                20.962735000000066
              ],
              [
                106.48017500000009,
                20.962632000000042
              ],
              [
                106.48029100000008,
                20.96256100000005
              ],
              [
                106.48097900000005,
                20.96222000000006
              ],
              [
                106.48187200000007,
                20.96189700000002
              ],
              [
                106.48243100000008,
                20.961787000000072
              ],
              [
                106.48276700000008,
                20.961813000000063
              ],
              [
                106.48307300000005,
                20.961887000000047
              ],
              [
                106.48332900000008,
                20.962009000000023
              ],
              [
                106.48356500000006,
                20.96226500000006
              ],
              [
                106.48372000000006,
                20.962493000000052
              ],
              [
                106.48386000000005,
                20.962618000000077
              ],
              [
                106.48399200000006,
                20.96267400000005
              ],
              [
                106.48412200000007,
                20.96267000000006
              ],
              [
                106.48424200000005,
                20.962636000000032
              ],
              [
                106.48431800000009,
                20.962579000000062
              ],
              [
                106.48447300000004,
                20.962458000000026
              ],
              [
                106.48465400000003,
                20.962217000000066
              ],
              [
                106.48483400000003,
                20.96189000000004
              ],
              [
                106.48499500000008,
                20.961707000000047
              ],
              [
                106.48518800000005,
                20.961667000000034
              ],
              [
                106.48547300000007,
                20.961722000000066
              ],
              [
                106.48601600000006,
                20.96206200000006
              ],
              [
                106.48657100000008,
                20.96259200000003
              ],
              [
                106.48660000000007,
                20.96262100000007
              ],
              [
                106.48718800000006,
                20.963189000000057
              ],
              [
                106.48767900000007,
                20.963453000000072
              ],
              [
                106.48818900000003,
                20.963553000000047
              ],
              [
                106.48851400000007,
                20.963531000000046
              ],
              [
                106.48898100000008,
                20.963365000000067
              ],
              [
                106.48935500000005,
                20.96315100000004
              ],
              [
                106.48975800000005,
                20.96273700000006
              ],
              [
                106.49027200000006,
                20.962206000000037
              ],
              [
                106.49034500000005,
                20.962100000000078
              ],
              [
                106.49041800000003,
                20.961992000000066
              ],
              [
                106.49057300000004,
                20.961764000000073
              ],
              [
                106.49084200000004,
                20.96120700000006
              ],
              [
                106.49091100000004,
                20.960886000000073
              ],
              [
                106.49100300000003,
                20.960664000000065
              ],
              [
                106.49112100000008,
                20.960545000000025
              ],
              [
                106.49109600000008,
                20.960469000000046
              ],
              [
                106.49103100000008,
                20.96026900000004
              ],
              [
                106.49102100000005,
                20.960243000000048
              ],
              [
                106.49100900000008,
                20.960214000000065
              ],
              [
                106.49054600000005,
                20.959059000000025
              ],
              [
                106.49036600000005,
                20.958698000000027
              ],
              [
                106.49021400000004,
                20.95839200000006
              ],
              [
                106.48955500000005,
                20.957643000000076
              ],
              [
                106.48904300000004,
                20.957351000000074
              ],
              [
                106.48874700000005,
                20.95726700000006
              ],
              [
                106.48814600000009,
                20.957215000000076
              ],
              [
                106.48771700000009,
                20.95726600000006
              ],
              [
                106.48770900000005,
                20.95726700000006
              ],
              [
                106.48698900000005,
                20.957493000000056
              ],
              [
                106.48611800000003,
                20.957979000000023
              ],
              [
                106.48543000000006,
                20.958367000000067
              ],
              [
                106.48499400000009,
                20.95850500000006
              ],
              [
                106.48478000000006,
                20.95851600000003
              ],
              [
                106.48452500000008,
                20.958451000000025
              ],
              [
                106.48439100000007,
                20.958319000000074
              ],
              [
                106.48433800000004,
                20.958090000000027
              ],
              [
                106.48442600000004,
                20.957754000000023
              ],
              [
                106.48503800000009,
                20.956831000000022
              ],
              [
                106.48549000000008,
                20.956206000000066
              ],
              [
                106.48584000000005,
                20.955524000000025
              ],
              [
                106.48598800000008,
                20.95506400000005
              ],
              [
                106.48618400000004,
                20.954326000000037
              ],
              [
                106.48642800000005,
                20.953265000000044
              ],
              [
                106.48651600000005,
                20.952429000000052
              ],
              [
                106.48653700000006,
                20.951952000000063
              ],
              [
                106.48654000000005,
                20.951900000000023
              ],
              [
                106.48655400000007,
                20.95171700000003
              ],
              [
                106.48659400000008,
                20.951595000000054
              ],
              [
                106.48674800000003,
                20.951423000000034
              ],
              [
                106.48677200000009,
                20.95140800000007
              ],
              [
                106.48717300000004,
                20.951157000000023
              ],
              [
                106.48737700000004,
                20.95107900000005
              ],
              [
                106.48786500000006,
                20.951444000000038
              ],
              [
                106.48816600000004,
                20.951779000000045
              ],
              [
                106.48846800000007,
                20.952217000000076
              ],
              [
                106.48864100000009,
                20.95286100000004
              ],
              [
                106.48867000000007,
                20.952972000000045
              ],
              [
                106.48884000000004,
                20.953512000000046
              ],
              [
                106.48905000000008,
                20.953876000000037
              ],
              [
                106.48934700000007,
                20.95423100000005
              ],
              [
                106.48968900000006,
                20.954476000000057
              ],
              [
                106.49008800000007,
                20.954702000000054
              ],
              [
                106.49055900000008,
                20.954859000000056
              ],
              [
                106.49067900000006,
                20.954895000000022
              ],
              [
                106.49131700000004,
                20.955085000000054
              ],
              [
                106.49180300000006,
                20.955246000000045
              ],
              [
                106.49220200000008,
                20.955436000000077
              ],
              [
                106.49257100000005,
                20.955655000000036
              ],
              [
                106.49279500000006,
                20.955890000000068
              ],
              [
                106.49293500000005,
                20.95617500000003
              ],
              [
                106.49296300000009,
                20.956286000000034
              ],
              [
                106.49300200000005,
                20.956440000000043
              ],
              [
                106.49300400000004,
                20.95665900000006
              ],
              [
                106.49300500000004,
                20.95666600000004
              ],
              [
                106.49296900000007,
                20.956935000000044
              ],
              [
                106.49281200000007,
                20.957249000000047
              ],
              [
                106.49257500000004,
                20.957605000000058
              ],
              [
                106.49252000000007,
                20.957687000000078
              ],
              [
                106.49229700000006,
                20.958024000000023
              ],
              [
                106.49207900000005,
                20.958395000000053
              ],
              [
                106.49195200000008,
                20.95865800000007
              ],
              [
                106.49184000000008,
                20.95897800000006
              ],
              [
                106.49177100000009,
                20.95930100000004
              ],
              [
                106.49174900000008,
                20.959771000000046
              ],
              [
                106.49181800000008,
                20.960154000000045
              ],
              [
                106.49192700000003,
                20.96041500000007
              ],
              [
                106.49216300000006,
                20.960743000000036
              ],
              [
                106.49236800000006,
                20.96095900000006
              ],
              [
                106.49261000000007,
                20.96112000000005
              ],
              [
                106.49261400000006,
                20.961122000000046
              ],
              [
                106.49288200000007,
                20.961199000000022
              ],
              [
                106.49308800000006,
                20.961222000000078
              ],
              [
                106.49324800000005,
                20.96121000000005
              ],
              [
                106.49361700000009,
                20.961092000000065
              ],
              [
                106.49388200000004,
                20.960885000000076
              ],
              [
                106.49441400000006,
                20.96022800000003
              ],
              [
                106.49443800000006,
                20.96019700000005
              ],
              [
                106.49485100000004,
                20.959667000000024
              ],
              [
                106.49543600000004,
                20.959146000000032
              ],
              [
                106.49576900000005,
                20.958975000000066
              ],
              [
                106.49615500000004,
                20.958776000000057
              ],
              [
                106.49676100000005,
                20.95850100000007
              ],
              [
                106.49704700000007,
                20.95840000000004
              ],
              [
                106.49708700000008,
                20.958274000000074
              ],
              [
                106.49712100000005,
                20.957654000000048
              ],
              [
                106.49716100000006,
                20.95727100000005
              ],
              [
                106.49718600000006,
                20.95702200000005
              ],
              [
                106.49724500000008,
                20.956845000000044
              ],
              [
                106.49732900000004,
                20.956605000000025
              ],
              [
                106.49734800000004,
                20.956376000000034
              ],
              [
                106.49733400000008,
                20.956070000000068
              ],
              [
                106.49737900000008,
                20.955953000000022
              ],
              [
                106.49739900000009,
                20.955902000000037
              ],
              [
                106.49759700000004,
                20.95536500000003
              ],
              [
                106.49774000000008,
                20.954928000000052
              ],
              [
                106.49778700000007,
                20.95446400000003
              ],
              [
                106.49766600000004,
                20.954140000000052
              ],
              [
                106.49741800000004,
                20.953774000000067
              ],
              [
                106.49724400000008,
                20.953633000000025
              ],
              [
                106.49696300000005,
                20.953549000000066
              ],
              [
                106.49666200000007,
                20.95346600000005
              ],
              [
                106.49607400000008,
                20.953198000000043
              ],
              [
                106.49598600000007,
                20.953147000000058
              ],
              [
                106.49607800000007,
                20.952864000000034
              ],
              [
                106.49611100000004,
                20.95276300000006
              ],
              [
                106.49615000000006,
                20.952729000000033
              ],
              [
                106.49642600000004,
                20.95248600000008
              ],
              [
                106.49686700000007,
                20.95201600000007
              ],
              [
                106.49846000000008,
                20.94974300000007
              ],
              [
                106.50002000000006,
                20.948068000000035
              ],
              [
                106.49958100000003,
                20.947367000000042
              ],
              [
                106.49970600000006,
                20.94725600000004
              ],
              [
                106.49983100000009,
                20.947145000000035
              ],
              [
                106.50012400000008,
                20.94688300000007
              ],
              [
                106.50014500000009,
                20.946909000000062
              ],
              [
                106.50040900000005,
                20.947228000000052
              ],
              [
                106.50063200000005,
                20.94700000000006
              ],
              [
                106.50063200000005,
                20.946999000000062
              ],
              [
                106.50117600000004,
                20.94644500000004
              ],
              [
                106.50068900000008,
                20.946023000000025
              ],
              [
                106.50092300000006,
                20.945737000000065
              ],
              [
                106.49916200000007,
                20.94373900000005
              ],
              [
                106.49901600000004,
                20.94357400000007
              ],
              [
                106.49896200000006,
                20.943513000000053
              ],
              [
                106.49944700000009,
                20.943081000000063
              ],
              [
                106.50041200000004,
                20.94227200000006
              ],
              [
                106.50109400000008,
                20.941681000000074
              ],
              [
                106.50131100000004,
                20.941493000000037
              ],
              [
                106.50136000000003,
                20.94125800000006
              ],
              [
                106.50150100000008,
                20.940683000000035
              ],
              [
                106.50159800000006,
                20.94046000000003
              ],
              [
                106.50187000000005,
                20.94017400000007
              ],
              [
                106.50187200000005,
                20.940173000000073
              ],
              [
                106.50220400000006,
                20.93991200000005
              ],
              [
                106.50238200000007,
                20.939853000000028
              ],
              [
                106.50261000000006,
                20.939823000000047
              ],
              [
                106.50298200000009,
                20.939824000000044
              ],
              [
                106.50302600000003,
                20.939824000000044
              ],
              [
                106.50329500000004,
                20.939823000000047
              ],
              [
                106.50342600000005,
                20.939772000000062
              ],
              [
                106.50369000000006,
                20.939671000000033
              ],
              [
                106.50378700000005,
                20.939620000000048
              ],
              [
                106.50410900000008,
                20.939292000000023
              ],
              [
                106.50420500000007,
                20.939168000000052
              ],
              [
                106.50467600000007,
                20.938847000000067
              ],
              [
                106.50565600000004,
                20.93853000000007
              ],
              [
                106.50653700000004,
                20.93824600000005
              ],
              [
                106.50688900000006,
                20.938150000000064
              ],
              [
                106.50705100000005,
                20.938128000000063
              ],
              [
                106.50718800000004,
                20.938132000000053
              ],
              [
                106.50737900000007,
                20.938145000000077
              ],
              [
                106.50721900000008,
                20.938918000000058
              ],
              [
                106.50712000000004,
                20.939973000000066
              ],
              [
                106.50712600000008,
                20.94023500000003
              ],
              [
                106.50714200000004,
                20.940547000000038
              ],
              [
                106.50717800000007,
                20.94103400000006
              ],
              [
                106.50721300000004,
                20.941368000000068
              ],
              [
                106.50727500000005,
                20.941679000000022
              ],
              [
                106.50735500000008,
                20.941914000000054
              ],
              [
                106.50745800000004,
                20.94217100000003
              ],
              [
                106.50756300000006,
                20.942367000000047
              ],
              [
                106.50769100000008,
                20.94257700000003
              ],
              [
                106.50783100000007,
                20.94277100000005
              ],
              [
                106.50799700000005,
                20.942953000000045
              ],
              [
                106.50838900000008,
                20.94329700000003
              ],
              [
                106.50873900000005,
                20.943520000000035
              ],
              [
                106.50921500000004,
                20.943701000000033
              ],
              [
                106.50988900000004,
                20.943782000000056
              ],
              [
                106.51020600000004,
                20.943830000000048
              ],
              [
                106.51051400000006,
                20.943869000000063
              ],
              [
                106.51091300000007,
                20.943904000000032
              ],
              [
                106.51123100000007,
                20.94393800000006
              ],
              [
                106.51180300000004,
                20.943985000000055
              ],
              [
                106.51209200000005,
                20.943993000000034
              ],
              [
                106.51229300000006,
                20.94397900000007
              ],
              [
                106.51252900000009,
                20.94396400000005
              ],
              [
                106.51277900000008,
                20.94392700000003
              ],
              [
                106.51300900000007,
                20.943858000000034
              ],
              [
                106.51318200000009,
                20.943794000000025
              ],
              [
                106.51347900000007,
                20.943666000000064
              ],
              [
                106.51394000000005,
                20.943425000000047
              ],
              [
                106.51441400000004,
                20.943097000000023
              ],
              [
                106.51471500000008,
                20.942852000000073
              ],
              [
                106.51492600000006,
                20.94264400000003
              ],
              [
                106.51558600000004,
                20.942004000000054
              ],
              [
                106.51567300000005,
                20.94191500000005
              ],
              [
                106.51576000000006,
                20.94182600000005
              ],
              [
                106.51609000000008,
                20.941501000000073
              ],
              [
                106.51658800000007,
                20.941009000000065
              ],
              [
                106.51743300000004,
                20.94008400000007
              ],
              [
                106.51797700000009,
                20.939455000000066
              ],
              [
                106.51868400000006,
                20.938474000000042
              ],
              [
                106.51901400000008,
                20.937897000000078
              ],
              [
                106.51928300000009,
                20.937321000000054
              ],
              [
                106.51945400000005,
                20.936825000000056
              ],
              [
                106.51953400000008,
                20.93643000000003
              ],
              [
                106.51960400000007,
                20.935877000000062
              ],
              [
                106.51963000000006,
                20.935397000000023
              ],
              [
                106.51960300000007,
                20.934988000000033
              ],
              [
                106.51950800000009,
                20.934623000000045
              ],
              [
                106.51935200000008,
                20.934316000000024
              ],
              [
                106.51910600000008,
                20.93410300000005
              ],
              [
                106.51873700000004,
                20.93385600000005
              ],
              [
                106.51827000000009,
                20.93370900000008
              ],
              [
                106.51728200000008,
                20.933403000000055
              ],
              [
                106.51714800000008,
                20.933348000000024
              ],
              [
                106.51624000000004,
                20.932953000000055
              ],
              [
                106.51582300000007,
                20.932534000000032
              ],
              [
                106.51560600000005,
                20.932199000000026
              ],
              [
                106.51544200000006,
                20.931791000000032
              ],
              [
                106.51538500000004,
                20.931498000000033
              ],
              [
                106.51541200000008,
                20.931103000000064
              ],
              [
                106.51552300000009,
                20.93072200000006
              ],
              [
                106.51568700000007,
                20.930348000000038
              ],
              [
                106.51595900000007,
                20.930066000000068
              ],
              [
                106.51630700000004,
                20.92977600000006
              ],
              [
                106.51667100000009,
                20.929550000000063
              ],
              [
                106.51724600000006,
                20.929342000000076
              ],
              [
                106.51734400000004,
                20.929319000000078
              ],
              [
                106.51770800000008,
                20.929245000000037
              ],
              [
                106.51780500000007,
                20.929237000000057
              ],
              [
                106.51878900000008,
                20.929152000000045
              ],
              [
                106.51934600000004,
                20.929204000000027
              ],
              [
                106.51985100000007,
                20.92930000000007
              ],
              [
                106.52040900000009,
                20.92944600000004
              ],
              [
                106.52081500000008,
                20.929564000000028
              ],
              [
                106.52126000000004,
                20.92973900000004
              ],
              [
                106.52161200000006,
                20.92991500000005
              ],
              [
                106.52193500000004,
                20.930127000000027
              ],
              [
                106.52236600000003,
                20.930489000000023
              ],
              [
                106.52314600000005,
                20.931343000000027
              ],
              [
                106.52399300000008,
                20.932138000000066
              ],
              [
                106.52443800000009,
                20.932349000000045
              ],
              [
                106.52485100000007,
                20.93246000000005
              ],
              [
                106.52519400000006,
                20.932443000000035
              ],
              [
                106.52549900000008,
                20.932354000000032
              ],
              [
                106.52571800000004,
                20.932173000000034
              ],
              [
                106.52577000000008,
                20.932022000000075
              ],
              [
                106.52579100000008,
                20.93182100000007
              ],
              [
                106.52563500000008,
                20.931500000000028
              ],
              [
                106.52535300000005,
                20.93109400000003
              ],
              [
                106.52508700000004,
                20.930867000000035
              ],
              [
                106.52490000000006,
                20.930675000000065
              ],
              [
                106.52446700000007,
                20.930259000000035
              ],
              [
                106.52416300000004,
                20.929937000000052
              ],
              [
                106.52392000000003,
                20.92958100000004
              ],
              [
                106.52382100000005,
                20.929280000000063
              ],
              [
                106.52377200000006,
                20.929013000000054
              ],
              [
                106.52381600000007,
                20.92879300000004
              ],
              [
                106.52394000000004,
                20.92853400000007
              ],
              [
                106.52441800000008,
                20.927922000000024
              ],
              [
                106.52511500000008,
                20.927491000000032
              ],
              [
                106.52618200000006,
                20.927068000000077
              ],
              [
                106.52639300000004,
                20.92698800000005
              ],
              [
                106.52671900000007,
                20.926897000000054
              ],
              [
                106.52709400000003,
                20.926818000000026
              ],
              [
                106.52733800000004,
                20.92680900000005
              ],
              [
                106.52874000000008,
                20.926746000000037
              ],
              [
                106.53007300000007,
                20.926686000000075
              ],
              [
                106.53151800000006,
                20.926735000000065
              ],
              [
                106.53253600000005,
                20.926793000000032
              ],
              [
                106.53357000000005,
                20.926875000000052
              ],
              [
                106.53441600000008,
                20.92699600000003
              ],
              [
                106.53485400000005,
                20.92707800000005
              ],
              [
                106.53536500000007,
                20.92725500000006
              ],
              [
                106.53600000000006,
                20.927662000000055
              ],
              [
                106.53614500000003,
                20.927797000000055
              ],
              [
                106.53629000000006,
                20.927968000000078
              ],
              [
                106.53646500000008,
                20.928184000000044
              ],
              [
                106.53663400000005,
                20.928477000000044
              ],
              [
                106.53686700000009,
                20.928946000000053
              ],
              [
                106.53724200000005,
                20.929707000000064
              ],
              [
                106.53756600000008,
                20.93058300000007
              ],
              [
                106.53768100000008,
                20.93102600000003
              ],
              [
                106.53772400000008,
                20.931343000000027
              ],
              [
                106.53771700000004,
                20.93181100000004
              ],
              [
                106.53770500000007,
                20.932052000000056
              ],
              [
                106.53767900000008,
                20.932267000000024
              ],
              [
                106.53762400000005,
                20.932567000000063
              ],
              [
                106.53752700000007,
                20.93278600000008
              ],
              [
                106.53744100000006,
                20.932953000000055
              ],
              [
                106.53730300000007,
                20.93320200000005
              ],
              [
                106.53718400000008,
                20.933361000000048
              ],
              [
                106.53703600000006,
                20.933506000000023
              ],
              [
                106.53676700000005,
                20.93372400000004
              ],
              [
                106.53636000000006,
                20.933920000000057
              ],
              [
                106.53597600000006,
                20.93399000000005
              ],
              [
                106.53561000000008,
                20.934010000000058
              ],
              [
                106.53513400000008,
                20.933944000000054
              ],
              [
                106.53509200000008,
                20.933935000000076
              ],
              [
                106.53466200000008,
                20.933880000000045
              ],
              [
                106.53418400000004,
                20.93384100000003
              ],
              [
                106.53384500000004,
                20.933844000000022
              ],
              [
                106.53350900000004,
                20.933912000000078
              ],
              [
                106.53331200000008,
                20.93396000000007
              ],
              [
                106.53316000000007,
                20.934030000000064
              ],
              [
                106.53298100000006,
                20.934149000000048
              ],
              [
                106.53278800000004,
                20.93429800000007
              ],
              [
                106.53254300000003,
                20.934559000000036
              ],
              [
                106.53226400000005,
                20.934862000000066
              ],
              [
                106.53201900000005,
                20.93519800000007
              ],
              [
                106.53181500000005,
                20.93544000000003
              ],
              [
                106.53169900000006,
                20.93564900000007
              ],
              [
                106.53161400000005,
                20.935854000000063
              ],
              [
                106.53157000000004,
                20.936044000000038
              ],
              [
                106.53156400000006,
                20.93622000000005
              ],
              [
                106.53158100000007,
                20.936378000000047
              ],
              [
                106.53171500000008,
                20.93685000000005
              ],
              [
                106.53199100000006,
                20.93728100000004
              ],
              [
                106.53221800000006,
                20.937508000000037
              ],
              [
                106.53260600000004,
                20.937806000000023
              ],
              [
                106.53337100000005,
                20.938169000000073
              ],
              [
                106.53441400000008,
                20.938757000000066
              ],
              [
                106.53575900000004,
                20.939404000000025
              ],
              [
                106.53659200000004,
                20.939663000000053
              ],
              [
                106.53750300000007,
                20.93985200000003
              ],
              [
                106.53862400000008,
                20.94003900000007
              ],
              [
                106.53972700000008,
                20.94022700000005
              ],
              [
                106.54023600000005,
                20.940240000000074
              ],
              [
                106.54059200000006,
                20.940243000000066
              ],
              [
                106.54089000000005,
                20.94017400000007
              ],
              [
                106.54123800000008,
                20.94001600000007
              ],
              [
                106.54158500000005,
                20.939702000000068
              ],
              [
                106.54188700000009,
                20.939382000000023
              ],
              [
                106.54218100000008,
                20.938878000000045
              ],
              [
                106.54255500000005,
                20.938140000000033
              ],
              [
                106.54296200000005,
                20.93734900000004
              ],
              [
                106.54300900000004,
                20.937674000000072
              ],
              [
                106.54314600000004,
                20.938645000000065
              ],
              [
                106.54341200000005,
                20.94051600000006
              ],
              [
                106.54388400000005,
                20.94341000000003
              ],
              [
                106.54392400000006,
                20.943655000000035
              ],
              [
                106.54380700000007,
                20.94378400000005
              ],
              [
                106.54362300000008,
                20.94398700000005
              ],
              [
                106.54332100000005,
                20.944318000000067
              ],
              [
                106.54329600000005,
                20.944342000000063
              ],
              [
                106.54463500000008,
                20.945619000000022
              ],
              [
                106.54442000000006,
                20.945952000000034
              ],
              [
                106.54555400000004,
                20.947421000000077
              ],
              [
                106.54610400000007,
                20.948343000000023
              ],
              [
                106.54617900000005,
                20.948995000000025
              ],
              [
                106.54631600000005,
                20.949491000000023
              ],
              [
                106.54644600000006,
                20.94989000000004
              ],
              [
                106.54644800000005,
                20.949897000000078
              ],
              [
                106.54663200000005,
                20.950239000000067
              ],
              [
                106.54681700000003,
                20.950582000000054
              ],
              [
                106.54717600000004,
                20.951217000000042
              ],
              [
                106.54743400000007,
                20.951711000000046
              ],
              [
                106.54746300000005,
                20.951766000000077
              ],
              [
                106.54766700000005,
                20.95216300000004
              ],
              [
                106.54784200000006,
                20.95257300000003
              ],
              [
                106.54789400000004,
                20.95280500000007
              ],
              [
                106.54794500000008,
                20.95303800000005
              ],
              [
                106.54800600000004,
                20.95352500000007
              ],
              [
                106.54801800000007,
                20.953999000000067
              ],
              [
                106.54798400000004,
                20.954867000000036
              ],
              [
                106.54784400000005,
                20.955626000000052
              ],
              [
                106.54772700000007,
                20.956223000000023
              ],
              [
                106.54750900000005,
                20.956860000000063
              ],
              [
                106.54715300000004,
                20.95767500000005
              ],
              [
                106.54690500000004,
                20.958168000000057
              ],
              [
                106.54635500000006,
                20.958736000000044
              ],
              [
                106.54584300000005,
                20.95913500000006
              ],
              [
                106.54539200000005,
                20.95936800000004
              ],
              [
                106.54485000000005,
                20.959574000000032
              ],
              [
                106.54423500000007,
                20.959685000000036
              ],
              [
                106.54373000000004,
                20.959655000000055
              ],
              [
                106.54324400000007,
                20.959527000000037
              ],
              [
                106.54296800000009,
                20.95935000000003
              ],
              [
                106.54295200000007,
                20.959339000000057
              ],
              [
                106.54277600000006,
                20.959226000000058
              ],
              [
                106.54227300000008,
                20.958736000000044
              ],
              [
                106.54220500000008,
                20.958611000000076
              ],
              [
                106.54200200000008,
                20.958236000000056
              ],
              [
                106.54199200000005,
                20.95821600000005
              ],
              [
                106.54116500000003,
                20.956402000000026
              ],
              [
                106.54113900000004,
                20.956357000000025
              ],
              [
                106.54072000000008,
                20.955609000000038
              ],
              [
                106.54053400000004,
                20.955276000000026
              ],
              [
                106.54043600000006,
                20.955137000000036
              ],
              [
                106.53995300000008,
                20.95444800000007
              ],
              [
                106.53929100000005,
                20.953945000000033
              ],
              [
                106.53882800000008,
                20.953622000000053
              ],
              [
                106.53841400000005,
                20.95354700000007
              ],
              [
                106.53786200000008,
                20.95364500000005
              ],
              [
                106.53747800000008,
                20.95375000000007
              ],
              [
                106.53703700000005,
                20.95401000000004
              ],
              [
                106.53672600000004,
                20.954386000000056
              ],
              [
                106.53652200000005,
                20.954852000000074
              ],
              [
                106.53640000000007,
                20.955462000000068
              ],
              [
                106.53639600000008,
                20.95638800000006
              ],
              [
                106.53648700000008,
                20.957286000000067
              ],
              [
                106.53652500000004,
                20.95814900000005
              ],
              [
                106.53664300000008,
                20.958627000000035
              ],
              [
                106.53676500000006,
                20.95986800000003
              ],
              [
                106.53687200000007,
                20.961020000000076
              ],
              [
                106.53680600000007,
                20.962280000000078
              ],
              [
                106.53660500000007,
                20.96342800000008
              ],
              [
                106.53626400000007,
                20.964410000000044
              ],
              [
                106.53613100000007,
                20.964699000000053
              ],
              [
                106.53573100000006,
                20.965351000000055
              ],
              [
                106.53537600000004,
                20.96563800000007
              ],
              [
                106.53464300000007,
                20.966034000000036
              ],
              [
                106.53407600000008,
                20.96611800000005
              ],
              [
                106.53364800000008,
                20.966142000000048
              ],
              [
                106.53307000000007,
                20.966009000000042
              ],
              [
                106.53246800000005,
                20.96568300000007
              ],
              [
                106.53039700000005,
                20.96410700000007
              ],
              [
                106.52912800000007,
                20.963313000000028
              ],
              [
                106.52864200000005,
                20.963108000000034
              ],
              [
                106.52791000000008,
                20.962980000000073
              ],
              [
                106.52705900000007,
                20.963043000000027
              ],
              [
                106.52666100000005,
                20.963212000000055
              ],
              [
                106.52624000000009,
                20.96357500000005
              ],
              [
                106.52619000000004,
                20.96374700000007
              ],
              [
                106.52607000000006,
                20.964158000000054
              ],
              [
                106.52579600000007,
                20.965130000000045
              ],
              [
                106.52561200000008,
                20.965881000000024
              ],
              [
                106.52537500000005,
                20.96641500000004
              ],
              [
                106.52516600000007,
                20.966994000000057
              ],
              [
                106.52489000000008,
                20.96755500000006
              ],
              [
                106.52465200000006,
                20.967949000000033
              ],
              [
                106.52425600000004,
                20.968570000000057
              ],
              [
                106.52367300000009,
                20.969227000000046
              ],
              [
                106.52325100000007,
                20.969523000000038
              ],
              [
                106.52247000000006,
                20.969978000000026
              ],
              [
                106.52173000000005,
                20.97010800000004
              ],
              [
                106.52090300000003,
                20.970102000000054
              ],
              [
                106.52040200000005,
                20.96992800000004
              ],
              [
                106.51890800000007,
                20.96931200000006
              ],
              [
                106.51760200000007,
                20.968699000000072
              ],
              [
                106.51709600000004,
                20.968516000000022
              ],
              [
                106.51626300000004,
                20.968263000000036
              ],
              [
                106.51544500000006,
                20.968140000000062
              ],
              [
                106.51508000000007,
                20.968110000000024
              ],
              [
                106.51438700000006,
                20.968140000000062
              ],
              [
                106.51363800000007,
                20.968256000000054
              ],
              [
                106.51306600000004,
                20.968408000000068
              ],
              [
                106.51260100000007,
                20.968690000000038
              ],
              [
                106.51232900000008,
                20.969002000000046
              ],
              [
                106.51206200000007,
                20.969797000000028
              ],
              [
                106.51208100000008,
                20.970407000000023
              ],
              [
                106.51221400000009,
                20.970792000000074
              ],
              [
                106.51222500000006,
                20.97082400000005
              ],
              [
                106.51247100000006,
                20.971204000000057
              ],
              [
                106.51286800000008,
                20.971487000000025
              ],
              [
                106.51360900000009,
                20.97195000000005
              ],
              [
                106.51505400000008,
                20.972613000000024
              ],
              [
                106.51560400000005,
                20.97287700000004
              ],
              [
                106.51626000000005,
                20.973230000000058
              ],
              [
                106.51633800000008,
                20.973294000000067
              ],
              [
                106.51668900000004,
                20.973581000000024
              ],
              [
                106.51687300000003,
                20.973824000000036
              ],
              [
                106.51711900000004,
                20.974090000000047
              ],
              [
                106.51733600000006,
                20.97442700000005
              ],
              [
                106.51736400000004,
                20.97447100000005
              ],
              [
                106.51750800000008,
                20.974888000000078
              ],
              [
                106.51753800000006,
                20.97534100000007
              ],
              [
                106.51744200000007,
                20.975844000000052
              ],
              [
                106.51706900000005,
                20.97670800000003
              ],
              [
                106.51649400000008,
                20.97771700000004
              ],
              [
                106.51580200000006,
                20.97852400000005
              ],
              [
                106.51464300000004,
                20.979633000000035
              ],
              [
                106.51266200000003,
                20.981384000000048
              ],
              [
                106.51086900000007,
                20.982714000000044
              ],
              [
                106.50937600000009,
                20.983528000000035
              ],
              [
                106.50820900000008,
                20.983945000000062
              ],
              [
                106.50762500000008,
                20.984082000000058
              ],
              [
                106.50669800000009,
                20.98413000000005
              ],
              [
                106.50626900000009,
                20.984073000000024
              ],
              [
                106.50577800000008,
                20.983963000000074
              ],
              [
                106.50538800000004,
                20.983806000000072
              ],
              [
                106.50496400000009,
                20.98360500000007
              ],
              [
                106.50439500000005,
                20.983228000000054
              ],
              [
                106.50393600000007,
                20.982887000000062
              ],
              [
                106.50315400000005,
                20.982244000000037
              ],
              [
                106.50260000000009,
                20.981737000000066
              ],
              [
                106.50219200000004,
                20.981364000000042
              ],
              [
                106.50187300000005,
                20.981081000000074
              ],
              [
                106.50187200000005,
                20.981080000000077
              ],
              [
                106.50064300000008,
                20.980106000000035
              ],
              [
                106.50032900000008,
                20.979872000000057
              ],
              [
                106.50004400000006,
                20.979675000000043
              ],
              [
                106.49992300000008,
                20.97960100000006
              ],
              [
                106.49927700000006,
                20.979209000000026
              ],
              [
                106.49874700000004,
                20.978926000000058
              ],
              [
                106.49830800000007,
                20.978693000000078
              ],
              [
                106.49806200000006,
                20.978582000000074
              ],
              [
                106.49769600000008,
                20.97841600000004
              ],
              [
                106.49742300000008,
                20.97830300000004
              ],
              [
                106.49714700000004,
                20.978188000000046
              ],
              [
                106.49708900000007,
                20.97817200000003
              ],
              [
                106.49556800000005,
                20.977782000000047
              ],
              [
                106.49345800000003,
                20.97724100000005
              ],
              [
                106.49218700000006,
                20.97730000000007
              ]
            ]
          ]
        ]
      }
    }
  ]
}