{"type":"FeatureCollection","features":[{"type":"Feature","properties":{},"geometry":{"type":"LineString","coordinates":[[106.6257762,20.803305],[106.6277506,20.8001572],[106.631473,20.79299],[106.6330682,20.7922857],[106.6448247,20.7918422],[106.6487983,20.791698],[106.6508982,20.7912777],[106.6523729,20.7911579],[106.6551904,20.7910988],[106.6574224,20.7904311],[106.6586079,20.7905518],[106.6612513,20.7915549],[106.6646113,20.7928263],[106.6696747,20.7931234],[106.6745559,20.7938352],[106.6783888,20.7941577],[106.6887747,20.7951115],[106.6964694,20.7958377],[106.7001951,20.7961485],[106.7050036,20.7971038],[106.7111455,20.7986814]]}}]}